{"type": "FeatureCollection", "features": [{"type": "Feature", "id": 3, "geometry": {"type": "LineString", "coordinates": [[-66.7698570109622, -7.28863655693218], [-67.1622261377768, -7.10298060940524], [-67.472185671854, -6.94541245519776], [-67.8275051376379, -6.69769912113737], [-68.2584244901984, -6.42732304330896], [-68.6288639335173, -6.36721973247833], [-68.8707835704837, -6.36721973247833], [-69.2261030362676, -6.42732304330896], [-69.5285025824757, -6.60759010773333], [-69.6267824346564, -6.70520745771175], [-69.7175022980697, -6.86285560660721], [-69.7477422531397, -7.04296094685672], [-69.6721423663631, -7.38046863197674], [-69.5360625703449, -7.77015628862412], [-69.4151027527599, -8.2567556914451], [-69.3168229005792, -8.94444908597742], [-69.2412230138026, -9.81713007452388], [-69.1731831157935, -10.7617965067539], [-69.1668351564652, -11.3287577279317]]}, "properties": {"OBJECTID": 3, "FID_Boundaries": 5, "id": 1, "name": "The Reach", "Symbol": null, "Visible": null, "Shape__Length": 886535.8141331}}, {"type": "Feature", "id": 4, "geometry": {"type": "LineString", "coordinates": [[-66.7698570109622, -7.28863655693218], [-67.1622261377768, -7.10298060940524], [-67.472185671854, -6.94541245519776], [-67.8275051376379, -6.69769912113737], [-68.2584244901984, -6.42732304330896], [-68.6288639335173, -6.36721973247833], [-68.8707835704837, -6.36721973247833], [-69.2261030362676, -6.42732304330896], [-69.5285025824757, -6.60759010773333], [-69.6267824346564, -6.70520745771175], [-69.7175022980697, -6.86285560660721], [-69.7477422531397, -7.04296094685672], [-69.6721423663631, -7.38046863197674], [-69.5360625703449, -7.77015628862412], [-69.4151027527599, -8.2567556914451], [-69.3168229005792, -8.94444908597742], [-69.2412230138026, -9.81713007452388], [-69.1731831157935, -10.7617965067539], [-69.1668351564652, -11.3287577279317]]}, "properties": {"OBJECTID": 4, "FID_Boundaries": 11, "id": 1, "name": "Dorne", "Symbol": null, "Visible": null, "Shape__Length": 886535.8141331}}, {"type": "Feature", "id": 6, "geometry": {"type": "LineString", "coordinates": [[-66.7698570109622, -7.28863655693218], [-66.6708268759747, -7.33548222403765], [-66.3986672848366, -7.41795381254849], [-65.6426684206639, -7.73270174207913], [-65.0983492383876, -7.91994091238428], [-64.4179502609915, -7.97235271728675], [-63.6619513968188, -7.98732628770033], [-63.0949522491384, -7.94989133526806], [-62.7623127487587, -7.9049648845151], [-62.4372332371465, -7.81509733363904], [-62.2028735889475, -7.71771899124646], [-61.9231540099402, -7.53788485511909], [-61.6812343729737, -7.32798404637873], [-61.5753945320255, -7.08797642540809], [-61.4922346573797, -6.78028443950293], [-61.393954805199, -6.5249757499927], [-61.2049550887066, -6.23947691356082], [-61.0083953843451, -6.10418587636012], [-60.751355770742, -6.08163402827593], [-60.5774760317846, -6.13425353113768], [-60.3582363611207, -6.22444628661775], [-60.1539754896599, -6.27396997323407]]}, "properties": {"OBJECTID": 6, "FID_Boundaries": 11, "id": 1, "name": "Dorne", "Symbol": null, "Visible": null, "Shape__Length": 858269.6583926562}}, {"type": "Feature", "id": 7, "geometry": {"type": "LineString", "coordinates": [[-66.7698570109622, -7.28863655693218], [-66.6708268759747, -7.33548222403765], [-66.3986672848366, -7.41795381254849], [-65.6426684206639, -7.73270174207913], [-65.0983492383876, -7.91994091238428], [-64.4179502609915, -7.97235271728675], [-63.6619513968188, -7.98732628770033], [-63.0949522491384, -7.94989133526806], [-62.7623127487587, -7.9049648845151], [-62.4372332371465, -7.81509733363904], [-62.2028735889475, -7.71771899124646], [-61.9231540099402, -7.53788485511909], [-61.6812343729737, -7.32798404637873], [-61.5753945320255, -7.08797642540809], [-61.4922346573797, -6.78028443950293], [-61.393954805199, -6.5249757499927], [-61.2049550887066, -6.23947691356082], [-61.0083953843451, -6.10418587636012], [-60.751355770742, -6.08163402827593], [-60.5774760317846, -6.13425353113768], [-60.3582363611207, -6.22444628661775], [-60.1539754896599, -6.27396997323407]]}, "properties": {"OBJECTID": 7, "FID_Boundaries": 12, "id": 1, "name": "Stormlands", "Symbol": null, "Visible": null, "Shape__Length": 858269.6583926562}}, {"type": "Feature", "id": 8, "geometry": {"type": "LineString", "coordinates": [[-56.4463996746892, 0.0753025622647476], [-56.3666299637722, -0.0785389764156723], [-56.3100397103035, -0.177571660764423], [-56.2791781578879, -0.239965251501979], [-56.2513459249346, -0.399631839593288], [-56.2542756338083, -0.584196608288808], [-56.2938267013584, -0.742390229858893], [-56.3410659805046, -0.842764080400707], [-56.3803704497294, -0.894640014699146], [-56.3894867131327, -0.903690963533996], [-56.3905070905993, -0.906241590361396], [-56.6292783534805, -1.18476141387057], [-56.8043772796533, -1.37573065228958], [-57.0511075845107, -1.55872852396289], [-57.345592142124, -1.76557643609637], [-57.6161995729103, -1.93262922693391], [-57.8231346678864, -2.04398871192638], [-58.1892506041845, -2.21101332477729], [-58.388226656286, -2.29054233617442], [-58.7543425934823, -2.40187549959596], [-59.0329090662449, -2.46549040310251], [-59.2318851192447, -2.48139365664853], [-59.6616733922512, -2.46549040310251], [-59.9720760338171, -2.53705353053554], [-60.2665605914304, -2.71991882414944], [-60.4973728123353, -2.93455126675138], [-60.6804307804843, -3.16503642606498], [-60.8316525807283, -3.40341536434685], [-60.9749153380977, -3.69733440427283], [-61.1181780963654, -4.03879309580928], [-61.1977685170263, -4.30868260871068], [-61.2932770225381, -4.60227690812719], [-61.4285807379312, -4.90368011124109], [-61.6514339168599, -5.10982551572451], [-61.9061232636936, -5.25250288404832], [-62.1687716525036, -5.32382937736286], [-62.4234610002356, -5.38722376271182], [-62.7338636418015, -5.41099495675775], [-63.0920205361232, -5.41891848042252], [-63.6809896513499, -5.38722376271182], [-63.9595561250108, -5.3476030426135], [-64.5405661973629, -5.3000547937426], [-64.9703544712677, -5.29212972895629], [-65.2887161548098, -5.30797975683933], [-65.6548320911078, -5.38722376271182], [-65.9413576067449, -5.46645743524321], [-66.2119650384295, -5.63281383980348], [-66.4666543852632, -5.86246552881937], [-66.6178761846088, -6.11576450394032], [-66.7133846901206, -6.36103356917268], [-66.8009341536562, -6.65362054584309], [-66.8088931956324, -6.86702045401019], [-66.7850160688053, -7.19088825262119], [-66.7698570109622, -7.28863655693218]]}, "properties": {"OBJECTID": 8, "FID_Boundaries": 5, "id": 1, "name": "The Reach", "Symbol": null, "Visible": null, "Shape__Length": 1652659.6984882073}}, {"type": "Feature", "id": 9, "geometry": {"type": "LineString", "coordinates": [[-56.4463996746892, 0.0753025622647476], [-56.3666299637722, -0.0785389764156723], [-56.3100397103035, -0.177571660764423], [-56.2791781578879, -0.239965251501979], [-56.2513459249346, -0.399631839593288], [-56.2542756338083, -0.584196608288808], [-56.2938267013584, -0.742390229858893], [-56.3410659805046, -0.842764080400707], [-56.3803704497294, -0.894640014699146], [-56.3894867131327, -0.903690963533996], [-56.3905070905993, -0.906241590361396], [-56.6292783534805, -1.18476141387057], [-56.8043772796533, -1.37573065228958], [-57.0511075845107, -1.55872852396289], [-57.345592142124, -1.76557643609637], [-57.6161995729103, -1.93262922693391], [-57.8231346678864, -2.04398871192638], [-58.1892506041845, -2.21101332477729], [-58.388226656286, -2.29054233617442], [-58.7543425934823, -2.40187549959596], [-59.0329090662449, -2.46549040310251], [-59.2318851192447, -2.48139365664853], [-59.6616733922512, -2.46549040310251], [-59.9720760338171, -2.53705353053554], [-60.2665605914304, -2.71991882414944], [-60.4973728123353, -2.93455126675138], [-60.6804307804843, -3.16503642606498], [-60.8316525807283, -3.40341536434685], [-60.9749153380977, -3.69733440427283], [-61.1181780963654, -4.03879309580928], [-61.1977685170263, -4.30868260871068], [-61.2932770225381, -4.60227690812719], [-61.4285807379312, -4.90368011124109], [-61.6514339168599, -5.10982551572451], [-61.9061232636936, -5.25250288404832], [-62.1687716525036, -5.32382937736286], [-62.4234610002356, -5.38722376271182], [-62.7338636418015, -5.41099495675775], [-63.0920205361232, -5.41891848042252], [-63.6809896513499, -5.38722376271182], [-63.9595561250108, -5.3476030426135], [-64.5405661973629, -5.3000547937426], [-64.9703544712677, -5.29212972895629], [-65.2887161548098, -5.30797975683933], [-65.6548320911078, -5.38722376271182], [-65.9413576067449, -5.46645743524321], [-66.2119650384295, -5.63281383980348], [-66.4666543852632, -5.86246552881937], [-66.6178761846088, -6.11576450394032], [-66.7133846901206, -6.36103356917268], [-66.8009341536562, -6.65362054584309], [-66.8088931956324, -6.86702045401019], [-66.7850160688053, -7.19088825262119], [-66.7698570109622, -7.28863655693218]]}, "properties": {"OBJECTID": 9, "FID_Boundaries": 12, "id": 1, "name": "Stormlands", "Symbol": null, "Visible": null, "Shape__Length": 1652659.6984882073}}, {"type": "Feature", "id": 12, "geometry": {"type": "LineString", "coordinates": [[-53.5423328666551, 0.996496813202504], [-53.9343218596791, 0.804881516984089], [-54.4769972202068, 0.555268633219196], [-55.3561313044773, 0.29479185164258], [-55.8228321151779, 0.131990427727518], [-56.4463996746892, 0.0753025622647476]]}, "properties": {"OBJECTID": 12, "FID_Boundaries": 9, "id": 1, "name": "Crownlands", "Symbol": null, "Visible": null, "Shape__Length": 341861.8525815776}}, {"type": "Feature", "id": 13, "geometry": {"type": "LineString", "coordinates": [[-53.5423328666551, 0.996496813202504], [-53.9343218596791, 0.804881516984089], [-54.4769972202068, 0.555268633219196], [-55.3561313044773, 0.29479185164258], [-55.8228321151779, 0.131990427727518], [-56.4463996746892, 0.0753025622647476]]}, "properties": {"OBJECTID": 13, "FID_Boundaries": 12, "id": 1, "name": "Stormlands", "Symbol": null, "Visible": null, "Shape__Length": 341861.8525815776}}, {"type": "Feature", "id": 14, "geometry": {"type": "LineString", "coordinates": [[-53.5423328666551, 0.996496813202504], [-53.5259814210364, 0.95398921542869], [-53.5069670428272, 0.782879532063898]]}, "properties": {"OBJECTID": 14, "FID_Boundaries": 12, "id": 1, "name": "Stormlands", "Symbol": null, "Visible": null, "Shape__Length": 24237.856913725926}}, {"type": "Feature", "id": 15, "geometry": {"type": "LineString", "coordinates": [[-61.7271400393003, 1.35830960883994], [-61.7271400393003, 1.31490739344053], [-61.5643374315013, 0.93510856172864], [-61.2712927367445, 0.587827534509195], [-60.8588594622763, 0.273085103825588], [-60.2619165655162, 0.240524909580456], [-59.1657123372143, 0.197111199138461], [-58.1997501949719, 0.164550840003795], [-57.5485397619794, 0.121136946976945], [-56.5391635907511, 0.0668694858111857], [-56.4463996746892, 0.0753025622647476]]}, "properties": {"OBJECTID": 15, "FID_Boundaries": 5, "id": 1, "name": "The Reach", "Symbol": null, "Visible": null, "Shape__Length": 650994.5776357411}}, {"type": "Feature", "id": 16, "geometry": {"type": "LineString", "coordinates": [[-61.7271400393003, 1.35830960883994], [-61.7271400393003, 1.31490739344053], [-61.5643374315013, 0.93510856172864], [-61.2712927367445, 0.587827534509195], [-60.8588594622763, 0.273085103825588], [-60.2619165655162, 0.240524909580456], [-59.1657123372143, 0.197111199138461], [-58.1997501949719, 0.164550840003795], [-57.5485397619794, 0.121136946976945], [-56.5391635907511, 0.0668694858111857], [-56.4463996746892, 0.0753025622647476]]}, "properties": {"OBJECTID": 16, "FID_Boundaries": 9, "id": 1, "name": "Crownlands", "Symbol": null, "Visible": null, "Shape__Length": 650994.5776357411}}, {"type": "Feature", "id": 17, "geometry": {"type": "LineString", "coordinates": [[-73.5862365640193, 0.179139711004495], [-73.3108307974143, 0.206008414382272], [-72.6915707108944, 0.260648555021653], [-72.1724850504388, 0.287968539105151], [-71.7900008790095, 0.287968539105151], [-71.3619828782042, 0.269755222974752], [-71.1798475589037, 0.315288458613823], [-70.9794987067749, 0.41546083507893], [-70.6425483656198, 0.661332471387818], [-70.2236371312287, 0.943614242310006], [-69.8866867900737, 1.15303468458107], [-69.5770567463645, 1.3169183390965], [-69.1854658094194, 1.49899859346747], [-68.7665545741299, 1.65375497636534], [-68.3567501052547, 1.72657740394409], [-68.0926538918198, 1.73568001307684], [-67.7374900187347, 1.69016653199349], [-67.2001908263491, 1.57182655836444], [-66.9360946129143, 1.54451636243119], [-66.5718239743133, 1.54451636243119], [-66.2895142289484, 1.59003315729183], [-65.9161368239333, 1.66285792870396], [-65.6156135466383, 1.77209001089346], [-65.3697308651335, 1.93592593058721], [-65.1693820130047, 2.09974601739295], [-64.9417128643282, 2.36364168750028], [-64.7960046079895, 2.6183899713502], [-64.6502963525491, 2.93675191186162], [-64.4317339693885, 3.40048565390061], [-64.3224527778083, 3.7731310098906], [-64.2222783517438, 4.07294976991547], [-64.1676377559537, 4.39989713584041], [-64.1602048581377, 4.69627650142113]]}, "properties": {"OBJECTID": 17, "FID_Boundaries": 5, "id": 1, "name": "The Reach", "Symbol": null, "Visible": null, "Shape__Length": 1312394.331168305}}, {"type": "Feature", "id": 18, "geometry": {"type": "LineString", "coordinates": [[-73.5862365640193, 0.179139711004495], [-73.3108307974143, 0.206008414382272], [-72.6915707108944, 0.260648555021653], [-72.1724850504388, 0.287968539105151], [-71.7900008790095, 0.287968539105151], [-71.3619828782042, 0.269755222974752], [-71.1798475589037, 0.315288458613823], [-70.9794987067749, 0.41546083507893], [-70.6425483656198, 0.661332471387818], [-70.2236371312287, 0.943614242310006], [-69.8866867900737, 1.15303468458107], [-69.5770567463645, 1.3169183390965], [-69.1854658094194, 1.49899859346747], [-68.7665545741299, 1.65375497636534], [-68.3567501052547, 1.72657740394409], [-68.0926538918198, 1.73568001307684], [-67.7374900187347, 1.69016653199349], [-67.2001908263491, 1.57182655836444], [-66.9360946129143, 1.54451636243119], [-66.5718239743133, 1.54451636243119], [-66.2895142289484, 1.59003315729183], [-65.9161368239333, 1.66285792870396], [-65.6156135466383, 1.77209001089346], [-65.3697308651335, 1.93592593058721], [-65.1693820130047, 2.09974601739295], [-64.9417128643282, 2.36364168750028], [-64.7960046079895, 2.6183899713502], [-64.6502963525491, 2.93675191186162], [-64.4317339693885, 3.40048565390061], [-64.3224527778083, 3.7731310098906], [-64.2222783517438, 4.07294976991547], [-64.1676377559537, 4.39989713584041], [-64.1602048581377, 4.69627650142113]]}, "properties": {"OBJECTID": 18, "FID_Boundaries": 10, "id": 1, "name": "Westerlands", "Symbol": null, "Visible": null, "Shape__Length": 1312394.331168305}}, {"type": "Feature", "id": 19, "geometry": {"type": "LineString", "coordinates": [[-64.1602048581377, 4.69627650142113], [-64.1583256553268, 4.69605046246442], [-63.6590643237851, 4.70686745089929], [-63.4094336580142, 4.66359849214896], [-63.0838284415179, 4.55541448634234], [-62.7907837467611, 4.39310807784978], [-62.5737136027296, 4.2307663383973], [-62.3783504722929, 4.01425796881638], [-62.2264013717404, 3.78686242737224], [-62.0201847340571, 3.44024123832331], [-61.9333566769836, 3.18019189838421], [-61.7814075755328, 2.59484919396954], [-61.7379935465468, 2.24784759018394], [-61.7271400393003, 1.60785645340822], [-61.7271400393003, 1.35830960883994]]}, "properties": {"OBJECTID": 19, "FID_Boundaries": 5, "id": 1, "name": "The Reach", "Symbol": null, "Visible": null, "Shape__Length": 533716.8101694365}}, {"type": "Feature", "id": 20, "geometry": {"type": "LineString", "coordinates": [[-64.1602048581377, 4.69627650142113], [-64.1583256553268, 4.69605046246442], [-63.6590643237851, 4.70686745089929], [-63.4094336580142, 4.66359849214896], [-63.0838284415179, 4.55541448634234], [-62.7907837467611, 4.39310807784978], [-62.5737136027296, 4.2307663383973], [-62.3783504722929, 4.01425796881638], [-62.2264013717404, 3.78686242737224], [-62.0201847340571, 3.44024123832331], [-61.9333566769836, 3.18019189838421], [-61.7814075755328, 2.59484919396954], [-61.7379935465468, 2.24784759018394], [-61.7271400393003, 1.60785645340822], [-61.7271400393003, 1.35830960883994]]}, "properties": {"OBJECTID": 20, "FID_Boundaries": 8, "id": 1, "name": "Riverlands", "Symbol": null, "Visible": null, "Shape__Length": 533716.8101694365}}, {"type": "Feature", "id": 21, "geometry": {"type": "LineString", "coordinates": [[-56.074585322997, 7.31249826475645], [-55.9747812157304, 7.13569145690658], [-55.8770996514103, 6.87715267918775], [-55.8011251006849, 6.54299914511052], [-55.8336856224244, 6.39201710979933], [-55.9639277084839, 6.20862194245039], [-56.1158768099347, 6.0467495647164], [-56.2678259104872, 5.98198697370453], [-56.5174565771564, 6.01436923326699], [-56.9950108942052, 6.1007124713289], [-57.5159792402399, 6.1546699463407], [-57.7547563987643, 6.1546699463407], [-58.036947587173, 6.06833537612521], [-58.2106037022184, 5.86323569213724], [-58.3625528027709, 5.5932531944916], [-58.5145019042217, 5.48522496185748], [-58.840107120718, 5.24749452590617], [-59.3068079305203, 4.96642385012196], [-59.5564385971895, 4.7933972722806], [-59.730094712235, 4.56623362573997], [-59.8277762774534, 4.2848840971463], [-59.8603367982945, 4.02508477687419], [-59.8820438127875, 3.7652025366767], [-59.9797253780058, 3.48357604279042], [-60.0991139577172, 3.21270176280674], [-60.3053305945021, 2.90923749591306], [-60.4247191742135, 2.72495092900266], [-60.6743498399844, 2.42135949986929], [-60.9999550564807, 2.07431505173157], [-61.303853258484, 1.75973989916401], [-61.5534839242548, 1.53191042503364], [-61.7271400393003, 1.35830960883994]]}, "properties": {"OBJECTID": 21, "FID_Boundaries": 8, "id": 1, "name": "Riverlands", "Symbol": null, "Visible": null, "Shape__Length": 1067975.0950190937}}, {"type": "Feature", "id": 22, "geometry": {"type": "LineString", "coordinates": [[-56.074585322997, 7.31249826475645], [-55.9747812157304, 7.13569145690658], [-55.8770996514103, 6.87715267918775], [-55.8011251006849, 6.54299914511052], [-55.8336856224244, 6.39201710979933], [-55.9639277084839, 6.20862194245039], [-56.1158768099347, 6.0467495647164], [-56.2678259104872, 5.98198697370453], [-56.5174565771564, 6.01436923326699], [-56.9950108942052, 6.1007124713289], [-57.5159792402399, 6.1546699463407], [-57.7547563987643, 6.1546699463407], [-58.036947587173, 6.06833537612521], [-58.2106037022184, 5.86323569213724], [-58.3625528027709, 5.5932531944916], [-58.5145019042217, 5.48522496185748], [-58.840107120718, 5.24749452590617], [-59.3068079305203, 4.96642385012196], [-59.5564385971895, 4.7933972722806], [-59.730094712235, 4.56623362573997], [-59.8277762774534, 4.2848840971463], [-59.8603367982945, 4.02508477687419], [-59.8820438127875, 3.7652025366767], [-59.9797253780058, 3.48357604279042], [-60.0991139577172, 3.21270176280674], [-60.3053305945021, 2.90923749591306], [-60.4247191742135, 2.72495092900266], [-60.6743498399844, 2.42135949986929], [-60.9999550564807, 2.07431505173157], [-61.303853258484, 1.75973989916401], [-61.5534839242548, 1.53191042503364], [-61.7271400393003, 1.35830960883994]]}, "properties": {"OBJECTID": 22, "FID_Boundaries": 9, "id": 1, "name": "Crownlands", "Symbol": null, "Visible": null, "Shape__Length": 1067975.0950190937}}, {"type": "Feature", "id": 26, "geometry": {"type": "LineString", "coordinates": [[-64.1602048581377, 4.69627650142113], [-64.7878290738264, 4.77176583627139], [-65.3413579416006, 4.99886132702314], [-65.7103771870828, 5.3015322744449], [-65.9491543456072, 5.56084680144115], [-66.1770779977834, 6.13308761115593], [-66.2530525476105, 6.82327254226856], [-66.2204920258711, 7.25413992759298], [-66.0468359108256, 7.51246411052461], [-65.9057403166213, 7.83515287707687], [-65.6452561436039, 8.38314491716404], [-65.5475745792838, 8.82313059731739], [-65.439039506819, 9.24116782076143], [-65.4281859995725, 9.73359861742547], [-65.5909886082698, 10.0757337317692], [-65.8731797957801, 10.7908907347494], [-66.0336060353608, 11.2447713382157]]}, "properties": {"OBJECTID": 26, "FID_Boundaries": 8, "id": 1, "name": "Riverlands", "Symbol": null, "Visible": null, "Shape__Length": 906112.6302427473}}, {"type": "Feature", "id": 27, "geometry": {"type": "LineString", "coordinates": [[-64.1602048581377, 4.69627650142113], [-64.7878290738264, 4.77176583627139], [-65.3413579416006, 4.99886132702314], [-65.7103771870828, 5.3015322744449], [-65.9491543456072, 5.56084680144115], [-66.1770779977834, 6.13308761115593], [-66.2530525476105, 6.82327254226856], [-66.2204920258711, 7.25413992759298], [-66.0468359108256, 7.51246411052461], [-65.9057403166213, 7.83515287707687], [-65.6452561436039, 8.38314491716404], [-65.5475745792838, 8.82313059731739], [-65.439039506819, 9.24116782076143], [-65.4281859995725, 9.73359861742547], [-65.5909886082698, 10.0757337317692], [-65.8731797957801, 10.7908907347494], [-66.0336060353608, 11.2447713382157]]}, "properties": {"OBJECTID": 27, "FID_Boundaries": 10, "id": 1, "name": "Westerlands", "Symbol": null, "Visible": null, "Shape__Length": 906112.6302427473}}, {"type": "Feature", "id": 29, "geometry": {"type": "LineString", "coordinates": [[-58.378434956807, 8.32675919564884], [-58.5598075821768, 8.53537829259797], [-58.8356261920285, 8.89888768263837], [-59.3203982927221, 9.53415251760282], [-59.6129331809788, 9.93780194033515], [-60.1394959803798, 10.5464454856021], [-60.6577006405783, 10.9488091863442], [-61.3765006524163, 11.5390417203821], [-61.6188867027631, 11.8418775732255], [-61.7024680992795, 12.1116918264087], [-61.7442587979869, 12.4302115936356], [-61.7860494957959, 12.7320368162648], [-61.8111239152, 12.9846414806648], [-61.8612727531099, 13.4403061407747], [-61.8947053117164, 13.7814888752017], [-61.9197797311205, 14.1870090618977], [-61.928137870323, 14.5756272904437], [-61.928137870323, 14.9231839486763], [-61.8696308923124, 15.3749730834442], [-61.7526169371894, 15.7453555082584], [-61.6396501888654, 15.9699351231625]]}, "properties": {"OBJECTID": 29, "FID_Boundaries": 7, "id": 1, "name": "The Vale", "Symbol": null, "Visible": null, "Shape__Length": 1021346.473568672}}, {"type": "Feature", "id": 30, "geometry": {"type": "LineString", "coordinates": [[-58.378434956807, 8.32675919564884], [-58.5598075821768, 8.53537829259797], [-58.8356261920285, 8.89888768263837], [-59.3203982927221, 9.53415251760282], [-59.6129331809788, 9.93780194033515], [-60.1394959803798, 10.5464454856021], [-60.6577006405783, 10.9488091863442], [-61.3765006524163, 11.5390417203821], [-61.6188867027631, 11.8418775732255], [-61.7024680992795, 12.1116918264087], [-61.7442587979869, 12.4302115936356], [-61.7860494957959, 12.7320368162648], [-61.8111239152, 12.9846414806648], [-61.8612727531099, 13.4403061407747], [-61.8947053117164, 13.7814888752017], [-61.9197797311205, 14.1870090618977], [-61.928137870323, 14.5756272904437], [-61.928137870323, 14.9231839486763], [-61.8696308923124, 15.3749730834442], [-61.7526169371894, 15.7453555082584], [-61.6396501888654, 15.9699351231625]]}, "properties": {"OBJECTID": 30, "FID_Boundaries": 8, "id": 1, "name": "Riverlands", "Symbol": null, "Visible": null, "Shape__Length": 1021346.473568672}}, {"type": "Feature", "id": 31, "geometry": {"type": "LineString", "coordinates": [[-62.0832718794434, 16.0300076051266], [-62.3100217766997, 15.9781119976906], [-62.5664448648453, 15.891479315863], [-62.8713804287623, 15.7514554804161], [-63.1693856393826, 15.6313581470037], [-63.4881819116895, 15.5379003604163], [-63.7446049998351, 15.4644394826622], [-64.0287495029638, 15.4176780731705], [-64.3059636518976, 15.3775884848415], [-64.5554563867465, 15.3642235731522], [-64.8049491206971, 15.390952539189], [-65.0405811480544, 15.451080155701], [-65.2207703454452, 15.5779589032484], [-65.4841237868874, 15.651379276234], [-65.7405468750329, 15.6780710666432], [-65.948457487407, 15.6380320740877], [-66.2256716363408, 15.5779589032484], [-66.4266518954182, 15.4644394826622], [-66.6761446293688, 15.2572734960481], [-66.780099936005, 15.1168188941135], [-66.8424731192681, 14.976271220256], [-66.8632641800563, 14.7753289331761], [-66.8737440662981, 14.712830964428]]}, "properties": {"OBJECTID": 31, "FID_Boundaries": 6, "id": 1, "name": "The North", "Symbol": null, "Visible": null, "Shape__Length": 612819.6222408903}}, {"type": "Feature", "id": 32, "geometry": {"type": "LineString", "coordinates": [[-62.0832718794434, 16.0300076051266], [-62.3100217766997, 15.9781119976906], [-62.5664448648453, 15.891479315863], [-62.8713804287623, 15.7514554804161], [-63.1693856393826, 15.6313581470037], [-63.4881819116895, 15.5379003604163], [-63.7446049998351, 15.4644394826622], [-64.0287495029638, 15.4176780731705], [-64.3059636518976, 15.3775884848415], [-64.5554563867465, 15.3642235731522], [-64.8049491206971, 15.390952539189], [-65.0405811480544, 15.451080155701], [-65.2207703454452, 15.5779589032484], [-65.4841237868874, 15.651379276234], [-65.7405468750329, 15.6780710666432], [-65.948457487407, 15.6380320740877], [-66.2256716363408, 15.5779589032484], [-66.4266518954182, 15.4644394826622], [-66.6761446293688, 15.2572734960481], [-66.780099936005, 15.1168188941135], [-66.8424731192681, 14.976271220256], [-66.8632641800563, 14.7753289331761], [-66.8737440662981, 14.712830964428]]}, "properties": {"OBJECTID": 32, "FID_Boundaries": 8, "id": 1, "name": "Riverlands", "Symbol": null, "Visible": null, "Shape__Length": 612819.6222408903}}, {"type": "Feature", "id": 33, "geometry": {"type": "LineString", "coordinates": [[-62.0832718794434, 16.0300076051266], [-62.0748458644364, 16.007330829781], [-61.9493509677166, 15.9524919424978], [-61.7097698026399, 15.9744293010705], [-61.6396501888654, 15.9699351231625]]}, "properties": {"OBJECTID": 33, "FID_Boundaries": 8, "id": 1, "name": "Riverlands", "Symbol": null, "Visible": null, "Shape__Length": 52748.05262445644}}, {"type": "Feature", "id": 38, "geometry": {"type": "LineString", "coordinates": [[-56.6640008371395, 35.0404202237305], [-57.2164747647666, 35.0019728615452], [-57.5564806849364, 34.9903674622774], [-57.6093219731787, 34.9885636863067], [-57.9016750918292, 34.9785832814137], [-58.1274707725396, 34.974768873723], [-58.6881876376204, 34.9677000466838], [-59.0531058420653, 34.9710599933712], [-59.3650995024073, 34.9739325341772], [-59.8219368957299, 34.9843882482732], [-60.0458142421174, 34.9895116792508], [-60.099550318858, 34.9923672183629], [-60.7493462358582, 35.0268895317767], [-61.3120726924167, 35.0671093170011], [-61.4675888637236, 35.0847861278273], [-61.6506277624357, 35.0984826582501], [-61.7875312857217, 35.0891479856154], [-61.9060580684619, 35.052965111695], [-62.0334949314848, 35.0105177952269], [-62.0935126215801, 34.9779372380486], [-62.1640159740844, 34.9396479837492], [-62.2506610928436, 34.8661380074898], [-62.3294410651334, 34.7992437583382], [-62.486785044837, 34.6651002775759], [-62.6490797757171, 34.5581563400588], [-62.7791311090176, 34.4693804996011], [-62.9455069185728, 34.3850794821689], [-63.045104265102, 34.3574717616643]]}, "properties": {"OBJECTID": 38, "FID_Boundaries": 1, "id": 1, "name": "The Lands of Always Winter", "Symbol": null, "Visible": null, "Shape__Length": 745326.7934750622}}]}