{"type": "FeatureCollection", "features": [{"type": "Feature", "id": 1, "geometry": {"type": "Polygon", "coordinates": [[[-59.8785417108894, 7.162807942826], [-59.8443158302925, 6.92503520730182], [-59.8899503383539, 6.75512389140512], [-59.935584845517, 6.6304842306744], [-60.0496711147723, 6.4831422148478], [-60.1217407518397, 6.42048066844394], [-60.1231476150843, 6.41925738237646], [-60.1331191222488, 6.06736893569114], [-60.1402157734675, 5.81679163643852], [-60.1751660114921, 5.67769345121055], [-60.3577040419412, 5.56415576235432], [-60.5972852079162, 5.57551052467418], [-60.8368663729929, 5.68904599701001], [-60.9937665193692, 5.70989725511802], [-61.0444021974507, 5.77227458814281], [-61.1334906726973, 5.88200463773923], [-61.2475769419525, 6.13161615994248], [-61.2703941959832, 6.38111091586699], [-61.2818028234478, 6.83442335850073], [-61.3388459580754, 7.08356393604173], [-61.293211450014, 7.27598974109458], [-61.2626526271541, 7.29902684018104], [-61.2475769419525, 7.34388514981906], [-61.1220820461311, 7.49095617540678], [-60.939544015682, 7.55881843084203], [-60.7341887303038, 7.55881843084203], [-60.6201024610486, 7.4796447686804], [-60.3595054030377, 7.44630418317135], [-60.3234781613442, 7.43439621682673], [-60.1979832655228, 7.37782897170527], [-60.0154452341754, 7.28730635899493], [-59.8785417108894, 7.162807942826]], [[-60.6995775452136, 6.35680712549617], [-60.6262351166611, 6.31651824999741], [-60.5144752261753, 6.37695581077791], [-60.3992228385783, 6.44548252111508], [-60.3887453490418, 6.52614410224128], [-60.3747753623942, 6.63914648944789], [-60.3258804100259, 6.7320363912498], [-60.3363579004608, 6.82498631415087], [-60.4620877775942, 6.9260869491669], [-60.6227426204484, 6.94631559255618], [-60.6751300690295, 6.82902897757682], [-60.7414875042581, 6.7320363912498], [-60.7240250213977, 6.55438636598836], [-60.6995775452136, 6.35680712549617]]]}, "properties": {"OBJECTID": 1, "id": 1, "name": "God's Eye", "continent": "Westeros", "Symbol": 1, "Visible": null, "type": "Lake", "Shape__Area": 25450309035.52295, "Shape__Length": 831619.0559873205}}, {"type": "Feature", "id": 2, "geometry": {"type": "Polygon", "coordinates": [[[-67.3660272730347, -0.982479890647377], [-67.414922225403, -1.06317552746668], [-67.5162046263523, -1.03628247905495], [-67.5965320482286, -1.06317552746668], [-67.6593969872444, -1.12462472129496], [-67.7571868910827, -1.13998253490463], [-67.7990968501272, -1.08622233878917], [-67.7327394148986, -1.00554083522309], [-67.722261925362, -0.905580893790989], [-67.6478313127087, -0.861033573506066], [-67.5650995787206, -0.855572461732657], [-67.4777871644189, -0.817091519201047], [-67.4079372320792, -0.844029358726354], [-67.3450722939616, -0.909426910221433], [-67.3660272730347, -0.982479890647377]]]}, "properties": {"OBJECTID": 2, "id": 2, "name": "Red Lake", "continent": "Westeros", "Symbol": 1, "Visible": null, "type": "Lake", "Shape__Area": 1044804503.4802246, "Shape__Length": 139217.5254124164}}, {"type": "Feature", "id": 3, "geometry": {"type": "Polygon", "coordinates": [[[-66.8547058072753, 24.0069266521482], [-66.9157913768512, 23.9821236217103], [-67.0680864302977, 23.9674756552047], [-67.3005367749373, 23.9967699233203], [-67.5410026494148, 23.9747998466241], [-67.6135079846664, 23.9432484219044], [-67.6291734695476, 23.9674756552047], [-67.6445440474024, 24.0096045682645], [-67.6658667805831, 24.0680247852066], [-67.6580977286962, 24.3656100281322], [-67.6219253390158, 24.4452154830618], [-67.5650492362338, 24.4937476119211], [-67.4708943023106, 24.5638311897734], [-67.3887075959683, 24.624974291968], [-67.2964522655961, 24.708811264204], [-67.2604591293407, 24.7415047149811], [-67.190391040236, 24.7551402970935], [-67.0961754314036, 24.7734727422767], [-67.0119777259235, 24.719663560408], [-67.0080759168432, 24.7183977453783], [-66.8997603180736, 24.683253118793], [-66.7955584391633, 24.5520875352954], [-66.7955584391633, 24.4353806114487], [-66.7394497356874, 24.3696854313148], [-66.6486860892855, 24.3310970438014], [-66.6159501831649, 24.2917718288707], [-66.6046507890423, 24.1990472672872], [-66.6154642413086, 24.1720848908145], [-66.6993720900909, 24.0699764163182], [-66.8547058072753, 24.0069266521482]]]}, "properties": {"OBJECTID": 3, "id": 3, "name": " ", "continent": "Westeros", "Symbol": 1, "Visible": null, "type": "Lake", "Shape__Area": 8481090704.837891, "Shape__Length": 358147.9507759424}}, {"type": "Feature", "id": 4, "geometry": {"type": "Polygon", "coordinates": [[[-69.5128228170765, 24.0333783835697], [-69.5849625793299, 23.9381747272966], [-69.6490868126437, 23.9601510475484], [-69.6734525187808, 23.9986048804816], [-69.7072105936087, 24.0518627165679], [-69.7132110450592, 24.150455324499], [-69.7090106000457, 24.2845327547914], [-69.7292421038368, 24.4061869726117], [-69.7292421038368, 24.5885362175659], [-69.7051955161195, 24.7487842472239], [-69.6731333994626, 24.9015558049327], [-69.5929781082695, 24.9015558049327], [-69.5288538749558, 24.7997290322567], [-69.5230029723388, 24.7866270606552], [-69.4628536080874, 24.6518539984167], [-69.4670766304589, 24.5974705996628], [-69.459039896787, 24.546722055391], [-69.464729641642, 24.3550818633574], [-69.5066129836046, 24.0749625932465], [-69.5128228170765, 24.0333783835697]]]}, "properties": {"OBJECTID": 4, "id": 4, "name": " ", "continent": "Westeros", "Symbol": 1, "Visible": null, "type": "Lake", "Shape__Area": 2784088625.0390625, "Shape__Length": 258173.56332439088}}, {"type": "Feature", "id": 5, "geometry": {"type": "Polygon", "coordinates": [[[-69.4921944852036, 25.139536303635], [-69.5208383460161, 25.1049572814414], [-69.6185234631731, 25.1250594945096], [-69.6795459036424, 25.2968457213117], [-69.7179633655758, 25.4261148396639], [-69.7214558626869, 25.5890467568979], [-69.7197994824907, 25.6000479529487], [-69.7933663371505, 25.7492308042443], [-69.7613042204937, 25.8430487517717], [-69.6811489284023, 25.900745931585], [-69.6360629612977, 25.8956761761794], [-69.6170246959868, 25.8935353254621], [-69.4541745394615, 25.8012578470668], [-69.4246519960454, 25.7347906868873], [-69.4086209381661, 25.3804615179933], [-69.4486985837627, 25.1920260631013], [-69.4921944852036, 25.139536303635]]]}, "properties": {"OBJECTID": 5, "id": 5, "name": " ", "continent": "Westeros", "Symbol": 1, "Visible": null, "type": "Lake", "Shape__Area": 2910759576.0566406, "Shape__Length": 233272.22274669347}}, {"type": "Feature", "id": 6, "geometry": {"type": "Polygon", "coordinates": [[[-60.4700864361728, 28.7456574388179], [-60.5422952168879, 28.6831363268009], [-60.5704396144024, 28.735724073752], [-60.5812069992643, 28.8631044167179], [-60.6027417680897, 28.9950378745815], [-60.5919743832278, 29.1456130430415], [-60.5919743832278, 29.2677931557674], [-60.5870868087688, 29.3317278544357], [-60.5865906916952, 29.338215365782], [-60.5650559219715, 29.4461016411705], [-60.5650559219715, 29.4976589436313], [-60.5596722295405, 29.5772868042624], [-60.5489048455769, 29.7784180808245], [-60.5418335654768, 29.9246635482081], [-60.543521153146, 29.9604908350543], [-60.5381374607151, 30.0677110976773], [-60.5160216642588, 30.1633636005935], [-60.5062416231156, 30.2056334672426], [-60.5004516145968, 30.2306496478537], [-60.4449733218379, 30.3540010156095], [-60.4304636147912, 30.4118921637758], [-60.3981614611039, 30.5464445550511], [-60.3658593074165, 30.6437628268925], [-60.3174060764364, 30.7271006328295], [-60.2743365378872, 30.7964938178979], [-60.2366506917689, 30.8381057048364], [-60.1935811532196, 30.8565940893522], [-60.1720463843942, 30.754863909423], [-60.1580349800221, 30.5298388084019], [-60.1774300768251, 30.4072491106001], [-60.2043485380815, 30.3096940169116], [-60.2258833078053, 30.1655065276374], [-60.2284283257351, 30.1225900674064], [-60.2366506917689, 30.1096352807425], [-60.2581854614926, 29.9325012798286], [-60.2581854614926, 29.7316792848499], [-60.2958713076109, 29.5866506632883], [-60.3604756149856, 29.4836004618599], [-60.3981614611039, 29.3569864146276], [-60.4250799223602, 29.2114204340465], [-60.4304636147912, 29.0279949845216], [-60.4304636147912, 28.958537387431], [-60.4466146911857, 28.8866762733786], [-60.4700864361728, 28.7456574388179]]]}, "properties": {"OBJECTID": 6, "id": 6, "name": "Long Lake", "continent": "Westeros", "Symbol": 1, "Visible": null, "type": "Lake", "Shape__Area": 6593979159.488281, "Shape__Length": 576357.3005325103}}, {"type": "Feature", "id": 7, "geometry": {"type": "Polygon", "coordinates": [[[-40.5194043806437, -1.61844749678116], [-40.5833168981131, -1.62279400231498], [-40.5910315677893, -1.5537862197548], [-40.6213156499027, -1.47507511547515], [-40.591761065377, -1.35689289719986], [-40.5410960626914, -1.23026269807397], [-40.5295056126202, -1.19395407973214], [-40.5060229189663, -1.12038998654276], [-40.4777648100082, -1.03186353525682], [-40.4144335564266, -0.930548402408712], [-40.3553243873754, -0.846116888228426], [-40.3257698028497, -0.782792037136079], [-40.3004373019561, -0.715244477050828], [-40.2962152183241, -0.626586809997253], [-40.2666606329002, -0.559037093371442], [-40.2286618811105, -0.483042737775078], [-40.1822189629552, -0.398603573815636], [-40.1357760439016, -0.4408232754765], [-40.1315539602697, -0.588590195434575], [-40.1315539602697, -0.698357427575641], [-40.1231097930057, -0.825008715857257], [-40.1599751305198, -0.898731043322427], [-40.2117735474809, -0.972763413141712], [-40.3131035519538, -1.11206907631378], [-40.3595464710074, -1.23026269807397], [-40.3853544492826, -1.32241117212359], [-40.389101055533, -1.33578830794918], [-40.4002663599298, -1.36146139341473], [-40.4313218909546, -1.43286787478295], [-40.4566543918482, -1.50461970867875], [-40.4819868936402, -1.57636918246044], [-40.5194043806437, -1.61844749678116]]]}, "properties": {"OBJECTID": 7, "id": 12, "name": " ", "continent": "Essos", "Symbol": 1, "Visible": null, "type": "Lake", "Shape__Area": 2589028922.640869, "Shape__Length": 304610.0996146762}}, {"type": "Feature", "id": 8, "geometry": {"type": "Polygon", "coordinates": [[[-39.3633751517733, -8.07019428217676], [-39.4676096790543, -8.16140566575419], [-39.6093686368751, -8.14837953098673], [-39.6969256399708, -8.08757299568403], [-39.7302806892397, -8.00934981219093], [-39.6719093532437, -7.95282493798672], [-39.6385543048731, -7.89627458940626], [-39.6260461610604, -7.84840438643805], [-39.6343849236022, -7.80487017522227], [-39.688586877429, -7.80051592401691], [-39.6802481157855, -7.70032646333739], [-39.6010298743333, -7.61750095898794], [-39.5676748259627, -7.51716544397387], [-39.5926911126898, -7.38617264583767], [-39.6343849236022, -7.26816246295073], [-39.6510624477875, -7.19380298982862], [-39.6302155423313, -7.15441843882558], [-39.5760135876062, -7.1150215771549], [-39.584352350148, -7.04495230200318], [-39.6260461610604, -7.00113922792656], [-39.6468930665166, -6.95731093299372], [-39.6010298743333, -6.87399521453465], [-39.4967953470523, -6.8652219390956], [-39.4092383439566, -6.79501378277692], [-39.3466976266897, -6.77306572817534], [-39.2924956728629, -6.72037483336557], [-39.2007692884962, -6.7555045378506], [-39.0715184735898, -6.79501378277692], [-38.9672839463088, -6.88276788032329], [-38.9714533275797, -6.94854344659853], [-39.017316519763, -7.01428474794134], [-39.0590103306754, -7.04057167938395], [-39.0089777572212, -7.09750790873362], [-38.9506064221235, -7.19817829216548], [-38.9714533275797, -7.39490974181315], [-39.0214859001356, -7.51716544397387], [-39.1007041415878, -7.58697253738938], [-39.1674142392273, -7.64366227794076], [-39.1840917634126, -7.72211357912093], [-39.2174468126816, -7.81793202383415], [-39.2549712423231, -7.87451766849471], [-39.3091731970482, -7.89192350678442], [-39.31751195959, -7.98326457279156], [-39.3633751517733, -8.07019428217676]]]}, "properties": {"OBJECTID": 8, "id": 13, "name": " ", "continent": "Essos", "Symbol": 1, "Visible": null, "type": "Lake", "Shape__Area": 8855160129.081543, "Shape__Length": 441424.3014917237}}, {"type": "Feature", "id": 9, "geometry": {"type": "Polygon", "coordinates": [[[-40.526326906021, -9.31382051182348], [-40.5972063849314, -9.31597164692274], [-40.6340706031447, -9.24557820091905], [-40.6324337172885, -9.20518537204211], [-40.6321623326479, -9.19848806808331], [-40.6301277347677, -9.19406948654829], [-40.5751191980203, -9.07458538178489], [-40.5294846899589, -8.99571589275082], [-40.495258809362, -8.89428702542621], [-40.4553286150328, -8.75900486611024], [-40.4237567799934, -8.63862861186487], [-40.3595516614731, -8.58027423751004], [-40.3074343973834, -8.59109297461698], [-40.265740586471, -8.65598573556212], [-40.2157080130168, -8.74893994824907], [-40.2115386326442, -8.90011289061146], [-40.2803334209192, -8.99935548232195], [-40.3199425411961, -9.09205436365415], [-40.3762291856584, -9.15668720100858], [-40.4512780458397, -9.2535736358624], [-40.526326906021, -9.31382051182348]]]}, "properties": {"OBJECTID": 9, "id": 14, "name": " ", "continent": "Essos", "Symbol": 1, "Visible": null, "type": "Lake", "Shape__Area": 2022108916.9658203, "Shape__Length": 201875.1127743444}}, {"type": "Feature", "id": 10, "geometry": {"type": "Polygon", "coordinates": [[[-21.521202745609, -11.9728853671555], [-21.5485687726928, -11.9921595858156], [-21.6371073702894, -12.0181402334335], [-21.7000622477332, -12.0468737057849], [-21.7130902906183, -12.0756576739162], [-21.7071121012171, -12.1457993292117], [-21.7293224965611, -12.1725607933458], [-21.8198099981497, -12.2079396632407], [-21.911161312529, -12.2079396632407], [-22.0367693691268, -12.1744554667638], [-22.0392263584469, -12.1744554667638], [-22.1395395966806, -12.1744554667638], [-22.1862372518976, -12.1802862072767], [-22.2080530820159, -12.1856173349749], [-22.3679178817305, -12.2525786705761], [-22.5049448524012, -12.3418340068921], [-22.5506205095908, -12.4310589302987], [-22.5620394236636, -12.564838842891], [-22.603355430117, -12.7160185957417], [-22.6277017721698, -12.7406302093603], [-22.9160257653114, -12.8655881772286], [-23.0416338219092, -12.9546302838978], [-23.3271066773233, -13.2437963160456], [-23.5595725637156, -13.4313731953058], [-23.7496065043063, -13.5992212852111], [-23.8710272007512, -13.683503805016], [-23.9313295211459, -13.7561885208218], [-23.9779847884579, -13.8543547691296], [-24.0358482080092, -13.9947622582725], [-24.0464982746916, -14.0765581091508], [-24.0464982746916, -14.1867162313701], [-24.0236604456476, -14.3748390394571], [-24.000822617502, -14.5185910336885], [-23.9265520756491, -14.6315459643972], [-23.9208902180938, -14.6401544669055], [-23.9001075700282, -14.7004698084615], [-23.9054194726949, -14.759549050334], [-23.9580142174092, -14.8154870780742], [-23.9905895541643, -14.8501258880556], [-23.9965375224427, -14.8692893819834], [-23.9743386731451, -14.9121960969382], [-23.9901963930055, -15.0060984851857], [-24.1152778257427, -15.3263575010271], [-24.2153429726511, -15.4411143579231], [-24.3525902776031, -15.4959920254575], [-24.4119035295139, -15.5771993789208], [-24.606025071447, -15.6871648007823], [-24.8344033564969, -15.9069175506409], [-25.0399438125029, -16.0276794790826], [-25.1769707831735, -16.0825471377126], [-24.9828492412404, -15.8300312295353], [-24.9712240820631, -15.8188466424985], [-24.7658898711616, -15.6211926323816], [-24.6597138393115, -15.4092713134266], [-24.6157795348591, -15.3215175304254], [-24.6174439864181, -15.2910147138437], [-24.628862900491, -15.1147061359131], [-24.5831872433013, -14.9934088223182], [-24.5260926720388, -14.8058141649144], [-24.4497143025421, -14.6791903029842], [-24.4470095470868, -14.6661075543807], [-24.4918359298203, -14.2863302458552], [-24.4960222173849, -14.0623136045927], [-24.4689981007763, -13.7212762662843], [-24.4498531416608, -13.5984936007174], [-24.4176783088936, -13.3920030710231], [-24.3877350098698, -13.3314069541248], [-24.2979247364958, -13.2440010710255], [-24.2304265010435, -13.20714050222], [-24.1035928450558, -13.1659773820452], [-23.9969402021502, -13.096734808524], [-23.989380331062, -13.043959343129], [-23.9894037034291, -13.0436405693034], [-24.0034934588603, -12.9269402745622], [-23.9936592151695, -12.8061400763854], [-23.9560686102342, -12.7083730039688], [-23.9219060069659, -12.6642351383778], [-23.681093018971, -12.5314003616098], [-23.5316065976677, -12.4545861826164], [-23.4641336479939, -12.4199074851831], [-23.3842012485858, -12.3083668083912], [-23.3385255913961, -12.1632931294131], [-23.3404472144513, -12.1582837905842], [-23.3727823345129, -12.0739775883173], [-23.3727823345129, -11.9734620052299], [-23.2685402308408, -11.9791271782251], [-23.167241878507, -11.9846322560766], [-23.0764016543204, -11.9757460892871], [-23.0381353716627, -11.9617874979855], [-22.8246744509321, -11.7946754527509], [-22.5962961667805, -11.5038994230671], [-22.2994043963952, -11.1568125985464], [-22.1340360636008, -11.0609259103042], [-22.0704390317644, -11.0423334293497], [-21.7398775987415, -11.0783802578109], [-21.6371073702894, -11.1119967017281], [-21.6243241838962, -11.1388744579259], [-21.6226599380514, -11.1423734960934], [-21.6273482131799, -11.1638389107103], [-21.6713641134062, -11.2016215838247], [-21.888323483485, -11.2464236303458], [-22.0139315400828, -11.3024163905624], [-22.0584823484332, -11.3824976578178], [-22.0824450254181, -11.4255619019972], [-22.0824450254181, -11.6045870521667], [-22.0727443082094, -11.680596087571], [-22.0555111239186, -11.7157930106946], [-21.9722159369399, -11.7474401002151], [-21.8673147034112, -11.7780420585641], [-21.7284586846687, -11.828206860492], [-21.6256884562165, -11.8617341599274], [-21.5409345794896, -11.8949097742906], [-21.513474243674, -11.9199575665504], [-21.521202745609, -11.9728853671555]]]}, "properties": {"OBJECTID": 10, "id": 15, "name": "The Sea of Sighs", "continent": "Essos", "Symbol": 2, "Visible": null, "type": "Red Sea", "Shape__Area": 44983913890.53711, "Shape__Length": 1681456.0510286426}}, {"type": "Feature", "id": 11, "geometry": {"type": "Polygon", "coordinates": [[[-33.633432898583, -2.27274498420224], [-33.6609840657519, -2.38483263614229], [-33.7297788540269, -2.35756126521225], [-33.8360980719434, -2.11413784987815], [-33.8777918837541, -1.95464173497706], [-33.8777918837541, -1.82233950075424], [-33.9111469321247, -1.7081778520551], [-33.9611795055789, -1.6350618719484], [-34.0070426977622, -1.54360920396019], [-33.9695182681207, -1.47955417129886], [-33.917401004031, -1.41088887929144], [-33.8423521438497, -1.32156999446008], [-33.7946965162305, -1.27499365935088], [-33.7319302077413, -1.23791339517604], [-33.6562079767112, -1.28490931659798], [-33.6151208735686, -1.34218746614483], [-33.6332227296375, -1.42898362130773], [-33.6359677790248, -1.53446041010261], [-33.5775964439271, -1.57562493230625], [-33.5775964439271, -1.67619465694036], [-33.627629016483, -1.72645043982769], [-33.6151208735686, -1.90447396050062], [-33.5734270626562, -1.94552175981836], [-33.5859352055706, -2.08680955263608], [-33.6526453032101, -2.18243345457681], [-33.633432898583, -2.27274498420224]]]}, "properties": {"OBJECTID": 11, "id": 17, "name": "Dagger Lake", "continent": "Essos", "Symbol": 1, "Visible": null, "type": "Lake", "Shape__Area": 3543198203.7705383, "Shape__Length": 296577.84117401665}}, {"type": "Feature", "id": 12, "geometry": {"type": "Polygon", "coordinates": [[[-30.363111425625, 5.29251605201734], [-30.4254841031366, 5.25091208186214], [-30.4546697711346, 5.33287739462711], [-30.4609238430409, 5.39800242188704], [-30.4463310085928, 5.48246979190583], [-30.4359075563138, 5.60564391638349], [-30.4546697711346, 5.73134697758272], [-30.4838554391326, 5.78940253783835], [-30.4776013672262, 5.85474432033396], [-30.4296534844074, 5.91285193722532], [-30.4004678164094, 5.96613878285629], [-30.4108912695867, 6.04610767922531], [-30.427568793772, 6.14067616094058], [-30.4108912695867, 6.24501908509024], [-30.3733668390469, 6.33486561790161], [-30.3087414320428, 6.41504826905151], [-30.2086762860327, 6.50014124607625], [-30.1377968071223, 6.52689555152383], [-30.0585785656701, 6.51716611563542], [-30.0085459922159, 6.49527738183236], [-29.9981225399369, 6.40289639604867], [-30.0022919212078, 6.31786314821518], [-29.9856143961242, 6.24987416215156], [-30.0168847547577, 6.17221338719976], [-30.062747946941, 6.11157126626744], [-30.1190345914032, 6.09702111976667], [-30.1315427352159, 6.02429338182124], [-30.127373353945, 5.76037169689835], [-30.1690671648574, 5.70474636246666], [-30.2149303570407, 5.61772575644098], [-30.2462007156742, 5.55491178264388], [-30.2566241679532, 5.48488390961981], [-30.2899792172221, 5.39558983272532], [-30.3170801945846, 5.35458230087956], [-30.363111425625, 5.29251605201734]]]}, "properties": {"OBJECTID": 12, "id": 18, "name": " ", "continent": "Essos", "Symbol": 1, "Visible": null, "type": "Lake", "Shape__Area": 4318328814.702515, "Shape__Length": 334115.5134844776}}, {"type": "Feature", "id": 13, "geometry": {"type": "Polygon", "coordinates": [[[12.1914924469094, -6.46765722755893], [12.4532331572951, -6.71903846993906], [12.590277283991, -6.93579931257299], [12.5966620607712, -6.94728689391585], [12.6018468239774, -6.95661518746697], [12.6079250910911, -6.98879285376324], [12.6159264005981, -7.03114751434551], [12.6234987636586, -7.04617810594843], [12.6440855520429, -7.08703892012527], [12.6680570953996, -7.13857755855845], [12.6722447043859, -7.14758029256677], [12.7520289698071, -7.21742575136854], [12.7802550655035, -7.22284554817823], [12.8971885612214, -7.24529768401263], [12.8975179231304, -7.24536092215406], [12.9338035418592, -7.25286000202382], [13.0251838134316, -7.29621183157784], [13.1194822388484, -7.39525028091567], [13.2622498996304, -7.49511840745006], [13.4288121697941, -7.69461437844982], [13.548921086074, -7.84125310318167], [13.5874171532897, -7.8641341480579], [13.7009838226116, -7.88824029191853], [13.7188265308907, -7.89202753323954], [13.7571041574737, -7.93836558769614], [13.7610652589561, -7.94316051235244], [13.8079971795279, -8.0268189100662], [13.8737018683284, -8.16156558432538], [13.888372436693, -8.19786888378221], [13.892474636557, -8.20801945750243], [13.9111498693055, -8.2311236959563], [13.9300201730145, -8.25446789853369], [13.9807079030767, -8.30006763821746], [13.9816452851943, -8.30091087753214], [14.028577205766, -8.31948653307104], [14.1036682786809, -8.35199180968975], [14.1881457357101, -8.3891373823223], [14.2538504236122, -8.45877574721902], [14.3148619208047, -8.55160730700807], [14.3617938413765, -8.65369589731433], [14.3664870329845, -8.71864697370386], [14.3508430591611, -8.755756811008], [14.2538504236122, -8.755756811008], [14.1834525432037, -8.755756811008], [14.1430910901645, -8.755756811008], [14.1201964768148, -8.76261365835821], [14.0683443226335, -8.81385705471363], [14.0614295506154, -8.82069010943308], [14.0608668638878, -8.82161682746554], [14.0332703982724, -8.86706405203311], [13.9957248618149, -8.89488560917002], [13.9487929412432, -8.90879559577972], [13.8690086767203, -8.92270505216722], [13.8358119537236, -8.92270505216722], [13.7986107954135, -8.92270505216722], [13.7572130063367, -8.91452559759699], [13.7516788748417, -8.91343213980085], [13.6812809944332, -8.86706405203311], [13.6061899215184, -8.8114146209415], [13.5264056569956, -8.77894858015552], [13.4700873523094, -8.76039528027422], [13.3996894719009, -8.74184105453294], [13.3986146205955, -8.74125085112773], [13.3740030383786, -8.72773632233479], [13.3574507429372, -8.71864697370386], [13.3263159715211, -8.66828449960064], [13.3058256307574, -8.63513638475792], [13.2682800943, -8.57945237653199], [13.2307345578425, -8.52840152803311], [13.1931890213851, -8.46805991392846], [13.1603366774341, -8.42627940384793], [13.0899387970256, -8.3798513214839], [13.0430068764538, -8.35663520039238], [12.9209838829672, -8.30555487342561], [12.7050970492353, -8.24982329928456], [12.587392780139, -8.23318205708511], [12.524336908701, -8.22122895220427], [12.4985965987196, -8.21730958123701], [12.3624940295106, -8.15691989983549], [12.3111930052308, -8.11785490031566], [12.2404710369223, -8.06399490251729], [12.1394509907483, -7.95079729738737], [12.0621297387495, -7.8641341480579], [11.9776522817203, -7.76649257135439], [11.9254491584525, -7.68027664765874], [11.9072544013118, -7.65022302485215], [11.8821625159637, -7.58804713505791], [11.8697088648544, -7.55718454011025], [11.8744020573608, -7.48739250757893], [11.8650156732464, -7.38966490972844], [11.8462429050177, -7.32450114865841], [11.8430847473807, -7.31962852083481], [11.804004176054, -7.25932785910074], [11.7336062956455, -7.21742575136854], [11.5646513815871, -7.15223699031819], [11.5348496318992, -7.12780906381449], [11.4567079647212, -7.06375165460718], [11.4300853896547, -6.99916369426017], [11.4144692366557, -6.96127380626819], [11.3722305085903, -6.8634331549057], [11.3722305085903, -6.79353464474999], [11.3808294843238, -6.74016543271176], [11.4538595354143, -6.69392307981739], [11.4538595354143, -6.57752631391676], [11.4426283889988, -6.56512924746102], [11.4071894584765, -6.54312467375644], [11.4050828525414, -6.54181661970159], [11.4001454952459, -6.54312467375644], [11.3346849721329, -6.56046680947287], [11.236127938483, -6.56046680947287], [11.1751164421888, -6.55114180173309], [11.1692475292488, -6.54312467375644], [11.1648317535701, -6.54312467375644], [11.1375709057314, -6.51850290325044], [11.1094117533884, -6.46720891820649], [11.100025369274, -6.42523723833232], [11.1047185617803, -6.36926961528462], [11.128184521617, -6.32262526498538], [11.1563436739601, -6.28997171385858], [11.1985824029239, -6.2619813239161], [11.2455143225973, -6.23865485126296], [11.2549282427701, -6.23046638967497], [11.2830598590548, -6.2059960472871], [11.2955910302815, -6.18938547395516], [11.2971394356754, -6.18733296374361], [11.3252985880185, -6.10800752911683], [11.3293030188403, -6.08212586299875], [11.3346849721329, -6.04733896443385], [11.3581509319696, -5.96799288947038], [11.4238556207701, -5.87462986806588], [11.484208318686, -5.83306511589147], [11.4848671170642, -5.83261138640468], [11.5605347916105, -5.81692867840638], [11.5975037264365, -5.80926642310776], [11.7242199115311, -5.82327351764254], [11.7387325497806, -5.8327135027833], [11.8223865741894, -5.88712454390688], [11.9297517365238, -6.03914714788309], [12.0249301767457, -6.29138935893225], [12.1914924469094, -6.46765722755893]]]}, "properties": {"OBJECTID": 13, "id": 0, "name": "Poison Sea", "continent": "Essos", "Symbol": 3, "Visible": null, "type": "Gray Sea", "Shape__Area": 41913928541.670715, "Shape__Length": 1109473.2788838735}}, {"type": "Feature", "id": 14, "geometry": {"type": "Polygon", "coordinates": [[[-8.73870246861372, 5.65556042322143], [-8.7120764512031, 5.57588424298613], [-8.73079991539746, 5.49968753823934], [-8.72293055942251, 5.35083959854308], [-8.80641441866202, 5.25385854847298], [-8.84240287559309, 5.21204701151695], [-9.12117161392326, 5.00380086699916], [-9.25059995659108, 4.88477313200261], [-9.25059995659108, 4.75734878929364], [-9.25059995659108, 4.63673139051712], [-9.25246038371419, 4.63209552834694], [-9.31033611467638, 4.48786423190278], [-9.47958856243497, 4.41838243898525], [-9.64884101109187, 4.38860252909051], [-9.75835730076514, 4.32903915167994], [-9.82804948534771, 4.23968531778817], [-9.84350519923697, 4.2177817276305], [-9.90769769642752, 4.29925570195486], [-10.1167742492769, 4.39852929751358], [-10.1606534295102, 4.4672760194679], [-10.1864664338594, 4.50771496283894], [-10.1864664338594, 4.65657799645186], [-10.1366863022714, 4.82525130655493], [-10.1167742492769, 4.90461256969838], [-10.1167742492769, 5.03355443891074], [-10.1565983552659, 5.11289062093641], [-10.2163345133512, 5.18230172400915], [-10.2163345133512, 5.27153335197303], [-10.1864664338594, 5.32110095236294], [-10.1287433203757, 5.3498374610521], [-10.1020097970835, 5.39439379706088], [-9.97105996793754, 5.35636302404585], [-9.91500868207972, 5.35636302404585], [-9.88778564343296, 5.31118775041996], [-9.81503212343135, 5.29307719385283], [-9.68866511618261, 5.2616193557165], [-9.39994035225346, 5.24179088955811], [-9.21094171014621, 5.30452381078013], [-9.16099571901403, 5.32110095236294], [-9.00910992902782, 5.46341963924419], [-8.99174327125544, 5.47969025632109], [-8.97074375101563, 5.50059344391571], [-8.91209506017563, 5.55896919554523], [-8.86231492858761, 5.60851312227067], [-8.84881847446898, 5.62791435326921], [-8.83349919940004, 5.63979671254439], [-8.79545181282091, 5.63348899366987], [-8.73870246861372, 5.65556042322143]]]}, "properties": {"OBJECTID": 14, "id": 0, "name": "", "continent": "Essos", "Symbol": 1, "Visible": null, "type": "Lake", "Shape__Area": 12808184970.704865, "Shape__Length": 562007.2499159806}}, {"type": "Feature", "id": 15, "geometry": {"type": "Polygon", "coordinates": [[[43.5721621904247, -0.877784601401988], [43.7250812262439, -0.983637644124262], [43.907619256693, -1.10530942267875], [44.0952845941028, -1.10530942267875], [44.1654511628172, -1.00007734783784], [44.2823954446068, -1.10530942267875], [44.288451902422, -1.1107592152852], [44.308471666114, -1.12877356248032], [44.3799819177624, -1.21456791391934], [44.3513778172827, -1.30035954264515], [44.1654511628172, -1.42904145751373], [44.1082429618578, -1.58630949755472], [44.1368470623375, -1.68638301135608], [44.1940552641952, -1.77215622367438], [44.3513778172827, -1.91510265554409], [44.3656798679717, -2.058037163502], [44.337075767492, -2.48676026124423], [44.1911948540574, -2.64106773183269], [44.2941696163233, -2.74392879959258], [44.2941696163233, -2.92962753319223], [44.1654511628172, -3.286652244426], [43.9795245092499, -3.42942714332046], [43.8508060557438, -3.58645487598531], [43.7792958040954, -3.70063999176344], [43.7515118169611, -3.95013855860237], [43.8315617438562, -4.14406065248832], [44.0597342823667, -4.26542510467993], [44.1011241509977, -4.29431721920903], [44.2798675656343, -4.31412158428306], [44.2941696163233, -4.45672332053023], [44.3513778172827, -4.67057379292791], [44.3656798679717, -4.82735620871241], [44.308471666114, -4.96985427450821], [44.2226593646749, -5.08383058409104], [44.1225450125468, -5.25475709661873], [44.0796388613781, -5.45411199969466], [44.0796388613781, -5.66763300573882], [43.9938265590406, -5.82416507136292], [43.8937122069125, -5.90952789197719], [43.8222019552641, -6.15131711730433], [43.5882610899725, -6.2509908303977], [43.5882610899725, -6.38331750223055], [43.654177598822, -6.47069374237162], [43.9509204087702, -6.60614819935373], [43.9795245092499, -6.7055877899945], [43.9795245092499, -6.91860393661872], [44.0081286097297, -7.15990596047952], [44.0510347608984, -7.35852965566507], [44.0510347608984, -7.5570644696078], [44.0367327102094, -7.8121891458401], [43.8937122069125, -7.99634926870771], [43.7506917036157, -8.09547810572409], [43.5075568481908, -8.25120260330875], [43.4217445467517, -8.37856797267761], [43.364536344894, -8.64731277591797], [43.3100885518183, -8.84104647760275], [43.3058622514944, -8.8841968276002], [43.2982592136618, -8.88312370946536], [43.291289135965, -8.88213992558825], [43.2746341469169, -8.87596915032347], [43.2413241688208, -8.87185524248212], [43.2211928280822, -8.86230768583268], [43.1892773281578, -8.84717082612098], [43.1637449287572, -8.83077185983735], [43.1476398550884, -8.82042750726957], [43.1261280786427, -8.81012075795488], [43.0789380253774, -8.78750999506844], [43.0693830149078, -8.77896636527407], [43.0393045993838, -8.75207041050588], [43.027182644905, -8.73359954238683], [43.0322136821116, -8.63910625985676], [43.0405636107124, -8.48222521188106], [43.0861981178755, -7.81968429948577], [43.0717232897163, -7.59017815015062], [42.9354748359018, -7.47198915497206], [42.778152281916, -7.44362702426967], [42.6780379297878, -7.42944527147575], [42.6208297288285, -7.33016022919091], [42.6065276781394, -7.14571521424177], [42.54931947718, -6.90440581612788], [42.5550605077529, -6.88540744292649], [42.5922256274504, -6.7624013235999], [42.5922256274504, -6.66297328918381], [42.4921112753223, -6.57773320219191], [42.4616999055265, -6.55255658053682], [42.4473150104053, -6.43106899291553], [42.462526512793, -6.26476843160616], [42.6450645441404, -6.24964754884908], [42.7515450617527, -6.23452622996199], [42.7515450617527, -6.1437891965506], [42.6765481035336, -6.02778475652677], [42.4778092255316, -5.92375375357278], [42.3776948734035, -5.66763300573882], [42.3490907720255, -5.52529425827144], [42.3124771110129, -5.42202859759097], [42.2703381731991, -5.34598873879241], [42.0487477156412, -5.2025648086239], [42.0487477156412, -5.0695846395455], [42.177466168249, -4.91285869606115], [42.2632784705864, -4.82735620871241], [42.2775805203771, -4.74184294327764], [42.1152733684916, -4.62419546604302], [42.1400267479795, -4.57484814276471], [42.1879062708017, -4.47938786903847], [42.2039309695071, -4.4474356703929], [42.3509413670878, -4.05073701626213], [42.3509413670878, -3.89798854654697], [42.3271467568078, -3.61472760638712], [42.1055861547583, -3.24320228639252], [42.0794053738435, -3.10461617044918], [42.0670274462211, -2.80794159481183], [42.0822389486089, -2.65599950255841], [42.4095938748695, -2.12299800056949], [42.4223251970296, -2.03232997271684], [42.3820639546537, -1.97335079756097], [42.3764625887513, -1.90183753072351], [42.3560459951808, -1.78960454336886], [42.1737150201165, -1.66810591443831], [42.1735079638334, -1.66796793600769], [41.9909699333843, -1.48549909698617], [41.884489415772, -1.25739207117569], [41.869277912486, -1.09010071104862], [41.9605469286089, -0.968428348847381], [42.0355917436765, -0.825860714515213], [41.972103195987, -0.769627169132386], [41.9177848420589, -0.720502677107224], [41.8664460211635, -0.660611738114476], [41.855037393699, -0.572200005669389], [41.9149124205475, -0.436067663537998], [42.1126619542826, -0.116630239154685], [42.0822389486089, 0.0963306710399009], [42.1174358128065, 0.140829524127804], [42.2647769799563, 0.20281081140982], [42.4168920056299, 0.248444963529833], [42.6450645441404, 0.324501520102867], [42.7693792369349, 0.357651517785361], [42.873237082651, 0.385346360275699], [43.192270273936, 0.410868399342046], [43.2535246468352, 0.385346360275699], [43.4360626772843, 0.14196507922389], [43.5425431948965, 0.0202732031634994], [43.5425431948965, -0.207898878717638], [43.3904281692228, -0.405645478938095], [43.354168583671, -0.55067873526796], [43.378838395583, -0.571057168352188], [43.5218588988798, -0.699767679394649], [43.5504629993595, -0.785572764058327], [43.5721621904247, -0.877784601401988]], [[42.4511801197131, -1.59437757084894], [42.5063201024444, -1.61275036607451], [42.5798400785212, -1.61275036607451], [42.6211950655697, -1.57141134530745], [42.6395750598135, -1.52088476535211], [42.6717400488417, -1.45657650408389], [42.6901200430855, -1.40145367262646], [42.6809300459636, -1.34632954460902], [42.6625500517198, -1.2957979968757], [42.5155100995663, -1.17635585855666], [42.4328001263677, -1.08447378271675], [42.405230135002, -1.0247489237605], [42.3776601436363, -0.992588918442141], [42.3317101589252, -0.978805963586251], [42.2857601733158, -1.03393743784636], [42.2811651747548, -1.07528541872002], [42.2352151900437, -1.11663283863854], [42.1662902116296, -1.12122696100061], [42.1616952130686, -1.18554390363333], [42.2076451986781, -1.21770181883303], [42.2765701761939, -1.23607759928877], [42.345495154608, -1.2682349079669], [42.405230135002, -1.31876700954027], [42.460370116835, -1.36011069568589], [42.4741551125178, -1.42901525372442], [42.4741551125178, -1.47495048409925], [42.4511801197131, -1.52088476535211], [42.4511801197131, -1.59437757084894]]]}, "properties": {"OBJECTID": 15, "id": 0, "name": "Bleeding Sea", "continent": "Essos", "Symbol": 2, "Visible": null, "type": "Red Sea", "Shape__Area": 177645674065.26102, "Shape__Length": 2880389.9366200636}}, {"type": "Feature", "id": 16, "geometry": {"type": "Polygon", "coordinates": [[[5.86073119586549, 5.72369358644557], [5.84565735400689, 5.71806904962082], [5.82008311108037, 5.7195244426782], [5.74796874060677, 5.73668255594247], [5.73153595253916, 5.74579204101802], [5.71662629935828, 5.75914315505466], [5.70748046970398, 5.77931101348836], [5.70389392347424, 5.80968098532743], [5.72804120065675, 5.97861136555358], [5.76426211463387, 6.17596212936205], [5.75769735679323, 6.24929061972809], [5.74011483834968, 6.30298149532461], [5.63145209462168, 6.44425285751211], [5.61851210819402, 6.48739323966113], [5.58200450228387, 6.72425038366779], [5.57630018855161, 6.77749915855296], [5.57591516882422, 6.8103516127057], [5.58398663316164, 6.84775121387926], [5.66046026270607, 6.95060965902866], [5.67961500447507, 7.03299628102241], [5.67323009025264, 7.09636067115749], [5.67051636422093, 7.13086383330055], [5.6751348914558, 7.17726236099078], [5.70635853499953, 7.22930584906129], [5.74011483834968, 7.26651211755811], [5.79420496270338, 7.30852441100855], [5.8246303057935, 7.32340140535107], [5.8592341363765, 7.30512961731089], [5.88547980799413, 7.28681553836671], [5.89736316184865, 7.26039477258249], [5.90486864353965, 7.09913096957868], [5.92165158592184, 7.07051788911928], [5.95674952943701, 7.0336364963776], [5.9719089097753, 7.0177059078304], [6.00545029838022, 6.98245622120865], [6.02839226911511, 6.95019503350713], [6.07519774642073, 6.87736988613922], [6.09319985356047, 6.83358005921483], [6.1026509594944, 6.80587421852121], [6.10627114134333, 6.78741032263971], [6.10821318310493, 6.76096254615916], [6.10101932518934, 6.67165644054444], [6.10101932518934, 6.51943272604062], [6.08186458342037, 6.41157956070416], [6.05632492742894, 6.32274215617441], [6.03150440246686, 6.29011602287931], [5.96693613280647, 6.21484766338993], [5.92622981024147, 6.14908454956239], [5.91247734974162, 6.113284066323], [5.8975534007713, 6.02918936221222], [5.89460088007923, 5.97590617672611], [5.89670207905464, 5.8656275614287], [5.89167579303758, 5.79562361321642], [5.88672538950919, 5.76804238282597], [5.87454888393644, 5.73869207941715], [5.86073119586549, 5.72369358644557]]]}, "properties": {"OBJECTID": 16, "id": 0, "name": "Womb of the World", "continent": "", "Symbol": 1, "Visible": null, "type": "Lake", "Shape__Area": 6147793327.926392, "Shape__Length": 406324.4495910249}}, {"type": "Feature", "id": 17, "geometry": {"type": "Polygon", "coordinates": [[[23.978605024856, -13.6319533999539], [23.9398156936326, -13.6363882552353], [23.9158575764961, -13.6341708380024], [23.8907585971522, -13.6219746707893], [23.8676921522583, -13.5836015486198], [23.8599553049743, -13.5399114010809], [23.8622807494957, -13.4941641054646], [23.8930403224654, -13.4078854821919], [23.9055719715958, -13.3731071983194], [23.9163947762225, -13.1360812413319], [23.91098337346, -12.9357474557404], [23.8976037739902, -12.8924084187727], [23.8731035550208, -12.8460721782381], [23.8394197762568, -12.805649431839], [23.7865211126172, -12.7669203368896], [23.7169043739421, -12.7340981906746], [23.4378092084989, -12.6251827042463], [23.2416077253233, -12.5407394627479], [23.143493534159, -12.4950760233413], [23.034115244578, -12.4445666603836], [22.9837727568423, -12.4003822525945], [22.9600005559354, -12.3721832309294], [22.9438884098303, -12.3232160921538], [22.9415608371999, -12.2855895774649], [22.9477536979028, -12.2439033347327], [22.9586737774984, -12.2253869614003], [23.0343361403063, -12.1116625160177], [23.0430976167832, -12.0714736976585], [23.0451589458313, -12.0375789907311], [23.0408158914699, -11.9978316656454], [23.0235133347813, -11.9475929676723], [22.9964563218671, -11.9052362397662], [22.9152852813277, -11.8416887743893], [22.7691774094349, -11.7622336650474], [22.5364870942402, -11.64035797597], [22.298385376283, -11.5184288567941], [22.2226257394045, -11.4707030332074], [22.1522775043901, -11.4176648787913], [22.0765178666133, -11.3115588617452], [22.016992437124, -11.2478763554188], [21.9195871891954, -11.1841797694613], [21.8654731624686, -11.1045393525351], [21.8463326527087, -11.0610910074317], [21.8330047458936, -10.9983183487139], [21.8330047458936, -10.9186274519446], [21.8546503569436, -10.7751300398343], [21.8762959679937, -10.6900621916026], [21.9136435516951, -10.5422325711458], [21.9195871891954, -10.4985726100722], [21.9147844139026, -10.434539696591], [21.8868629701567, -10.3465149635712], [21.8098250459002, -10.1224700449004], [21.7843122225864, -10.0269840874112], [21.7801626159298, -9.96519710214263], [21.7880055102314, -9.90148766565552], [21.8823035520675, -9.60614498809034], [22.0051206948929, -9.41128427378071], [22.0334341337843, -9.32072288662586], [22.0423333830796, -9.24604189736183], [22.0322932715768, -9.16420178663194], [22.0051206948929, -9.06234828492376], [21.8562699394509, -8.82340635925563], [21.7653314009446, -8.65588342124887], [21.7446318739922, -8.6027071118567], [21.7342317680292, -8.48957621698648], [21.7208377559889, -8.42460000515864], [21.6972685949974, -8.36116780077383], [21.6409773673306, -8.25528037272206], [21.5732574177846, -8.15989963127952], [21.4766931402857, -8.07007451387137], [21.3784469219275, -7.99381024033448], [21.3158315007616, -7.95484254908476], [21.230266798371, -7.90738465122334], [21.1078767873953, -7.84373584015494], [20.8914206804881, -7.77940159898306], [20.6100277413291, -7.72041987106976], [20.5180338961631, -7.67751889398308], [20.4314514537595, -7.61852298577269], [20.3773374261344, -7.53806093420292], [20.3643520145978, -7.46984118514869], [20.3545544904425, -7.37909305995016], [20.3448690104577, -7.2590110302722], [20.3502804132202, -7.09257152532084], [20.3706904041733, -7.0186987754974], [20.4180461139635, -6.84725262325852], [20.4350855020032, -6.79175418884874], [20.4422742583862, -6.7595133593188], [20.4464941285694, -6.71697985590171], [20.4484192613424, -6.64152147286032], [20.4585084666738, -6.4477347146017], [20.4430715401504, -6.30325099925511], [20.4368628556237, -6.16266555566999], [20.4464941285694, -6.07981217861748], [20.4855654804863, -5.94203488057836], [20.5309511192814, -5.81411839267498], [20.5685664368701, -5.73483219226748], [20.6840702458471, -5.53791723006959], [20.7810983289171, -5.38096187067712], [20.8329210012891, -5.29711538745742], [20.9834145265525, -5.09639117749477], [20.9959704391787, -5.02548538124859], [20.9952490839207, -4.97379510069279], [20.9817717558328, -4.92646919990774], [20.9393468115006, -4.85217132047721], [20.8629090112612, -4.78055076937933], [20.5746823802252, -4.58610942811742], [20.3835340283205, -4.41900439829439], [20.2041725413274, -4.19566578379403], [20.0804572251517, -4.03319117169683], [20.0293215995804, -3.94348079709506], [20.000416815907, -3.83176820924817], [19.9877164335219, -3.7043994427611], [20.0026334160572, -3.57979662095131], [20.0392061471305, -3.51412172502727], [20.237517982216, -3.21907219436838], [20.3494416625276, -3.08496699612686], [20.476182113813, -2.9672333211022], [20.777560130016, -2.80168547744815], [20.8275422675586, -2.7531706035724], [20.8739751371591, -2.6744491902817], [20.8951609670905, -2.64270465019557], [20.9049503704756, -2.61247830966331], [20.9074026562169, -2.5731090535787], [20.8982757549639, -2.5275197471453], [20.8549229722157, -2.44317532930766], [20.8229197311426, -2.39139203622275], [20.7784305930347, -2.31518926846097], [20.758495623119, -2.24547213035467], [20.758495623119, -2.15075924447608], [20.7685701544702, -2.07021766854928], [20.7990207006939, -2.01795695836926], [20.8329210012891, -1.97375151197575], [21.0180663379515, -1.84578467239775], [21.0955797934884, -1.79600255227987], [21.2245624846387, -1.7249119546155], [21.2935606955115, -1.65881766607944], [21.3082998709093, -1.62014316918915], [21.2838873445796, -1.54358864629115], [21.2422605767335, -1.47160887709922], [20.9817717558328, -1.26699764498543], [20.9662507110662, -1.2534200152907], [20.8740549156411, -1.17276678147264], [20.8446552087553, -1.12728778457258], [20.8278534215151, -1.07598230231979], [20.8127110525733, -0.981282120896479], [20.8143146567466, -0.913541665231536], [20.8457960709628, -0.822721908050266], [20.8887400340184, -0.746102188421884], [20.9994781312928, -0.645438626280567], [21.0602782575939, -0.579736535898962], [21.0970539827686, -0.50883728807481], [21.1081944900702, -0.43371186094089], [21.0983881750016, -0.37215812963638], [21.069996968956, -0.303209259351562], [21.0267057477542, -0.222039079195158], [20.8914206804881, -0.0326405392044904], [20.8777015079594, -0.0154915753449828], [20.8048382380846, 0.0755874905578647], [20.7837013977772, 0.103769909496085], [20.7236671975452, 0.183815250618788], [20.7009065095296, 0.222279487219238], [20.6803759763434, 0.264985660923805], [20.6780892554989, 0.336364381915539], [20.6906387451709, 0.396828864473213], [20.7159581369496, 0.471240541859716], [20.739695840753, 0.533727841178799], [20.7597645958657, 0.577883562329767], [20.7864712110219, 0.659215911633035], [20.7990207006939, 0.720818026402659], [20.8047250144261, 0.807515871174915], [20.799426835322, 0.84397616985977], [20.7670765454102, 0.904478366405412], [20.6953232922909, 1.03612955511021], [20.6840702458471, 1.0586318866601], [20.6142311453931, 1.2331946533287], [20.5883821311774, 1.3417330899811], [20.5856793771686, 1.41205686915634], [20.5891019655876, 1.44285060261834], [20.6100277413291, 1.5202536130732], [20.6392999233772, 1.56602127721932], [20.6712440786609, 1.58997030841297], [20.7339915270208, 1.65725417887347], [20.7831926270345, 1.74743997533913], [20.8210724463721, 1.83938874873553], [20.8298239937701, 1.9195245565074], [20.8229788169321, 1.99477756354848], [20.8127110525733, 2.04722460166554], [20.7940154325595, 2.10439022447243], [20.7453128085953, 2.18550438402693], [20.71117427299, 2.2467353195766], [20.6883570198576, 2.285494315042], [20.6533189634292, 2.35312624538895], [20.6370847551417, 2.41800679648553], [20.6370847551417, 2.48829055682915], [20.6749645735809, 2.5910062069908], [20.6886842356915, 2.62526983093052], [20.7182557947827, 2.69911893635952], [20.7399014058327, 2.7856022141101], [20.7328506648133, 2.84167592907606], [20.707432990156, 2.90991074963277], [20.6262619496167, 3.00178219439262], [20.5613251173648, 3.10445289189649], [20.5548760840924, 3.14245274604621], [20.5580307562661, 3.17681998689157], [20.6073557680935, 3.27572433881728], [20.6654639022029, 3.34537006013037], [20.7225829004546, 3.38164554920005], [20.9298638890359, 3.47733577287159], [21.013117695121, 3.49395573150469], [21.1127579406967, 3.50008135611779], [21.1864415431059, 3.49395573150469], [21.2736195811192, 3.47161255788523], [21.3462084641837, 3.43596487705992], [21.4312517736036, 3.35956044805412], [21.4824916621385, 3.28282971020111], [21.491524355271, 3.22902430998584], [21.4848128612219, 3.18085941101894], [21.4556437761241, 3.06435632822861], [21.4577074794195, 2.97574035519546], [21.491524355271, 2.77786442880504], [21.5213557412784, 2.65788396541168], [21.5611169795706, 2.56703449625647], [21.6181601141982, 2.46445582923389], [21.8041207330663, 2.22165541998075], [22.0025693186875, 2.06025254059856], [22.0797327672336, 2.03040184917558], [22.6191300576102, 1.8956316939522], [23.1587140439541, 1.83984231857533], [23.1718287068904, 1.83438068438143], [23.1858554149617, 1.83398012611397], [23.3211404822278, 1.79611931360506], [23.4239571329189, 1.71498637939327], [23.4888939651707, 1.59598523376571], [23.4888939651707, 1.58656838527523], [23.4888939651707, 1.5558071546465], [23.4888939651707, 1.5202536130732], [23.473086695595, 1.4767984896046], [23.4456027439689, 1.40124146421217], [23.3698431061921, 1.33091322799831], [23.348759105688, 1.29929555813107], [23.3373746905154, 1.28222326808872], [23.3373746905154, 1.2335323820363], [23.34111038493, 1.19618383658053], [23.4192028648547, 1.04002866340982], [23.4185712351239, 1.03655527163514], [23.4239571329189, 1.02793923401797], [23.4293685356814, 0.968422840266693], [23.4131343273939, 0.892673199508809], [23.3857744447866, 0.856197605042309], [23.348197495142, 0.806100279222243], [23.3177904767855, 0.760494013318189], [23.2507922472135, 0.66000440412853], [23.1715508822275, 0.56756145896333], [23.1533869992849, 0.546371263849204], [23.1263299854724, 0.400268417006562], [23.1425641937599, 0.297453685974743], [23.1544255514664, 0.282896752575988], [23.2258231588698, 0.195273186774167], [23.2934400554829, 0.150195462015336], [23.3261711430403, 0.128374801585731], [23.5308409303133, 0.0539495237515458], [23.8471487839433, -0.225145054301101], [23.9401805057577, -0.411205547256855], [23.9773931948428, -0.522839887347986], [24.1076376048439, -0.671682512787466], [24.1229457039725, -0.748217126955112], [24.0925339434095, -0.818637775484527], [24.0332122275721, -0.913541665231536], [23.791329751214, -1.0623702500099], [23.6392893378112, -1.08309939963444], [23.475021897584, -1.19258941621144], [23.4197201237785, -1.27552282998822], [23.4087923501125, -1.34107237335634], [23.4343096461382, -1.45586598567986], [23.528797827184, -1.53982677359959], [23.570092264189, -1.57078619127414], [23.586659963941, -1.58320725950915], [23.7355107184847, -1.69479963439743], [23.9029678175709, -1.82498258057622], [23.9959995393853, -1.93656048833486], [24.1634566384716, -2.1411005995682], [24.3681264257446, -2.27124844182382], [24.7216469684596, -2.36420404616991], [25.0937738548189, -2.56868411859914], [25.5544249531538, -2.77253460261284], [25.8111794244177, -2.85441761739993], [25.9089872155099, -2.88957739081302], [25.9889620010264, -2.92106335159652], [26.0376646249907, -2.95889331240778], [26.0532159322026, -2.99160486479246], [26.0532159322026, -3.02311144498931], [26.0411968725531, -3.05161661121407], [26.0186611352611, -3.09362284391005], [25.9690825137576, -3.14762840949137], [25.8774371834808, -3.22563149310805], [25.8132712422866, -3.26332220496688], [25.6455902533872, -3.31354366993284], [25.5668725927371, -3.33711920552321], [25.4776592336997, -3.35545534514704], [25.2900056399657, -3.39661711389232], [25.162303129842, -3.41011470832106], [24.9610327849963, -3.42644595952278], [24.8407932824203, -3.46110390704057], [24.787630607512, -3.48836973431213], [24.7145931552019, -3.54657962074374], [24.6605073858807, -3.60205963822201], [24.6139335301879, -3.68002582631175], [24.5913977928959, -3.7669800580315], [24.5711745006049, -3.8501898780066], [24.5765859033674, -3.95276823961919], [24.5929001749029, -4.0083068622913], [24.6139335301879, -4.05476547079838], [24.6454835613188, -4.10571700167503], [24.6800383582603, -4.15067153622944], [24.7294588592058, -4.20474630046215], [24.8315206681401, -4.2845212694102], [25.032897423821, -4.40723098390836], [25.1567069229642, -4.47384823221726], [25.2313656268514, -4.51401635805154], [25.5939296056514, -4.68662331497076], [25.6911417580147, -4.74232378937195], [25.7400374784425, -4.78369609897174], [25.7616830885943, -4.8160506498083], [25.770768028642, -4.85011653419466], [25.7670944913568, -4.89153859614171], [25.7512370562623, -4.94142749553086], [25.7183918673925, -4.99397288736611], [25.6821274632775, -5.02374627367324], [25.5939296056514, -5.09100114523081], [25.5757170340204, -5.11302878860445], [25.5181699687729, -5.18262550964453], [25.5166036958879, -5.1896448847482], [25.4965243577228, -5.30117845859208], [25.5398155789246, -5.38738452073379], [25.6534550351407, -5.46280479822578], [25.7084518309073, -5.49393464189066], [25.7836556944926, -5.53649965982337], [26.0362313791246, -5.64822120840426], [26.095548168601, -5.70488607731735], [26.1296584710551, -5.73746885276951], [26.1603731713797, -5.85967443321589], [26.1513040812068, -5.99047369495146], [26.1123419823947, -6.05505209027082], [26.0246574894956, -6.12770993526567], [25.8194212847915, -6.20422826624354], [25.750206211626, -6.22831110375293], [25.5555635516067, -6.29602954201374], [25.4045305125568, -6.39396013123976], [25.2054119211758, -6.61100985728768], [25.019348477547, -6.92511307058984], [24.9862777666251, -7.13845572766151], [24.995472955111, -7.18407302186188], [25.0575865692744, -7.2721015935438], [25.1097997500802, -7.30854717025382], [25.1849358366756, -7.33564657996664], [25.2463307797471, -7.39399799804255], [25.2798372984477, -7.46044878247815], [25.2612309539051, -7.58957147301878], [25.1260116316397, -7.76824704718231], [25.1161338537936, -7.7812963487176], [25.0937738548189, -7.85580807645352], [25.0937738548189, -7.91038811647185], [25.1136045815341, -7.95949025672472], [25.2240182657184, -8.0688255848132], [25.2746568480531, -8.12775864016691], [25.3071252637299, -8.2241738474844], [25.2963024591032, -8.3098565800271], [25.2097200158013, -8.45975622603641], [25.0875389592489, -8.59508618213835], [25.0643361258403, -8.62663045727577], [24.990448142331, -8.75122804084354], [24.975894171697, -8.80516613735266], [24.9607954932174, -8.89840893349291], [24.9607954932174, -8.97230579933759], [24.988303456811, -9.03783082243122], [25.0006438303629, -9.0500177828524], [25.058200741146, -9.106853690865], [25.1050493923825, -9.1359290385672], [25.2073256821757, -9.19939579604966], [25.2475998351389, -9.22438448985241], [25.4911129549603, -9.35255525005722], [25.5885182028889, -9.45932818473471], [25.6318094249889, -9.51270224648756], [25.6519641857052, -9.55990831203014], [25.6519641857052, -9.57644769708602], [25.6519641857052, -9.79654047415346], [25.7449959075196, -9.9431881383564], [25.8566339729783, -10.0531307764023], [25.9120517740843, -10.1076930949407], [25.9974837306287, -10.217882022666], [26.0368547353716, -10.3534660430972], [26.0338247529526, -10.4875663510309], [26.0226193010491, -10.536532510511], [25.9682720393352, -10.6754213571182], [25.8194212847915, -10.8399354027803], [25.7245601142566, -10.9227403645477], [25.6519641857052, -10.986094258112], [25.4286880529914, -11.1869443744199], [25.4081182256981, -11.2636143611902], [25.4199899652342, -11.3566886803163], [25.4659007420765, -11.4241331106376], [25.6084391294418, -11.5482963913729], [25.655815444788, -11.6433250726187], [25.6768224336211, -11.7118990223133], [25.6786262498133, -11.8090263199997], [25.6519641857052, -11.9525263010877], [25.5185546210893, -12.425232444741], [25.4172218138728, -12.563738502584], [25.3456917480841, -12.6335462577321], [25.2550640877516, -12.673588458932], [25.0777287544751, -12.7081890465466], [25.0186360551362, -12.7347930890602], [24.9449231002752, -12.8066825554093], [24.7960723457315, -13.0424368543285], [24.7103588446006, -13.2093849793241], [24.6847088817805, -13.2313284708866], [24.6090543190441, -13.2730577573023], [24.506237668353, -13.3151888793588], [24.4327289355903, -13.3677807033055], [24.3222499771226, -13.4468012894436], [24.0675923147673, -13.6031248116492], [24.0208169444984, -13.623083439666], [23.978605024856, -13.6319533999539]]]}, "properties": {"OBJECTID": 17, "id": null, "name": "Great Sand Sea", "continent": "", "Symbol": 2, "Visible": null, "type": "Sand Sea", "Shape__Area": 713563924594.9652, "Shape__Length": 5339866.819906218}}, {"type": "Feature", "id": 18, "geometry": {"type": "Polygon", "coordinates": [[[54.5879758943991, -17.7292017755374], [54.6545996648381, -17.8463195335909], [54.8032219203129, -17.9779849193792], [54.8566899173149, -17.9993109412957], [54.9620939864171, -18.0413444119609], [55.0645920945085, -18.0657073770999], [55.2132143499832, -18.0705795651551], [55.346461889963, -18.051090003888], [55.5002090503033, -18.0705795651551], [55.5463331994834, -18.1095521971224], [55.5822075371357, -18.2020774320212], [55.5775973759111, -18.2633792361578], [55.5770826313718, -18.270222510806], [55.5770826313718, -18.3383408425038], [55.6078320632602, -18.3967066305808], [55.6360068624589, -18.4074002584764], [55.6590811173059, -18.4161575028006], [55.7615792244989, -18.4161575028006], [55.7769539408923, -18.4161575028006], [55.843577710433, -18.3967066305808], [55.9717003446488, -18.3188811965602], [56.0280633414186, -18.2664042899342], [56.1305724116514, -18.2215501785748], [56.2893194475394, -18.1224336866409], [56.3528536619847, -18.1160775141344], [56.4380667341287, -18.1290352646495], [56.5055267103331, -18.1856824407726], [56.5841597937008, -18.2516886290143], [56.6584376649081, -18.3140159426263], [56.7711855827306, -18.4307442139367], [56.8096514988921, -18.5080058328091], [56.8583089744285, -18.6056879941094], [56.9627327533837, -18.7489579425651], [57.0069312299033, -18.8095619232375], [57.1248040534897, -18.955035192348], [57.1555534853781, -19.1003817171305], [57.1143979647468, -19.1781429655884], [57.0940546216013, -19.2165671274552], [57.0325557569261, -19.2697913729001], [56.9864316086444, -19.3471776005011], [56.9749829405727, -19.4038828768376], [56.9813067028805, -19.4680200989016], [57.0171810405328, -19.5549709803587], [57.0838048100735, -19.6177397155678], [57.2119274451876, -19.7094345470972], [57.3195504572462, -19.7914327621009], [57.3508131712166, -19.8723063787775], [57.324443404529, -19.9314326417552], [57.2888010253578, -19.9649365325424], [57.2034187357671, -20.0068010396199], [57.1114748225578, -20.0140004815749], [57.0088944817871, -19.9989395402862], [56.9761817980149, -19.9553024233878], [56.8941833120808, -19.9119416559976], [56.78143539336, -19.8926663862405], [56.6533127591442, -19.8926663862405], [56.5251901249284, -19.9023043145767], [56.3919425849486, -19.9167601061185], [56.2433203294738, -19.9408501564003], [56.137323295029, -19.9427869243361], [56.0485739257173, -19.9023043145767], [55.9614505340193, -19.8010768387236], [55.7359546974761, -19.6563544566258], [55.5360833879556, -19.5984288651636], [55.4186228812032, -19.5896926573058], [55.4031208474829, -19.5885396470561], [55.3297208701585, -19.5632706176843], [55.2952128359173, -19.5018398859602], [55.2029645393538, -19.2262455463472], [55.1349189298561, -19.1313723662968], [55.0915494519184, -19.0845948964596], [55.0200658353181, -19.033475484901], [54.8749705956175, -18.921102735718], [54.798097014549, -18.8483671414656], [54.7468479614016, -18.7804521332372], [54.6904740024904, -18.6639627378771], [54.6808682129528, -18.5729319869956], [54.6802241909626, -18.5668270718393], [54.6494747590742, -18.4793576448026], [54.5572264625107, -18.4307442139367], [54.4393536389243, -18.3772535610844], [54.2241076130105, -18.3140159426263], [54.029361209254, -18.3140159426263], [53.8243649939696, -18.3237463128638], [53.74953536943, -18.3056086626676], [53.5834944419313, -18.2653558908169], [53.4772574036937, -18.2014507534778], [53.451205607379, -18.1857761429793], [53.4297472806926, -18.1728642320267], [53.3528737005225, -18.0900669635712], [53.3528737005225, -18.0072305922722], [53.3425456376486, -17.8958776003525], [53.3374989841291, -17.8414411614473], [53.255500498195, -17.7926500963823], [53.0530368232412, -17.7980804232849], [52.8608827840198, -17.773129933192], [52.6712612860271, -17.6754971815752], [52.4970145035295, -17.5093999018748], [52.4047662060676, -17.3627171722062], [52.4355156388544, -17.2648633506535], [52.5369476757738, -17.1959923954838], [52.6558865696337, -17.1228830704025], [52.8660076897836, -17.0396027678017], [53.0351295674157, -16.9905970060194], [53.2606254030606, -16.9513831720938], [53.3642016116638, -16.9672187850466], [53.4963710502334, -17.0003991840919], [53.650118211472, -17.1571641333201], [53.8704317875155, -17.3128755670012], [54.0037366822312, -17.3284742620073], [54.1779834647288, -17.3382586026888], [54.3419804365969, -17.3773907475793], [54.5008525035994, -17.4849609771603], [54.5367268412517, -17.6022377933196], [54.5488906653076, -17.6323804557362], [54.5879758943991, -17.7292017755374]]]}, "properties": {"OBJECTID": 18, "id": null, "name": "Hidden Sea", "continent": null, "Symbol": 3, "Visible": null, "type": "Blue Sea", "Shape__Area": 69191312590.78711, "Shape__Length": 1535828.4978669307}}, {"type": "Feature", "id": 19, "geometry": {"type": "Polygon", "coordinates": [[[54.6059478980953, -8.83108077127788], [54.2483966398533, -8.95825126330495], [53.8908453816112, -9.09949961584095], [53.5618982247472, -9.0571309255519], [53.4148139119883, -8.97541829093127], [53.2250775688781, -8.92999497664973], [53.118534665066, -8.92999497664973], [52.7323793063443, -9.01475724038011], [52.3605259974132, -9.07125437782569], [52.0601829410288, -9.15598339346494], [51.8599542367726, -9.21245819768604], [51.7281942862422, -9.26334774169295], [51.7013451398914, -9.33743890900904], [51.7778796779071, -9.4955957232345], [51.8027460349149, -9.50880158545374], [51.8313501353946, -9.59342434622852], [51.8170480856039, -9.66392718878917], [51.7169337334758, -9.79079501626883], [51.6846681789498, -9.86497647299174], [51.6740275823071, -9.88943652162866], [51.6740275823071, -9.93170240785776], [51.7312357832665, -9.97396283635242], [51.8105221053391, -10.0130045105626], [51.8170480856039, -10.0162177839447], [51.8885583372523, -10.1007111473646], [51.902860387043, -10.2133344145903], [51.8599542367726, -10.4103289410642], [51.8240642917906, -10.6690811422742], [51.9154966306153, -10.8293664105576], [52.0582642913973, -10.9994083626532], [52.2486211718411, -11.2176844644986], [52.2466659473027, -11.2256450462342], [52.3033177964538, -11.2812076817213], [52.3891300978929, -11.3653496365775], [52.4034321485819, -11.5055309628755], [52.2890157457648, -11.6456425111932], [52.2032034443257, -11.8556772437083], [52.2032034443257, -11.9816207335776], [52.2461095945961, -12.1354718575527], [52.3605259974132, -12.3032081557325], [52.3605259974132, -12.5127278603798], [52.2461095945961, -12.4708374267632], [52.0315788405491, -12.3730667703889], [51.9264394438757, -12.3368181396126], [51.7455378339555, -12.3171813686858], [51.6597255316181, -12.2612840622784], [51.6470304537846, -12.1372000192201], [51.6465676453435, -12.1326753544199], [51.6454234818274, -12.121489045008], [51.7026316827868, -11.9956108397752], [51.7455378339555, -11.8696738469791], [51.8145822146406, -11.7480242712016], [51.8170480856039, -11.7436786470034], [51.8170480856039, -11.6316345189123], [51.7169337334758, -11.5475717899184], [51.6831271684872, -11.5333761679834], [51.6168193804494, -11.5055309628755], [51.4451947766729, -11.4494667601638], [51.3879865757135, -11.4214304886419], [51.3021742733761, -11.3092577478983], [51.3021742733761, -11.1970410715453], [51.3060397321284, -11.1553273934496], [51.3164763240651, -11.042672159733], [51.2449660733149, -10.9256718928243], [51.1734558207682, -10.9022662871614], [51.1019455691198, -10.7477432792168], [51.0161332676807, -10.5931411266422], [50.9875291663027, -10.39626200059], [50.9303209653433, -10.2414840188462], [50.8874148141746, -10.1288706790727], [50.8016025127355, -10.072549149144], [50.6871861099183, -10.0162177839447], [50.5441656066215, -9.86125624229202], [50.5155615061418, -9.74851109487862], [50.5298635568308, -9.60752609170911], [50.5298635568308, -9.43826661429648], [50.372541002845, -9.41004857763043], [50.2581246000279, -9.36771720543514], [50.1580102478998, -9.325380673115], [50.0435938450827, -9.18422192059148], [49.9720835934342, -9.08537727516314], [49.8576671915154, -8.95825126330495], [49.8147610403467, -8.88760644242467], [49.8433651408264, -8.7180034885054], [49.8576671915154, -8.53418008498757], [49.9291774431638, -8.40686574940981], [50.202284706621, -8.15054503790063], [50.4878200272868, -8.00137502113914], [50.8685337881744, -7.82711509107431], [51.2968367696221, -7.82711509107431], [51.8203181903933, -7.75235691436613], [52.2724157812228, -7.60270474061065], [52.9148702533944, -7.52781067356594], [53.4383516741657, -7.3778864012652], [53.5257226846751, -7.33195742738528], [53.8050330801721, -7.3159748374287], [54.0624699862861, -7.21666452011056], [54.4200212436298, -7.13152402736359], [54.6917602004327, -7.06056151514742], [54.9491971056484, -7.06056151514742], [55.1311639692735, -7.05303699699938], [55.2924463132014, -7.04636770331882], [55.4640709178763, -7.00378366164727], [55.6786016719232, -7.04636770331882], [55.82162217522, -7.21666452011056], [56.093361132023, -7.24504113381375], [56.2220795846308, -7.33016022919091], [56.2506836851105, -7.51452889477035], [56.2649857357995, -7.64212302960896], [56.064757030645, -7.82635821701031], [55.9503406287261, -8.01051201357889], [55.9074344775574, -8.19458255285893], [55.7072057733012, -8.43516145990097], [55.4783729676669, -8.54832351427298], [55.2066340117623, -8.67559065864603], [54.9205930051687, -8.7180034885054], [54.6059478980953, -8.83108077127788]]]}, "properties": {"OBJECTID": 19, "id": null, "name": "The Dry Deep ", "continent": null, "Symbol": 2, "Visible": null, "type": "Sand Sea", "Shape__Area": 149942715145.50195, "Shape__Length": 2420121.283433039}}, {"type": "Feature", "id": 20, "geometry": {"type": "Polygon", "coordinates": [[[32.8012654924993, -6.5067345746934], [32.7060870522774, -6.53191498078748], [32.6360014244651, -6.49482800990472], [32.6109086120555, -6.44112595917037], [32.6109086120555, -6.25464977894245], [32.6109086120555, -6.21183772929776], [32.5584518108396, -6.12708912737459], [32.533946807443, -6.05398907671907], [32.5421151416091, -5.97275520147752], [32.5911251501989, -5.9321337344035], [32.6561271067156, -5.90274482952132], [32.7006127737332, -5.86726068943919], [32.7136501707754, -5.85900756597652], [32.7657917854974, -5.84748095078047], [32.7871651827619, -5.84275600059336], [32.8688485298128, -5.88338402495849], [32.8606801956467, -5.99712663699806], [32.8488547121611, -6.020647657583], [32.8116701870568, -6.09460144451644], [32.8198385221212, -6.2001791668928], [32.8624031374122, -6.27211082833016], [32.8726493224412, -6.38075601195912], [32.8012654924993, -6.5067345746934]]]}, "properties": {"OBJECTID": 20, "id": null, "name": null, "continent": null, "Symbol": 1, "Visible": null, "type": "Lake", "Shape__Area": 2040815870.8154297, "Shape__Length": 197273.25892959264}}, {"type": "Feature", "id": 21, "geometry": {"type": "Polygon", "coordinates": [[[31.8886483652016, -6.20829965976832], [31.8151333523168, -6.24078037591448], [31.7362649660402, -6.27997940637218], [31.7007766668048, -6.29761677855759], [31.652094025864, -6.39438544606547], [31.6435983240488, -6.41127086521469], [31.5782516462284, -6.41127086521469], [31.5292416376385, -6.37068300472356], [31.455726625652, -6.22454026887769], [31.3577066093706, -6.22454026887769], [31.2760232623196, -6.2001791668928], [31.2703079118858, -6.10357774368313], [31.2687519390839, -6.07727551333434], [31.2678549272552, -6.0621117955436], [31.3086966007807, -5.9321337344035], [31.3250332700112, -5.85900756597652], [31.3168649358451, -5.77774503837337], [31.2678549272552, -5.67208633946761], [31.2678549272552, -5.63393705993035], [31.2678549272552, -5.56640828483396], [31.2714649168189, -5.49813797488563], [31.2760232623196, -5.41192166480031], [31.2977866083675, -5.30791437873532], [31.2805571673564, -5.23427150088576], [31.2946939109652, -5.22602196443267], [31.2841915964857, -5.15978031302181], [31.3495382743061, -5.10283112276893], [31.5047366333436, -5.02960331648683], [31.7334500052659, -5.02960331648683], [31.8233016873812, -5.1109670324301], [31.8314700224456, -5.2004551796725], [31.8314700224456, -5.33872994752114], [31.8396383566117, -5.42818529306252], [31.8839636572831, -5.49988661488418], [31.8992170292479, -5.52455872358716], [31.9049850344322, -5.53388812088693], [31.9131533694966, -5.63144320508772], [31.8992170292479, -5.72851860181394], [31.8968166993677, -5.74523675193244], [31.8478066916761, -5.84275600059336], [31.8478066916761, -5.9321337344035], [31.9107004306801, -5.96732089039497], [31.9158837673616, -6.00038062650526], [31.9376583737915, -6.01337365564567], [31.9458267079576, -6.07023439118235], [31.9213217036627, -6.16769594844279], [31.8886483652016, -6.20829965976832]]]}, "properties": {"OBJECTID": 21, "id": null, "name": null, "continent": null, "Symbol": 1, "Visible": null, "type": "Lake", "Shape__Area": 9013407605.446777, "Shape__Length": 411842.38412113354}}, {"type": "Feature", "id": 22, "geometry": {"type": "Polygon", "coordinates": [[[-60.6396907522316, 43.9302804712338], [-60.6549022546193, 43.8206286920092], [-60.7309597674561, 43.6997787099594], [-60.7918057779053, 43.6667772616521], [-60.8526517883544, 43.6337576590603], [-60.9895553116404, 43.5235612212213], [-61.0504013211912, 43.4683873782729], [-61.0656128244772, 43.4352588754538], [-61.0656128244772, 43.3910593119944], [-61.0808243268649, 43.3246994841985], [-61.2481508549263, 43.2804192831736], [-61.3698428758246, 43.2471879675758], [-61.5219579014983, 43.2471879675758], [-61.8109764495596, 43.2471879675758], [-62.0087259832947, 43.1140813265865], [-62.2368985218052, 43.1029760080123], [-62.3890135474789, 43.1362859177225], [-62.4346480555404, 43.258267088099], [-62.4194365522543, 43.3357644957099], [-62.2977445322544, 43.4021122270776], [-62.2368985218052, 43.4242120088504], [-62.1912640137438, 43.4573465605333], [-62.0391489880701, 43.6227470911085], [-61.8870339623965, 43.6887802443207], [-61.7805534447842, 43.6887802443207], [-61.6892844295597, 43.7217695903184], [-61.537169403886, 43.8645136161183], [-61.3698428758246, 43.8864439725943], [-61.2025163468649, 43.8754798028834], [-61.0504013211912, 43.8754798028834], [-60.8982862955175, 43.9302804712338], [-60.6396907522316, 43.9302804712338]]]}, "properties": {"OBJECTID": 22, "id": null, "name": null, "continent": "Westeros", "Symbol": 1, "Visible": null, "type": "Lake", "Shape__Area": 13440887094.265625, "Shape__Length": 533471.4176067177}}, {"type": "Feature", "id": 23, "geometry": {"type": "Polygon", "coordinates": [[[-58.8219161957904, 43.9631366585454], [-58.8675507038518, 43.897406123926], [-58.913185211015, 43.7657271431456], [-58.913185211015, 43.6337576590603], [-59.0196657295255, 43.4573465605333], [-59.0957232423624, 43.512530485752], [-59.0653002366886, 43.5897032858596], [-59.0805117390763, 43.6887802443207], [-59.1109347447501, 43.7767114878164], [-59.1869922575869, 43.9193243739222], [-59.1869922575869, 43.8206286926574], [-59.2934727751991, 43.6337576590603], [-59.369530288036, 43.512530485752], [-59.4760108065466, 43.3578884698285], [-59.6129143289342, 43.3910593119944], [-59.6129143289342, 43.5456166430435], [-59.5520683193834, 43.6997787106089], [-59.4455878008728, 43.8206286926574], [-59.3999532937097, 43.9302804718807], [-59.4455878008728, 44.0178566112453], [-59.4455878008728, 44.1380629130468], [-59.3238957808729, 44.1708040655152], [-59.2630497704237, 44.2580249950466], [-59.1869922575869, 44.3559941188836], [-59.1717807551992, 44.4212160251319], [-59.23262676475, 44.518912611852], [-59.247838268036, 44.5947857837334], [-59.1565692519132, 44.6813768372826], [-58.9892427238518, 44.897289106071], [-58.913185211015, 44.8002285354838], [-58.9588197190764, 44.6272725721663], [-58.9436082166887, 44.4320792768687], [-58.8979737086273, 44.3015870145615], [-58.8979737086273, 44.214430678261], [-58.8523392005658, 44.0834539584105], [-58.8219161957904, 43.9631366585454]]]}, "properties": {"OBJECTID": 23, "id": null, "name": null, "continent": "Westeros", "Symbol": 1, "Visible": null, "type": "Lake", "Shape__Area": 9359158505.867188, "Shape__Length": 681476.9241758104}}, {"type": "Feature", "id": 24, "geometry": {"type": "Polygon", "coordinates": [[[-62.4726768119588, 42.3206001634225], [-62.5183113200202, 42.1967591426602], [-62.6247918376325, 42.2530806658852], [-62.6704263456939, 42.3543327727057], [-62.716060852857, 42.4217437010433], [-62.7769068633061, 42.5227243409635], [-62.7464838585307, 42.6123481151841], [-62.716060852857, 42.6906632753484], [-62.716060852857, 42.7800455529317], [-62.7616953609184, 42.9361544871552], [-62.6856378480816, 42.9584235433223], [-62.6095803352448, 42.8692989853317], [-62.5335228224079, 42.7577120611587], [-62.4422538071834, 42.6571117098178], [-62.4574653095711, 42.5787542897191], [-62.4726768119588, 42.4217437010433], [-62.4726768119588, 42.3206001634225]]]}, "properties": {"OBJECTID": 24, "id": null, "name": null, "continent": "Westeros", "Symbol": 1, "Visible": null, "type": "Lake", "Shape__Area": 2572048153.6015625, "Shape__Length": 255380.56515585375}}, {"type": "Feature", "id": 25, "geometry": {"type": "Polygon", "coordinates": [[[-60.4799699758132, 42.7688798139431], [-60.5712389910378, 42.7130209225293], [-60.67771950865, 42.7800455529317], [-60.6625080062623, 42.8469977082629], [-60.6016619958132, 42.913877375569], [-60.5103929805886, 43.0585345885454], [-60.4799699758132, 43.2693441937501], [-60.4039124629764, 43.2804192831736], [-60.3278549501395, 43.1806709204207], [-60.3582779549149, 43.1029760086682], [-60.4039124629764, 43.0474191969925], [-60.4191239653641, 42.9250169390012], [-60.4343354677518, 42.8692989859901], [-60.4799699758132, 42.7688798139431]]]}, "properties": {"OBJECTID": 25, "id": null, "name": null, "continent": "Westeros", "Symbol": 1, "Visible": null, "type": "Lake", "Shape__Area": 1439429399.125, "Shape__Length": 199616.25327315356}}, {"type": "Feature", "id": 26, "geometry": {"type": "Polygon", "coordinates": [[[-7.86671229233572, 2.9678602157516], [-7.91649242482207, 2.89825933232264], [-7.95631652991281, 3.05734061031663], [-7.95631652991281, 3.18657683709118], [-7.93640447691829, 3.31579683676034], [-7.92644845042101, 3.40524698661769], [-7.86671229233572, 3.59405864134592], [-7.86671229233572, 3.73315813085693], [-7.88662434533027, 3.87223558966422], [-7.93417398522063, 3.99332780744179], [-7.90299837639176, 4.06718677231116], [-7.85675626673678, 4.1205308383271], [-7.76881628398768, 4.17960108685179], [-7.63772368649187, 4.20989839935525], [-7.619980260018, 4.02728022488852], [-7.69745984457716, 3.85236876075361], [-7.69745984457716, 3.72322317384995], [-7.7372839496679, 3.54437506886859], [-7.75719600266245, 3.37543118216926], [-7.78706408215424, 3.15675450934494], [-7.86671229233572, 2.9678602157516]]]}, "properties": {"OBJECTID": 26, "id": null, "name": null, "continent": null, "Symbol": 1, "Visible": null, "type": "Lake", "Shape__Area": 2762860110.2766113, "Shape__Length": 321300.4626068034}}, {"type": "Feature", "id": 27, "geometry": {"type": "Polygon", "coordinates": [[[7.0569505358128, -48.7996352417469], [7.20526268566498, -48.829685423386], [7.47906973133861, -48.829685423386], [7.67301638925222, -48.8071494761383], [7.84414579313512, -48.8221745663268], [7.95823206239036, -48.8447037598582], [8.18640460090091, -48.8897317551156], [8.32330812418688, -48.94221321255], [8.46021164747284, -49.0021245159403], [8.61993242389123, -49.069438689071], [8.74542732061101, -49.114264204598], [8.84810496240174, -49.2186997114552], [9.03064299374915, -49.3006016883073], [9.17895514360132, -49.3452182140942], [9.38431042808115, -49.3749401085839], [9.5098053248009, -49.5010578077508], [9.58966571256095, -49.5602951152498], [9.77220374390835, -49.6416292241192], [10.0346021630158, -49.7006961077285], [9.94333314779125, -49.7670606281184], [9.77220374390835, -49.7965268450952], [9.48698807077022, -49.818614747905], [9.17895514360132, -49.811253233696], [8.98500848568774, -49.7449492043447], [8.75683594717719, -49.6564026698096], [8.61993242389123, -49.6564026698096], [8.33471675075309, -49.6564026698096], [8.14077009373777, -49.6342408201547], [7.98104931642108, -49.5898868524894], [7.74146815134435, -49.5010578077508], [7.57033874746149, -49.4194892722425], [7.23948856626188, -49.2708348768307], [7.18244543163426, -49.2186997114552], [7.0569505358128, -49.114264204598], [6.96568151968995, -49.0320531722183], [6.9086383850623, -48.949706062655], [6.86300387789919, -48.8146625841212], [7.0569505358128, -48.7996352417469]]]}, "properties": {"OBJECTID": 27, "id": null, "name": null, "continent": null, "Symbol": 1, "Visible": null, "type": "Lake", "Shape__Area": 28671831534.164062, "Shape__Length": 837883.588018869}}, {"type": "Feature", "id": 28, "geometry": {"type": "Polygon", "coordinates": [[[2.00506574463676, -44.2272461573585], [2.02558033991317, -44.3887276452632], [1.90249276825471, -44.3594004189132], [1.73837600694176, -44.2860180994204], [1.6152884352833, -44.24194464989], [1.45117167397032, -44.0800593221294], [1.32808410231189, -43.9472773242403], [1.38962788814112, -43.8585908336921], [1.51271545979955, -43.8289993125778], [1.75889060221817, -43.9325054173617], [1.94352195880753, -44.1242539179196], [2.00506574463676, -44.2272461573585]]]}, "properties": {"OBJECTID": 28, "id": null, "name": null, "continent": null, "Symbol": 1, "Visible": null, "type": "Lake", "Shape__Area": 3309024270.7210083, "Shape__Length": 247282.1680952515}}, {"type": "Feature", "id": 29, "geometry": {"type": "Polygon", "coordinates": [[[32.9360122892472, -7.87334060172267], [32.6966759438315, -7.93412592464814], [32.3468766703843, -7.90981286988626], [31.9418459324722, -7.90981286988626], [31.751604222336, -7.97667030843812], [31.4999942185496, -8.17717668426506], [31.1747422627422, -8.22576920578325], [30.9476795756972, -8.18932537078137], [30.916995428872, -8.03744031494866], [31.0029110401621, -7.91589126880216], [31.1747422627422, -7.62402825450011], [31.1808790919275, -7.49019070325916], [31.1133739690919, -7.42325646390591], [31.0397320161726, -7.30761882858182], [31.0397320161726, -7.21021652899251], [31.0029110401621, -7.03971225385079], [30.7942588424698, -6.84477356101646], [30.6531117667148, -6.72289629161462], [30.6285644490751, -6.63146824965537], [30.7144800603651, -6.55831359075017], [30.8065325008405, -6.37538021346898], [30.7942588424698, -6.1862804954137], [30.843353476851, -6.07644947319393], [30.8801744528615, -5.88113922880217], [30.7451642071902, -5.72850525158224], [30.5733329846102, -5.6124760839748], [30.4812805450331, -5.55139879474575], [30.4874173742184, -5.45366199679621], [30.7451642071902, -5.3192479628347], [30.8924481121305, -5.16035721089982], [30.9354059173264, -4.99531316307298], [30.9047217705013, -4.78130551369424], [30.8126693300259, -4.69568356050585], [30.6653854250856, -4.64675199837272], [30.6531117667148, -4.54276119577595], [30.757437865561, -4.49381913649679], [30.9599532349662, -4.45711043416522], [31.3281629968678, -4.38980639560017], [31.5490888538291, -4.34085418573602], [31.6104571474794, -4.26130009007689], [31.6227308058501, -4.12665140991353], [31.6104571474794, -3.94300291882642], [31.5859098298396, -3.85728628695189], [31.6472781234899, -3.74094277785666], [31.7761515399758, -3.67357891796933], [32.0707193489581, -3.60008527429266], [32.1320876426084, -3.56333621966709], [32.1320876426084, -3.46533160751261], [32.052308861402, -3.33055874732496], [32.1014034957832, -3.23865753641799], [32.3530134995697, -3.09772622649774], [32.8562335080408, -3.07321449401421], [33.1876222930336, -3.10385407089857], [33.4330954676347, -3.18964013100941], [33.568105713306, -3.23253048999564], [33.795168400351, -3.38569537190252], [33.9240418168369, -3.56333621966709], [33.8565366940012, -3.62458381993897], [33.7399369358861, -3.69195138840502], [33.5742425433897, -3.78993142935146], [33.4392322968201, -3.91239084072894], [33.3655903447991, -4.02871071181441], [33.4085481499949, -4.15725541439072], [33.5865162017604, -4.25518020150908], [33.7890315702673, -4.27353972102511], [34.0651888916935, -4.31025744026811], [34.1940623081794, -4.46322867879159], [34.40271450677, -4.65898520918584], [34.6604613397418, -4.89748958253972], [34.6604613397418, -5.22758514903612], [34.3781671891302, -5.67965371010297], [34.3045252371092, -5.77735261508577], [34.2983884079238, -5.88113922880217], [34.3904408483993, -6.03983413150497], [34.5438615825249, -6.19238155336962], [34.6297771929167, -6.38147905453653], [34.6113667053606, -6.57050678260328], [34.4333986535951, -6.80821362235993], [34.2370201142736, -7.00316741815532], [33.8442630347322, -7.17368525005865], [33.4637796144599, -7.2832702329078], [33.2674010751383, -7.41108550427037], [33.1078435118273, -7.660522174407], [32.9360122892472, -7.87334060172267]]]}, "properties": {"OBJECTID": 29, "id": null, "name": "The Shrinking Sea", "continent": null, "Symbol": 2, "Visible": null, "type": "Sand Sea", "Shape__Area": 178165337404.9807, "Shape__Length": 1964240.0477120383}}]}