{"type": "FeatureCollection", "features": [{"type": "Feature", "id": 1, "geometry": {"type": "Point", "coordinates": [-58.4900127273438, 2.45532630640617]}, "properties": {"OBJECTID": 1, "id": 1, "name": "King's Landing", "size": 0, "confirmed": 1, "type": "City", "Symbol": 2, "S2": 2}}, {"type": "Feature", "id": 2, "geometry": {"type": "Point", "coordinates": [-57.8880455549962, 3.60768563207115]}, "properties": {"OBJECTID": 2, "id": 2, "name": "Hayford Castle", "size": 0, "confirmed": 0, "type": "House", "Symbol": 1, "S2": 1}}, {"type": "Feature", "id": 3, "geometry": {"type": "Point", "coordinates": [-57.0797973276746, 3.3242968658443]}, "properties": {"OBJECTID": 3, "id": 3, "name": "Rosby", "size": 0, "confirmed": 1, "type": "House", "Symbol": 1, "S2": 1}}, {"type": "Feature", "id": 4, "geometry": {"type": "Point", "coordinates": [-56.2620462963746, 4.09019451811447]}, "properties": {"OBJECTID": 4, "id": 4, "name": "Old Stone Bridge Inn", "size": 0, "confirmed": 0, "type": "Inn", "Symbol": 5, "S2": 3}}, {"type": "Feature", "id": 5, "geometry": {"type": "Point", "coordinates": [-57.8421444215685, 4.26341290679529]}, "properties": {"OBJECTID": 5, "id": 5, "name": "Brindlewood", "size": 0, "confirmed": 0, "type": "Other", "Symbol": 5, "S2": 3}}, {"type": "Feature", "id": 6, "geometry": {"type": "Point", "coordinates": [-57.3323349991971, 4.80896634563981]}, "properties": {"OBJECTID": 6, "id": 6, "name": "Sow's Horn", "size": 0, "confirmed": 1, "type": "House", "Symbol": 1, "S2": 1}}, {"type": "Feature", "id": 7, "geometry": {"type": "Point", "coordinates": [-61.1772190284893, 0.947773074939863]}, "properties": {"OBJECTID": 7, "id": 7, "name": "Tumbleton", "size": 0, "confirmed": 1, "type": "Village", "Symbol": 3, "S2": 3}}, {"type": "Feature", "id": 8, "geometry": {"type": "Point", "coordinates": [-63.7762427694197, 7.7871969193976]}, "properties": {"OBJECTID": 8, "id": 8, "name": "High Heart", "size": 0, "confirmed": 1, "type": "Ruin", "Symbol": 4, "S2": 3}}, {"type": "Feature", "id": 9, "geometry": {"type": "Point", "coordinates": [-56.2278575629113, 4.55727415249187]}, "properties": {"OBJECTID": 9, "id": 9, "name": "Duskendale", "size": 0, "confirmed": 1, "type": "Village", "Symbol": 3, "S2": 3}}, {"type": "Feature", "id": 10, "geometry": {"type": "Point", "coordinates": [-57.9257220056349, 5.81569360326709]}, "properties": {"OBJECTID": 10, "id": 10, "name": "Antlers", "size": 0, "confirmed": 1, "type": "House", "Symbol": 1, "S2": 1}}, {"type": "Feature", "id": 11, "geometry": {"type": "Point", "coordinates": [-56.9387131034469, 3.87048110788746]}, "properties": {"OBJECTID": 11, "id": 11, "name": "Stokeworth", "size": 0, "confirmed": 0, "type": "House", "Symbol": 1, "S2": 1}}, {"type": "Feature", "id": 12, "geometry": {"type": "Point", "coordinates": [-58.1063403246437, 4.71581806738181]}, "properties": {"OBJECTID": 12, "id": 12, "name": "Ivy Inn", "size": 0, "confirmed": 0, "type": "Inn", "Symbol": 5, "S2": 3}}, {"type": "Feature", "id": 13, "geometry": {"type": "Point", "coordinates": [-58.3306302995805, 5.41383150657426]}, "properties": {"OBJECTID": 13, "id": 13, "name": "Village", "size": 0, "confirmed": 0, "type": "Village", "Symbol": 5, "S2": 3}}, {"type": "Feature", "id": 14, "geometry": {"type": "Point", "coordinates": [-60.7843814338474, 5.38045320784825]}, "properties": {"OBJECTID": 14, "id": 14, "name": "Holdfast", "size": 0, "confirmed": 0, "type": "Stop", "Symbol": 5, "S2": 3}}, {"type": "Feature", "id": 15, "geometry": {"type": "Point", "coordinates": [-60.8041517281985, 7.64888495610637]}, "properties": {"OBJECTID": 15, "id": 15, "name": "Harrenhal", "size": 0, "confirmed": 1, "type": "House", "Symbol": 1, "S2": 1}}, {"type": "Feature", "id": 16, "geometry": {"type": "Point", "coordinates": [-59.9030749168944, 6.55163680315287]}, "properties": {"OBJECTID": 16, "id": 16, "name": "Rushing Falls", "size": 0, "confirmed": 0, "type": "Falls", "Symbol": 5, "S2": 5}}, {"type": "Feature", "id": 17, "geometry": {"type": "Point", "coordinates": [-63.2509977581163, 5.55994160581514]}, "properties": {"OBJECTID": 17, "id": 17, "name": "Tumblers Falls", "size": 0, "confirmed": 0, "type": "Falls", "Symbol": 5, "S2": 5}}, {"type": "Feature", "id": 18, "geometry": {"type": "Point", "coordinates": [-63.5628551314533, 5.01678737992949]}, "properties": {"OBJECTID": 18, "id": 18, "name": "Stoney Sept", "size": 0, "confirmed": 1, "type": "Village", "Symbol": 3, "S2": 3}}, {"type": "Feature", "id": 19, "geometry": {"type": "Point", "coordinates": [-65.0642498477692, 5.53569483985093]}, "properties": {"OBJECTID": 19, "id": 19, "name": "Hollow Hill", "size": 0, "confirmed": 0, "type": "Hill", "Symbol": 5, "S2": 4}}, {"type": "Feature", "id": 21, "geometry": {"type": "Point", "coordinates": [-64.0391906197145, 7.4142345427162]}, "properties": {"OBJECTID": 21, "id": 21, "name": "Acorn Hall", "size": 0, "confirmed": 1, "type": "House", "Symbol": 1, "S2": 1}}, {"type": "Feature", "id": 22, "geometry": {"type": "Point", "coordinates": [-65.7585601536216, 6.65020710136467]}, "properties": {"OBJECTID": 22, "id": 22, "name": "Pinkmaiden", "size": 0, "confirmed": 1, "type": "House", "Symbol": 1, "S2": 1}}, {"type": "Feature", "id": 23, "geometry": {"type": "Point", "coordinates": [-65.8988399490888, 6.54590739282383]}, "properties": {"OBJECTID": 23, "id": 23, "name": "Mummer's Ford", "size": 0, "confirmed": 0, "type": "Other", "Symbol": 5, "S2": 3}}, {"type": "Feature", "id": 24, "geometry": {"type": "Point", "coordinates": [-65.7525919094689, 6.26276312554386]}, "properties": {"OBJECTID": 24, "id": 24, "name": "Sherrer", "size": 0, "confirmed": 0, "type": "Other", "Symbol": 5, "S2": 3}}, {"type": "Feature", "id": 25, "geometry": {"type": "Point", "coordinates": [-64.9130311673743, 10.9778265100461]}, "properties": {"OBJECTID": 25, "id": 25, "name": "Wendish Town", "size": 0, "confirmed": 0, "type": "Town", "Symbol": 5, "S2": 3}}, {"type": "Feature", "id": 26, "geometry": {"type": "Point", "coordinates": [-63.2918523575004, 8.42875909379844]}, "properties": {"OBJECTID": 26, "id": 26, "name": "Lord Goodbrook's Village", "size": 0, "confirmed": 0, "type": "Village", "Symbol": 5, "S2": 3}}, {"type": "Feature", "id": 27, "geometry": {"type": "Point", "coordinates": [-64.0722163807362, 8.089885958156]}, "properties": {"OBJECTID": 27, "id": 27, "name": "Sallydance", "size": 0, "confirmed": 0, "type": "Other", "Symbol": 5, "S2": 3}}, {"type": "Feature", "id": 28, "geometry": {"type": "Point", "coordinates": [-64.5294362326894, 8.35930452611943]}, "properties": {"OBJECTID": 28, "id": 28, "name": "Lady of the Leaves", "size": 0, "confirmed": 0, "type": "Other", "Symbol": 5, "S2": 3}}, {"type": "Feature", "id": 29, "geometry": {"type": "Point", "coordinates": [-63.9500761867495, 8.85299321427116]}, "properties": {"OBJECTID": 29, "id": 29, "name": "Lord Lychester's Keep", "size": 0, "confirmed": 0, "type": "Other", "Symbol": 5, "S2": 3}}, {"type": "Feature", "id": 30, "geometry": {"type": "Point", "coordinates": [-61.2087414948157, 8.44553940561455]}, "properties": {"OBJECTID": 30, "id": 30, "name": "Unnamed Village", "size": 0, "confirmed": 0, "type": "Village", "Symbol": 5, "S2": 3}}, {"type": "Feature", "id": 31, "geometry": {"type": "Point", "coordinates": [-64.5236492901207, 9.15432691394827]}, "properties": {"OBJECTID": 31, "id": 31, "name": "Inn (They Ley with Lions)", "size": 0, "confirmed": 0, "type": "Inn", "Symbol": 5, "S2": 3}}, {"type": "Feature", "id": 32, "geometry": {"type": "Point", "coordinates": [-65.3773909971905, 8.83085028163324]}, "properties": {"OBJECTID": 32, "id": 32, "name": "Riverrun", "size": 0, "confirmed": 1, "type": "Great House", "Symbol": 1, "S2": 1}}, {"type": "Feature", "id": 33, "geometry": {"type": "Point", "coordinates": [-65.283758288078, 9.92766048244631]}, "properties": {"OBJECTID": 33, "id": 33, "name": "Raventree Hall", "size": 0, "confirmed": 0, "type": "House", "Symbol": 1, "S2": 1}}, {"type": "Feature", "id": 34, "geometry": {"type": "Point", "coordinates": [-59.6173144299094, 8.66678806038962]}, "properties": {"OBJECTID": 34, "id": 34, "name": "Darry", "size": 0, "confirmed": 0, "type": "House", "Symbol": 1, "S2": 1}}, {"type": "Feature", "id": 35, "geometry": {"type": "Point", "coordinates": [-63.8581741071846, 9.53199436804733]}, "properties": {"OBJECTID": 35, "id": 35, "name": "Inn of the Kneeling Man", "size": 0, "confirmed": 1, "type": "Inn", "Symbol": 5, "S2": 3}}, {"type": "Feature", "id": 36, "geometry": {"type": "Point", "coordinates": [-61.9332368480129, 9.88835996697203]}, "properties": {"OBJECTID": 36, "id": 36, "name": "BWB hideout", "size": 0, "confirmed": 0, "type": "Stop", "Symbol": 5, "S2": 3}}, {"type": "Feature", "id": 37, "geometry": {"type": "Point", "coordinates": [-61.0234308025641, 9.03145559108604]}, "properties": {"OBJECTID": 37, "id": 37, "name": "Lord Harroway's Town", "size": 0, "confirmed": 0, "type": "Village", "Symbol": 5, "S2": 3}}, {"type": "Feature", "id": 38, "geometry": {"type": "Point", "coordinates": [-60.1840520151286, 9.31168021751496]}, "properties": {"OBJECTID": 38, "id": 38, "name": "Crossroads Inn", "size": 0, "confirmed": 0, "type": "Inn", "Symbol": 5, "S2": 3}}, {"type": "Feature", "id": 39, "geometry": {"type": "Point", "coordinates": [-57.7986111717713, 8.15278178494426]}, "properties": {"OBJECTID": 39, "id": 39, "name": "Saltpans", "size": 0, "confirmed": 1, "type": "Other", "Symbol": 5, "S2": 3}}, {"type": "Feature", "id": 40, "geometry": {"type": "Point", "coordinates": [-57.7709029656161, 7.94793682038728]}, "properties": {"OBJECTID": 40, "id": 40, "name": "Quiet Isle", "size": 0, "confirmed": 1, "type": "Other", "Symbol": 5, "S2": 3}}, {"type": "Feature", "id": 41, "geometry": {"type": "Point", "coordinates": [-55.5083297638779, 7.96860661323443]}, "properties": {"OBJECTID": 41, "id": 41, "name": "Wickenden", "size": 0, "confirmed": 1, "type": "House", "Symbol": 1, "S2": 1}}, {"type": "Feature", "id": 42, "geometry": {"type": "Point", "coordinates": [-56.9145729013956, 6.90979644296059]}, "properties": {"OBJECTID": 42, "id": 42, "name": "Maidenpool", "size": 0, "confirmed": 1, "type": "Village", "Symbol": 3, "S2": 3}}, {"type": "Feature", "id": 43, "geometry": {"type": "Point", "coordinates": [-55.0632704858759, 6.06424089095279]}, "properties": {"OBJECTID": 43, "id": 43, "name": "Rook's Rest", "size": 0, "confirmed": 1, "type": "House", "Symbol": 1, "S2": 1}}, {"type": "Feature", "id": 44, "geometry": {"type": "Point", "coordinates": [-52.4372695141067, 7.81473612419936]}, "properties": {"OBJECTID": 44, "id": 44, "name": "Dyre Den", "size": 0, "confirmed": 1, "type": "House", "Symbol": 1, "S2": 1}}, {"type": "Feature", "id": 45, "geometry": {"type": "Point", "coordinates": [-51.7433858118946, 7.24958894518232]}, "properties": {"OBJECTID": 45, "id": 45, "name": "The Whispers", "size": 0, "confirmed": 1, "type": "Ruin", "Symbol": 4, "S2": 3}}, {"type": "Feature", "id": 46, "geometry": {"type": "Point", "coordinates": [-52.5807851535167, 5.59149159128859]}, "properties": {"OBJECTID": 46, "id": 46, "name": "Dragonstone", "size": 0, "confirmed": 1, "type": "Great House", "Symbol": 1, "S2": 1}}, {"type": "Feature", "id": 47, "geometry": {"type": "Point", "coordinates": [-52.807999260586, 3.9802707846321]}, "properties": {"OBJECTID": 47, "id": 47, "name": "Sharp Point", "size": 0, "confirmed": 1, "type": "House", "Symbol": 1, "S2": 1}}, {"type": "Feature", "id": 48, "geometry": {"type": "Point", "coordinates": [-52.3455837129296, 3.32808549818231]}, "properties": {"OBJECTID": 48, "id": 48, "name": "Stonedance", "size": 0, "confirmed": 1, "type": "House", "Symbol": 1, "S2": 1}}, {"type": "Feature", "id": 49, "geometry": {"type": "Point", "coordinates": [-54.7935700885237, -0.893099073203021]}, "properties": {"OBJECTID": 49, "id": 49, "name": "Haystack Hall", "size": 0, "confirmed": 1, "type": "House", "Symbol": 1, "S2": 1}}, {"type": "Feature", "id": 50, "geometry": {"type": "Point", "coordinates": [-55.1563240160905, -1.47340597492702]}, "properties": {"OBJECTID": 50, "id": 50, "name": "Bronzegate", "size": 0, "confirmed": 1, "type": "House", "Symbol": 1, "S2": 1}}, {"type": "Feature", "id": 51, "geometry": {"type": "Point", "coordinates": [-58.0843007798837, -0.789670660947412]}, "properties": {"OBJECTID": 51, "id": 51, "name": "Felwood", "size": 0, "confirmed": 1, "type": "House", "Symbol": 1, "S2": 1}}, {"type": "Feature", "id": 52, "geometry": {"type": "Point", "coordinates": [-54.5849545429933, -2.61204812188404]}, "properties": {"OBJECTID": 52, "id": 52, "name": "Storm's End", "size": 0, "confirmed": 1, "type": "Great House", "Symbol": 1, "S2": 1}}, {"type": "Feature", "id": 53, "geometry": {"type": "Point", "coordinates": [-55.528533476489, -3.59832450689387]}, "properties": {"OBJECTID": 53, "id": 53, "name": "Griffin's Roost", "size": 0, "confirmed": 1, "type": "House", "Symbol": 1, "S2": 1}}, {"type": "Feature", "id": 54, "geometry": {"type": "Point", "coordinates": [-51.175546435793, -4.21450161312438]}, "properties": {"OBJECTID": 54, "id": 54, "name": "Rain House", "size": 0, "confirmed": 1, "type": "House", "Symbol": 1, "S2": 1}}, {"type": "Feature", "id": 55, "geometry": {"type": "Point", "coordinates": [-51.8326919749857, -6.19584285264272]}, "properties": {"OBJECTID": 55, "id": 55, "name": "Greenstone", "size": 0, "confirmed": 1, "type": "House", "Symbol": 1, "S2": 1}}, {"type": "Feature", "id": 56, "geometry": {"type": "Point", "coordinates": [-53.6055474236914, -6.97934782431367]}, "properties": {"OBJECTID": 56, "id": 56, "name": "Weeping Tower", "size": 0, "confirmed": 1, "type": "House", "Symbol": 1, "S2": 1}}, {"type": "Feature", "id": 57, "geometry": {"type": "Point", "coordinates": [-54.2961453266477, -5.9304231605634]}, "properties": {"OBJECTID": 57, "id": 57, "name": "Mistwood", "size": 0, "confirmed": 1, "type": "House", "Symbol": 1, "S2": 1}}, {"type": "Feature", "id": 58, "geometry": {"type": "Point", "coordinates": [-57.1799192624821, -5.38952954144118]}, "properties": {"OBJECTID": 58, "id": 58, "name": "Stonehelm", "size": 0, "confirmed": 1, "type": "House", "Symbol": 1, "S2": 1}}, {"type": "Feature", "id": 59, "geometry": {"type": "Point", "coordinates": [-56.053789273864, -4.59065985624557]}, "properties": {"OBJECTID": 59, "id": 59, "name": "Crow's Nest", "size": 0, "confirmed": 1, "type": "House", "Symbol": 1, "S2": 1}}, {"type": "Feature", "id": 60, "geometry": {"type": "Point", "coordinates": [-56.3308821196917, -2.88497157192415]}, "properties": {"OBJECTID": 60, "id": 60, "name": "Grandview", "size": 0, "confirmed": 0, "type": "Village", "Symbol": 3, "S2": 3}}, {"type": "Feature", "id": 61, "geometry": {"type": "Point", "coordinates": [-58.7393564469584, -3.08390926243563]}, "properties": {"OBJECTID": 61, "id": 61, "name": "Summerhall", "size": 0, "confirmed": 1, "type": "Ruin", "Symbol": 4, "S2": 3}}, {"type": "Feature", "id": 62, "geometry": {"type": "Point", "coordinates": [-61.3798591217852, -5.42004205625159]}, "properties": {"OBJECTID": 62, "id": 62, "name": "Blackhaven", "size": 0, "confirmed": 1, "type": "House", "Symbol": 1, "S2": 1}}, {"type": "Feature", "id": 63, "geometry": {"type": "Point", "coordinates": [-57.4957040684446, -1.38791409709031]}, "properties": {"OBJECTID": 63, "id": 63, "name": "Fawnton", "size": 0, "confirmed": 0, "type": "Village", "Symbol": 3, "S2": 3}}, {"type": "Feature", "id": 64, "geometry": {"type": "Point", "coordinates": [-61.4879026433132, -1.36936878484038]}, "properties": {"OBJECTID": 64, "id": 64, "name": "Grassy Vale", "size": 0, "confirmed": 1, "type": "House", "Symbol": 1, "S2": 1}}, {"type": "Feature", "id": 65, "geometry": {"type": "Point", "coordinates": [-60.2198998039709, -6.86536326014654]}, "properties": {"OBJECTID": 65, "id": 65, "name": "Wyl", "size": 0, "confirmed": 1, "type": "House", "Symbol": 1, "S2": 1}}, {"type": "Feature", "id": 66, "geometry": {"type": "Point", "coordinates": [-58.7688831055568, -8.65111117913505]}, "properties": {"OBJECTID": 66, "id": 66, "name": "Ghaston Grey", "size": 0, "confirmed": 1, "type": "House", "Symbol": 1, "S2": 1}}, {"type": "Feature", "id": 67, "geometry": {"type": "Point", "coordinates": [-60.8672819666672, -9.40970117820261]}, "properties": {"OBJECTID": 67, "id": 67, "name": "Yronwood", "size": 0, "confirmed": 1, "type": "House", "Symbol": 1, "S2": 1}}, {"type": "Feature", "id": 68, "geometry": {"type": "Point", "coordinates": [-62.7307397728588, -6.7553483482743]}, "properties": {"OBJECTID": 68, "id": 68, "name": "Vulture's Roost", "size": 0, "confirmed": 1, "type": "House", "Symbol": 1, "S2": 1}}, {"type": "Feature", "id": 69, "geometry": {"type": "Point", "coordinates": [-64.7184531070036, -6.76675868003238]}, "properties": {"OBJECTID": 69, "id": 69, "name": "Nightsong", "size": 0, "confirmed": 1, "type": "House", "Symbol": 1, "S2": 1}}, {"type": "Feature", "id": 70, "geometry": {"type": "Point", "coordinates": [-64.2929856838014, -3.7303742596919]}, "properties": {"OBJECTID": 70, "id": 70, "name": "Ashford", "size": 0, "confirmed": 1, "type": "House", "Symbol": 1, "S2": 1}}, {"type": "Feature", "id": 71, "geometry": {"type": "Point", "coordinates": [-66.3072623221702, -3.19824759766417]}, "properties": {"OBJECTID": 71, "id": 71, "name": "Cider Hall", "size": 0, "confirmed": 1, "type": "House", "Symbol": 1, "S2": 1}}, {"type": "Feature", "id": 72, "geometry": {"type": "Point", "coordinates": [-68.6450461194684, -4.37579487727426]}, "properties": {"OBJECTID": 72, "id": 72, "name": "Highgarden", "size": 0, "confirmed": 1, "type": "Great House", "Symbol": 1, "S2": 1}}, {"type": "Feature", "id": 73, "geometry": {"type": "Point", "coordinates": [-67.8074685332292, -6.15506975114604]}, "properties": {"OBJECTID": 73, "id": 73, "name": "Horn Hill", "size": 0, "confirmed": 1, "type": "House", "Symbol": 1, "S2": 1}}, {"type": "Feature", "id": 74, "geometry": {"type": "Point", "coordinates": [-71.980211647574, -6.18089351082969]}, "properties": {"OBJECTID": 74, "id": 74, "name": "Brightwater Keep", "size": 0, "confirmed": 1, "type": "House", "Symbol": 1, "S2": 1}}, {"type": "Feature", "id": 75, "geometry": {"type": "Point", "coordinates": [-73.9180082199694, -6.28297635487567]}, "properties": {"OBJECTID": 75, "id": 75, "name": "Bandallon", "size": 0, "confirmed": 1, "type": "House", "Symbol": 1, "S2": 1}}, {"type": "Feature", "id": 76, "geometry": {"type": "Point", "coordinates": [-71.7609610713625, -7.10794246373354]}, "properties": {"OBJECTID": 76, "id": 76, "name": "Honeyholt", "size": 0, "confirmed": 1, "type": "House", "Symbol": 1, "S2": 1}}, {"type": "Feature", "id": 77, "geometry": {"type": "Point", "coordinates": [-72.4061593379749, -8.47254200391173]}, "properties": {"OBJECTID": 77, "id": 77, "name": "Oldtown", "size": 0, "confirmed": 1, "type": "City", "Symbol": 2, "S2": 2}}, {"type": "Feature", "id": 78, "geometry": {"type": "Point", "coordinates": [-74.0207979041339, -9.22603384076444]}, "properties": {"OBJECTID": 78, "id": 78, "name": "Blackcrown", "size": 0, "confirmed": 1, "type": "House", "Symbol": 1, "S2": 1}}, {"type": "Feature", "id": 79, "geometry": {"type": "Point", "coordinates": [-73.3912377426511, -10.2630282487285]}, "properties": {"OBJECTID": 79, "id": 79, "name": "Three Towers", "size": 0, "confirmed": 1, "type": "House", "Symbol": 1, "S2": 1}}, {"type": "Feature", "id": 80, "geometry": {"type": "Point", "coordinates": [-70.3038414452835, -8.42703310505587]}, "properties": {"OBJECTID": 80, "id": 80, "name": "Uplands", "size": 0, "confirmed": 1, "type": "House", "Symbol": 1, "S2": 1}}, {"type": "Feature", "id": 81, "geometry": {"type": "Point", "coordinates": [-70.6413308699321, -11.923635561695]}, "properties": {"OBJECTID": 81, "id": 81, "name": "Sun House", "size": 0, "confirmed": 1, "type": "House", "Symbol": 1, "S2": 1}}, {"type": "Feature", "id": 82, "geometry": {"type": "Point", "coordinates": [-67.2232382763664, -8.78611799390445]}, "properties": {"OBJECTID": 82, "id": 82, "name": "Blackmont", "size": 0, "confirmed": 1, "type": "House", "Symbol": 1, "S2": 1}}, {"type": "Feature", "id": 83, "geometry": {"type": "Point", "coordinates": [-63.2896130578214, -11.8326335217177]}, "properties": {"OBJECTID": 83, "id": 83, "name": "Hellholt", "size": 0, "confirmed": 1, "type": "House", "Symbol": 1, "S2": 1}}, {"type": "Feature", "id": 84, "geometry": {"type": "Point", "coordinates": [-67.6557928340352, -10.1433436039783]}, "properties": {"OBJECTID": 84, "id": 84, "name": "Starfall", "size": 0, "confirmed": 1, "type": "House", "Symbol": 1, "S2": 1}}, {"type": "Feature", "id": 85, "geometry": {"type": "Point", "coordinates": [-65.6544475187414, -12.1536457386159]}, "properties": {"OBJECTID": 85, "id": 85, "name": "Sandstone", "size": 0, "confirmed": 1, "type": "House", "Symbol": 1, "S2": 1}}, {"type": "Feature", "id": 86, "geometry": {"type": "Point", "coordinates": [-63.9843010989625, -9.30619851483828]}, "properties": {"OBJECTID": 86, "id": 86, "name": "Skyreach", "size": 0, "confirmed": 1, "type": "House", "Symbol": 1, "S2": 1}}, {"type": "Feature", "id": 87, "geometry": {"type": "Point", "coordinates": [-64.2402905047434, -7.85408260234534]}, "properties": {"OBJECTID": 87, "id": 87, "name": "Kingsgrave", "size": 0, "confirmed": 1, "type": "House", "Symbol": 1, "S2": 1}}, {"type": "Feature", "id": 88, "geometry": {"type": "Point", "coordinates": [-64.2751504099796, -7.2972159486624]}, "properties": {"OBJECTID": 88, "id": 88, "name": "Tower of Joy", "size": 0, "confirmed": 1, "type": "Tower", "Symbol": 5, "S2": 3}}, {"type": "Feature", "id": 90, "geometry": {"type": "Point", "coordinates": [-59.0785103995228, -12.1948037152066]}, "properties": {"OBJECTID": 90, "id": 90, "name": "Vaith", "size": 0, "confirmed": 1, "type": "House", "Symbol": 1, "S2": 1}}, {"type": "Feature", "id": 91, "geometry": {"type": "Point", "coordinates": [-56.8382589473929, -13.1206035338375]}, "properties": {"OBJECTID": 91, "id": 91, "name": "Salt Shore", "size": 0, "confirmed": 1, "type": "House", "Symbol": 1, "S2": 1}}, {"type": "Feature", "id": 92, "geometry": {"type": "Point", "coordinates": [-56.2089336576276, -11.6139003970703]}, "properties": {"OBJECTID": 92, "id": 92, "name": "Godsgrace", "size": 0, "confirmed": 1, "type": "House", "Symbol": 1, "S2": 1}}, {"type": "Feature", "id": 93, "geometry": {"type": "Point", "coordinates": [-57.0906438720794, -10.0003780806538]}, "properties": {"OBJECTID": 93, "id": 93, "name": "The Tor", "size": 0, "confirmed": 1, "type": "House", "Symbol": 1, "S2": 1}}, {"type": "Feature", "id": 94, "geometry": {"type": "Point", "coordinates": [-52.5567685147327, -9.97709119350632]}, "properties": {"OBJECTID": 94, "id": 94, "name": "Ghost Hill", "size": 0, "confirmed": 1, "type": "House", "Symbol": 1, "S2": 1}}, {"type": "Feature", "id": 95, "geometry": {"type": "Point", "coordinates": [-53.4062400711164, -12.7442088184174]}, "properties": {"OBJECTID": 95, "id": 95, "name": "Lemonwood", "size": 0, "confirmed": 1, "type": "House", "Symbol": 1, "S2": 1}}, {"type": "Feature", "id": 96, "geometry": {"type": "Point", "coordinates": [-51.9654433880104, -12.0443665425241]}, "properties": {"OBJECTID": 96, "id": 96, "name": "Sunspear", "size": 0, "confirmed": 1, "type": "Great House", "Symbol": 1, "S2": 1}}, {"type": "Feature", "id": 97, "geometry": {"type": "Point", "coordinates": [-53.1735019242261, -12.3888945176227]}, "properties": {"OBJECTID": 97, "id": 97, "name": "Planky Town", "size": 0, "confirmed": 1, "type": "Village", "Symbol": 3, "S2": 3}}, {"type": "Feature", "id": 98, "geometry": {"type": "Point", "coordinates": [-51.9226596125362, -11.7788152091362]}, "properties": {"OBJECTID": 98, "id": 98, "name": "Water Gardens", "size": 0, "confirmed": 0, "type": "Other", "Symbol": 5, "S2": 3}}, {"type": "Feature", "id": 99, "geometry": {"type": "Point", "coordinates": [-54.8237797928264, -11.4906311437468]}, "properties": {"OBJECTID": 99, "id": 99, "name": "Shandystone", "size": 0, "confirmed": 0, "type": "Other", "Symbol": 5, "S2": 3}}, {"type": "Feature", "id": 100, "geometry": {"type": "Point", "coordinates": [-45.9223651569999, -28.9240582537641]}, "properties": {"OBJECTID": 100, "id": 100, "name": "Tall Trees Town", "size": 0, "confirmed": 0, "type": "Village", "Symbol": 3, "S2": 3}}, {"type": "Feature", "id": 101, "geometry": {"type": "Point", "coordinates": [-65.0093559037128, -2.09583651484264]}, "properties": {"OBJECTID": 101, "id": 101, "name": "Longtable", "size": 0, "confirmed": 1, "type": "House", "Symbol": 1, "S2": 1}}, {"type": "Feature", "id": 102, "geometry": {"type": "Point", "coordinates": [-64.2481193008849, -0.878041634924435]}, "properties": {"OBJECTID": 102, "id": 102, "name": "Bitterbridge", "size": 0, "confirmed": 1, "type": "House", "Symbol": 1, "S2": 1}}, {"type": "Feature", "id": 103, "geometry": {"type": "Point", "coordinates": [-68.6580860264034, -1.53198803777452]}, "properties": {"OBJECTID": 103, "id": 103, "name": "Goldengrove", "size": 0, "confirmed": 1, "type": "House", "Symbol": 1, "S2": 1}}, {"type": "Feature", "id": 104, "geometry": {"type": "Point", "coordinates": [-70.1520301768383, -1.39755030905904]}, "properties": {"OBJECTID": 104, "id": 104, "name": "Red Lake", "size": 0, "confirmed": 1, "type": "House", "Symbol": 1, "S2": 1}}, {"type": "Feature", "id": 105, "geometry": {"type": "Point", "coordinates": [-72.5684248134211, -1.58387724645434]}, "properties": {"OBJECTID": 105, "id": 105, "name": "Old Oak", "size": 0, "confirmed": 1, "type": "House", "Symbol": 1, "S2": 1}}, {"type": "Feature", "id": 106, "geometry": {"type": "Point", "coordinates": [-73.6052219823404, 1.15469986291292]}, "properties": {"OBJECTID": 106, "id": 106, "name": "Crakehall", "size": 0, "confirmed": 1, "type": "House", "Symbol": 1, "S2": 1}}, {"type": "Feature", "id": 107, "geometry": {"type": "Point", "coordinates": [-71.1643617972665, 1.9486051732375]}, "properties": {"OBJECTID": 107, "id": 107, "name": "Cornfield", "size": 0, "confirmed": 1, "type": "House", "Symbol": 1, "S2": 1}}, {"type": "Feature", "id": 108, "geometry": {"type": "Point", "coordinates": [-68.2367295634359, 2.33386306142608]}, "properties": {"OBJECTID": 108, "id": 108, "name": "Silverhill", "size": 0, "confirmed": 1, "type": "House", "Symbol": 1, "S2": 1}}, {"type": "Feature", "id": 109, "geometry": {"type": "Point", "coordinates": [-71.8754484276123, 3.77202829980651]}, "properties": {"OBJECTID": 109, "id": 109, "name": "Clegane Hall", "size": 0, "confirmed": 0, "type": "House", "Symbol": 1, "S2": 1}}, {"type": "Feature", "id": 110, "geometry": {"type": "Point", "coordinates": [-69.0688882100473, 2.05004064319497]}, "properties": {"OBJECTID": 110, "id": 110, "name": "Tarbeck Hall", "size": 0, "confirmed": 0, "type": "Ruin", "Symbol": 4, "S2": 3}}, {"type": "Feature", "id": 111, "geometry": {"type": "Point", "coordinates": [-72.2691599500751, 4.14271856588959]}, "properties": {"OBJECTID": 111, "id": 111, "name": "Lannisport", "size": 0, "confirmed": 1, "type": "City", "Symbol": 2, "S2": 2}}, {"type": "Feature", "id": 112, "geometry": {"type": "Point", "coordinates": [-74.5130921224193, 4.66320471024317]}, "properties": {"OBJECTID": 112, "id": 112, "name": "Feastfires", "size": 0, "confirmed": 1, "type": "House", "Symbol": 1, "S2": 1}}, {"type": "Feature", "id": 113, "geometry": {"type": "Point", "coordinates": [-74.0586924028416, 5.45569918904669]}, "properties": {"OBJECTID": 113, "id": 113, "name": "Kayce", "size": 0, "confirmed": 1, "type": "Village", "Symbol": 3, "S2": 3}}, {"type": "Feature", "id": 114, "geometry": {"type": "Point", "coordinates": [-71.1222966578499, 5.7785203996523]}, "properties": {"OBJECTID": 114, "id": 114, "name": "Oxcross", "size": 0, "confirmed": 0, "type": "Other", "Symbol": 5, "S2": 3}}, {"type": "Feature", "id": 115, "geometry": {"type": "Point", "coordinates": [-67.1345732184357, 4.82427759697296]}, "properties": {"OBJECTID": 115, "id": 115, "name": "Sarsfield", "size": 0, "confirmed": 1, "type": "House", "Symbol": 1, "S2": 1}}, {"type": "Feature", "id": 116, "geometry": {"type": "Point", "coordinates": [-67.5417307600037, 4.08827438490907]}, "properties": {"OBJECTID": 116, "id": 116, "name": "Deep Den", "size": 0, "confirmed": 1, "type": "House", "Symbol": 1, "S2": 1}}, {"type": "Feature", "id": 117, "geometry": {"type": "Point", "coordinates": [-66.9238248828763, 6.09073160839594]}, "properties": {"OBJECTID": 117, "id": 117, "name": "Hornvale", "size": 0, "confirmed": 1, "type": "House", "Symbol": 1, "S2": 1}}, {"type": "Feature", "id": 118, "geometry": {"type": "Point", "coordinates": [-68.1365195784592, 6.90850377640913]}, "properties": {"OBJECTID": 118, "id": 118, "name": "Golden Tooth", "size": 0, "confirmed": 1, "type": "House", "Symbol": 1, "S2": 1}}, {"type": "Feature", "id": 119, "geometry": {"type": "Point", "coordinates": [-67.1585947835807, 7.392516788565]}, "properties": {"OBJECTID": 119, "id": 119, "name": "Wayfarer's Rest", "size": 0, "confirmed": 0, "type": "House", "Symbol": 1, "S2": 1}}, {"type": "Feature", "id": 120, "geometry": {"type": "Point", "coordinates": [-71.2702726778857, 6.99640889205683]}, "properties": {"OBJECTID": 120, "id": 120, "name": "Castamere", "size": 0, "confirmed": 0, "type": "Ruin", "Symbol": 4, "S2": 3}}, {"type": "Feature", "id": 121, "geometry": {"type": "Point", "coordinates": [-69.7718060615609, 8.2254041769709]}, "properties": {"OBJECTID": 121, "id": 121, "name": "Pendric Hills", "size": 0, "confirmed": 0, "type": "Hill", "Symbol": 5, "S2": 4}}, {"type": "Feature", "id": 122, "geometry": {"type": "Point", "coordinates": [-71.2661444583195, 8.39292843266134]}, "properties": {"OBJECTID": 122, "id": 122, "name": "The Crag", "size": 0, "confirmed": 1, "type": "House", "Symbol": 1, "S2": 1}}, {"type": "Feature", "id": 123, "geometry": {"type": "Point", "coordinates": [-70.9124770239875, 10.143477321337]}, "properties": {"OBJECTID": 123, "id": 123, "name": "Banefort", "size": 0, "confirmed": 1, "type": "House", "Symbol": 1, "S2": 1}}, {"type": "Feature", "id": 124, "geometry": {"type": "Point", "coordinates": [-69.9147938401303, 7.29136332961696]}, "properties": {"OBJECTID": 124, "id": 124, "name": "Ashemark", "size": 0, "confirmed": 1, "type": "House", "Symbol": 1, "S2": 1}}, {"type": "Feature", "id": 125, "geometry": {"type": "Point", "coordinates": [-69.3303255728362, 9.20380650855138]}, "properties": {"OBJECTID": 125, "id": 125, "name": "Nunn's Deep", "size": 0, "confirmed": 0, "type": "Other", "Symbol": 5, "S2": 3}}, {"type": "Feature", "id": 126, "geometry": {"type": "Point", "coordinates": [-65.5202749736322, 7.90313706512334]}, "properties": {"OBJECTID": 126, "id": 126, "name": "Stone Mill", "size": 0, "confirmed": 0, "type": "Other", "Symbol": 5, "S2": 3}}, {"type": "Feature", "id": 127, "geometry": {"type": "Point", "coordinates": [-63.6410442323733, 8.97886793807513]}, "properties": {"OBJECTID": 127, "id": 127, "name": "Stone Hedge", "size": 0, "confirmed": 1, "type": "House", "Symbol": 1, "S2": 1}}, {"type": "Feature", "id": 128, "geometry": {"type": "Point", "coordinates": [-63.210899498879, 11.037093423703]}, "properties": {"OBJECTID": 128, "id": 128, "name": "Fairmarket", "size": 0, "confirmed": 1, "type": "Village", "Symbol": 3, "S2": 3}}, {"type": "Feature", "id": 129, "geometry": {"type": "Point", "coordinates": [-64.5360713438881, 11.6160500957388]}, "properties": {"OBJECTID": 129, "id": 129, "name": "Oldstones", "size": 0, "confirmed": 1, "type": "Ruin", "Symbol": 4, "S2": 3}}, {"type": "Feature", "id": 130, "geometry": {"type": "Point", "coordinates": [-58.4194032101426, 10.2760619146054]}, "properties": {"OBJECTID": 130, "id": 130, "name": "Palisade Village", "size": 0, "confirmed": 0, "type": "Village", "Symbol": 5, "S2": 3}}, {"type": "Feature", "id": 131, "geometry": {"type": "Point", "coordinates": [-57.2182696993155, 11.1713847462244]}, "properties": {"OBJECTID": 131, "id": 131, "name": "The Bloody Gate", "size": 0, "confirmed": 1, "type": "House", "Symbol": 1, "S2": 1}}, {"type": "Feature", "id": 132, "geometry": {"type": "Point", "coordinates": [-56.0436116976648, 11.7968629591033]}, "properties": {"OBJECTID": 132, "id": 132, "name": "The Eyrie", "size": 0, "confirmed": 1, "type": "Great House", "Symbol": 1, "S2": 1}}, {"type": "Feature", "id": 133, "geometry": {"type": "Point", "coordinates": [-58.6114774888482, 13.2791539367209]}, "properties": {"OBJECTID": 133, "id": 133, "name": "Strongsong", "size": 0, "confirmed": 1, "type": "House", "Symbol": 1, "S2": 1}}, {"type": "Feature", "id": 134, "geometry": {"type": "Point", "coordinates": [-55.8205178735463, 13.2186562278654]}, "properties": {"OBJECTID": 134, "id": 134, "name": "Heart's Home", "size": 0, "confirmed": 1, "type": "House", "Symbol": 1, "S2": 1}}, {"type": "Feature", "id": 135, "geometry": {"type": "Point", "coordinates": [-54.9414825985672, 9.828276559244]}, "properties": {"OBJECTID": 135, "id": 135, "name": "Redfort", "size": 0, "confirmed": 1, "type": "House", "Symbol": 1, "S2": 1}}, {"type": "Feature", "id": 136, "geometry": {"type": "Point", "coordinates": [-53.9596576385252, 11.5225626376357]}, "properties": {"OBJECTID": 136, "id": 136, "name": "Ironoaks", "size": 0, "confirmed": 1, "type": "House", "Symbol": 1, "S2": 1}}, {"type": "Feature", "id": 137, "geometry": {"type": "Point", "coordinates": [-52.6183995161963, 11.8848024538496]}, "properties": {"OBJECTID": 137, "id": 137, "name": "Old Anchor", "size": 0, "confirmed": 1, "type": "House", "Symbol": 1, "S2": 1}}, {"type": "Feature", "id": 138, "geometry": {"type": "Point", "coordinates": [-51.2491078439673, 11.448471405447]}, "properties": {"OBJECTID": 138, "id": 138, "name": "Runestone", "size": 0, "confirmed": 1, "type": "House", "Symbol": 1, "S2": 1}}, {"type": "Feature", "id": 139, "geometry": {"type": "Point", "coordinates": [-51.6943804242385, 10.7569607117685]}, "properties": {"OBJECTID": 139, "id": 139, "name": "Gulltown", "size": 0, "confirmed": 1, "type": "City", "Symbol": 2, "S2": 2}}, {"type": "Feature", "id": 140, "geometry": {"type": "Point", "coordinates": [-52.2911281251722, 14.310597785733]}, "properties": {"OBJECTID": 140, "id": 140, "name": "Longbow Hall", "size": 0, "confirmed": 1, "type": "House", "Symbol": 1, "S2": 1}}, {"type": "Feature", "id": 141, "geometry": {"type": "Point", "coordinates": [-53.9733544627663, 15.1713519900951]}, "properties": {"OBJECTID": 141, "id": 141, "name": "Snakewood", "size": 0, "confirmed": 1, "type": "House", "Symbol": 1, "S2": 1}}, {"type": "Feature", "id": 142, "geometry": {"type": "Point", "coordinates": [-50.9339970259961, 15.0711985319327]}, "properties": {"OBJECTID": 142, "id": 142, "name": "Baelish Keep", "size": 0, "confirmed": 0, "type": "Other", "Symbol": 5, "S2": 3}}, {"type": "Feature", "id": 143, "geometry": {"type": "Point", "coordinates": [-54.810573854769, 16.0756893697354]}, "properties": {"OBJECTID": 143, "id": 143, "name": "Coldwater", "size": 0, "confirmed": 1, "type": "House", "Symbol": 1, "S2": 1}}, {"type": "Feature", "id": 144, "geometry": {"type": "Point", "coordinates": [-65.0110189494084, 13.0378978137088]}, "properties": {"OBJECTID": 144, "id": 144, "name": "Seagard", "size": 0, "confirmed": 1, "type": "House", "Symbol": 1, "S2": 1}}, {"type": "Feature", "id": 145, "geometry": {"type": "Point", "coordinates": [-64.406462980634, 14.1705980357428]}, "properties": {"OBJECTID": 145, "id": 145, "name": "The Twins", "size": 0, "confirmed": 1, "type": "House", "Symbol": 1, "S2": 1}}, {"type": "Feature", "id": 146, "geometry": {"type": "Point", "coordinates": [-63.0009244573707, 14.446806785152]}, "properties": {"OBJECTID": 146, "id": 146, "name": " ", "size": 0, "confirmed": 0, "type": "House", "Symbol": null, "S2": 1}}, {"type": "Feature", "id": 147, "geometry": {"type": "Point", "coordinates": [-63.9038003516438, 17.1110193498487]}, "properties": {"OBJECTID": 147, "id": 147, "name": "Greywater Watch", "size": 0, "confirmed": 1, "type": "House", "Symbol": 1, "S2": 1}}, {"type": "Feature", "id": 148, "geometry": {"type": "Point", "coordinates": [-62.8119229011286, 20.4337066264288]}, "properties": {"OBJECTID": 148, "id": 148, "name": "Moat Cailin", "size": 0, "confirmed": 1, "type": "Ruin", "Symbol": 4, "S2": 3}}, {"type": "Feature", "id": 149, "geometry": {"type": "Point", "coordinates": [-58.0245783839886, 18.2379866447973]}, "properties": {"OBJECTID": 149, "id": 149, "name": "Sisterton", "size": 0, "confirmed": 1, "type": "Village", "Symbol": 3, "S2": 3}}, {"type": "Feature", "id": 150, "geometry": {"type": "Point", "coordinates": [-58.6818141113409, 19.6261917745771]}, "properties": {"OBJECTID": 150, "id": 150, "name": "Oldcastle", "size": 0, "confirmed": 1, "type": "House", "Symbol": 1, "S2": 1}}, {"type": "Feature", "id": 151, "geometry": {"type": "Point", "coordinates": [-60.1858365651529, 21.442532160518]}, "properties": {"OBJECTID": 151, "id": 151, "name": "White Harbor", "size": 0, "confirmed": 1, "type": "City", "Symbol": 2, "S2": 2}}, {"type": "Feature", "id": 152, "geometry": {"type": "Point", "coordinates": [-55.6217401155606, 22.5995056502124]}, "properties": {"OBJECTID": 152, "id": 152, "name": "Ramsgate", "size": 0, "confirmed": 1, "type": "House", "Symbol": 1, "S2": 1}}, {"type": "Feature", "id": 153, "geometry": {"type": "Point", "coordinates": [-52.3617452537989, 22.2319175789003]}, "properties": {"OBJECTID": 153, "id": 153, "name": "Widow's Watch", "size": 0, "confirmed": 1, "type": "House", "Symbol": 1, "S2": 1}}, {"type": "Feature", "id": 154, "geometry": {"type": "Point", "coordinates": [-58.2276908222407, 25.3230884006069]}, "properties": {"OBJECTID": 154, "id": 154, "name": "Hornwood", "size": 0, "confirmed": 0, "type": "House", "Symbol": 1, "S2": 1}}, {"type": "Feature", "id": 155, "geometry": {"type": "Point", "coordinates": [-58.5956045120011, 26.6074904849781]}, "properties": {"OBJECTID": 155, "id": 155, "name": "Tower", "size": 0, "confirmed": 0, "type": "Tower", "Symbol": 5, "S2": 3}}, {"type": "Feature", "id": 156, "geometry": {"type": "Point", "coordinates": [-57.1769000885925, 27.7714948107239]}, "properties": {"OBJECTID": 156, "id": 156, "name": "The Dreadfort", "size": 0, "confirmed": 1, "type": "House", "Symbol": 1, "S2": 1}}, {"type": "Feature", "id": 157, "geometry": {"type": "Point", "coordinates": [-63.2301379636325, 24.5648099473205]}, "properties": {"OBJECTID": 157, "id": 157, "name": "Cerwyn", "size": 0, "confirmed": 0, "type": "House", "Symbol": 1, "S2": 1}}, {"type": "Feature", "id": 158, "geometry": {"type": "Point", "coordinates": [-63.0435729708176, 26.8858182970005]}, "properties": {"OBJECTID": 158, "id": 158, "name": "Holdfast", "size": 0, "confirmed": 0, "type": "Stop", "Symbol": 5, "S2": 3}}, {"type": "Feature", "id": 159, "geometry": {"type": "Point", "coordinates": [-63.186933607722, 26.5209607702023]}, "properties": {"OBJECTID": 159, "id": 159, "name": "Winterfell", "size": 0, "confirmed": 1, "type": "Great House", "Symbol": 1, "S2": 1}}, {"type": "Feature", "id": 160, "geometry": {"type": "Point", "coordinates": [-63.4121481341391, 25.7267737002488]}, "properties": {"OBJECTID": 160, "id": 160, "name": "Crofter's Village", "size": 0, "confirmed": 0, "type": "Village", "Symbol": 5, "S2": 3}}, {"type": "Feature", "id": 161, "geometry": {"type": "Point", "coordinates": [-63.5035238000491, 28.1388348592734]}, "properties": {"OBJECTID": 161, "id": 161, "name": "Tumbledown Tower", "size": 0, "confirmed": 0, "type": "Tower", "Symbol": 5, "S2": 3}}, {"type": "Feature", "id": 162, "geometry": {"type": "Point", "coordinates": [-67.3399812277344, 29.3680220790369]}, "properties": {"OBJECTID": 162, "id": 162, "name": "Deepwood Motte", "size": 0, "confirmed": 1, "type": "House", "Symbol": 1, "S2": 1}}, {"type": "Feature", "id": 163, "geometry": {"type": "Point", "coordinates": [-57.7525517282412, 31.0379118517986]}, "properties": {"OBJECTID": 163, "id": 163, "name": "Last Hearth", "size": 0, "confirmed": 1, "type": "House", "Symbol": 1, "S2": 1}}, {"type": "Feature", "id": 164, "geometry": {"type": "Point", "coordinates": [-53.1637208733765, 29.8974307327185]}, "properties": {"OBJECTID": 164, "id": 164, "name": "Karhold", "size": 0, "confirmed": 1, "type": "House", "Symbol": 1, "S2": 1}}, {"type": "Feature", "id": 165, "geometry": {"type": "Point", "coordinates": [-60.0130052275057, 34.1244662678518]}, "properties": {"OBJECTID": 165, "id": 165, "name": "Queenscrown", "size": 0, "confirmed": 1, "type": "Stop", "Symbol": 5, "S2": 3}}, {"type": "Feature", "id": 166, "geometry": {"type": "Point", "coordinates": [-59.1473795251842, 34.840875943188]}, "properties": {"OBJECTID": 166, "id": 166, "name": "Castle Black", "size": 0, "confirmed": 1, "type": "Castle", "Symbol": 1, "S2": 1}}, {"type": "Feature", "id": 167, "geometry": {"type": "Point", "coordinates": [-58.5844037933208, 34.3604897481107]}, "properties": {"OBJECTID": 167, "id": 167, "name": "Mole's Town", "size": 0, "confirmed": 0, "type": "Village", "Symbol": 5, "S2": 3}}, {"type": "Feature", "id": 168, "geometry": {"type": "Point", "coordinates": [-61.6568412017452, 34.9712017436111]}, "properties": {"OBJECTID": 168, "id": 168, "name": "Shadow Tower", "size": 0, "confirmed": 1, "type": "Tower", "Symbol": 1, "S2": 0}}, {"type": "Feature", "id": 169, "geometry": {"type": "Point", "coordinates": [-61.8838485929928, 34.8882611816529]}, "properties": {"OBJECTID": 169, "id": 169, "name": "Westwatch-by-the-Bridge", "size": 0, "confirmed": 1, "type": "Ruin", "Symbol": 5, "S2": 0}}, {"type": "Feature", "id": 170, "geometry": {"type": "Point", "coordinates": [-61.3910778157543, 34.9591551904438]}, "properties": {"OBJECTID": 170, "id": 170, "name": "Sentinel Stand", "size": 0, "confirmed": 1, "type": "Ruin", "Symbol": 5, "S2": 0}}, {"type": "Feature", "id": 171, "geometry": {"type": "Point", "coordinates": [-61.1675347261959, 34.9422309786332]}, "properties": {"OBJECTID": 171, "id": 171, "name": "Greyguard", "size": 0, "confirmed": 1, "type": "Ruin", "Symbol": 5, "S2": 0}}, {"type": "Feature", "id": 172, "geometry": {"type": "Point", "coordinates": [-60.8611350547911, 34.9212376348734]}, "properties": {"OBJECTID": 172, "id": 172, "name": "Stonedoor", "size": 0, "confirmed": 1, "type": "Ruin", "Symbol": 5, "S2": 0}}, {"type": "Feature", "id": 173, "geometry": {"type": "Point", "coordinates": [-60.5615957929567, 34.8992428803445]}, "properties": {"OBJECTID": 173, "id": 173, "name": "Hoarfrost Hill", "size": 0, "confirmed": 1, "type": "Ruin", "Symbol": 5, "S2": 0}}, {"type": "Feature", "id": 174, "geometry": {"type": "Point", "coordinates": [-60.2949024521191, 34.8864717921021]}, "properties": {"OBJECTID": 174, "id": 174, "name": "Icemark", "size": 0, "confirmed": 1, "type": "Ruin", "Symbol": 5, "S2": 0}}, {"type": "Feature", "id": 175, "geometry": {"type": "Point", "coordinates": [-60.0252577179751, 34.8678967416821]}, "properties": {"OBJECTID": 175, "id": 175, "name": "Nightfort", "size": 0, "confirmed": 1, "type": "Ruin", "Symbol": 5, "S2": 0}}, {"type": "Feature", "id": 176, "geometry": {"type": "Point", "coordinates": [-59.7905926704273, 34.8518774964654]}, "properties": {"OBJECTID": 176, "id": 176, "name": "Deep Lake", "size": 0, "confirmed": 1, "type": "Ruin", "Symbol": 5, "S2": 0}}, {"type": "Feature", "id": 177, "geometry": {"type": "Point", "coordinates": [-59.4867613695564, 34.8434017062444]}, "properties": {"OBJECTID": 177, "id": 177, "name": "Queensgate", "size": 0, "confirmed": 1, "type": "Ruin", "Symbol": 5, "S2": 0}}, {"type": "Feature", "id": 178, "geometry": {"type": "Point", "coordinates": [-58.7103715236803, 34.8595323859954]}, "properties": {"OBJECTID": 178, "id": 178, "name": "Oakensheild", "size": 0, "confirmed": 1, "type": "Ruin", "Symbol": 5, "S2": 0}}, {"type": "Feature", "id": 179, "geometry": {"type": "Point", "coordinates": [-58.3858053471507, 34.8730731341938]}, "properties": {"OBJECTID": 179, "id": 179, "name": "Woodswatch-by-the-Pool", "size": 0, "confirmed": 1, "type": "Ruin", "Symbol": 5, "S2": 0}}, {"type": "Feature", "id": 180, "geometry": {"type": "Point", "coordinates": [-58.0697849571066, 34.8775316979718]}, "properties": {"OBJECTID": 180, "id": 180, "name": "Sable Hall", "size": 0, "confirmed": 1, "type": "Ruin", "Symbol": 5, "S2": 0}}, {"type": "Feature", "id": 181, "geometry": {"type": "Point", "coordinates": [-57.7929386143827, 34.8755133395868]}, "properties": {"OBJECTID": 181, "id": 181, "name": "Rimegate", "size": 0, "confirmed": 1, "type": "Ruin", "Symbol": 5, "S2": 0}}, {"type": "Feature", "id": 182, "geometry": {"type": "Point", "coordinates": [-57.5153604923503, 34.8943404959316]}, "properties": {"OBJECTID": 182, "id": 182, "name": "Long Barrow", "size": 0, "confirmed": 1, "type": "Ruin", "Symbol": 5, "S2": 0}}, {"type": "Feature", "id": 183, "geometry": {"type": "Point", "coordinates": [-57.2705420764036, 34.9023813009524]}, "properties": {"OBJECTID": 183, "id": 183, "name": "Torches", "size": 0, "confirmed": 1, "type": "Ruin", "Symbol": 5, "S2": 0}}, {"type": "Feature", "id": 184, "geometry": {"type": "Point", "coordinates": [-57.0205366820052, 34.916912647489]}, "properties": {"OBJECTID": 184, "id": 184, "name": "Greenguard", "size": 0, "confirmed": 1, "type": "Ruin", "Symbol": 5, "S2": 0}}, {"type": "Feature", "id": 185, "geometry": {"type": "Point", "coordinates": [-56.7050657312333, 34.9497596557201]}, "properties": {"OBJECTID": 185, "id": 185, "name": "Eastwatch-by-the-Sea", "size": 0, "confirmed": 1, "type": "Tower", "Symbol": 1, "S2": 0}}, {"type": "Feature", "id": 186, "geometry": {"type": "Point", "coordinates": [-59.7183903980065, 35.6758092606687]}, "properties": {"OBJECTID": 186, "id": 186, "name": "Whitetree", "size": 0, "confirmed": 1, "type": "Other", "Symbol": 5, "S2": 3}}, {"type": "Feature", "id": 187, "geometry": {"type": "Point", "coordinates": [-60.1285740834924, 36.2261634839314]}, "properties": {"OBJECTID": 187, "id": 187, "name": "Craster's Keep", "size": 0, "confirmed": 1, "type": "Village", "Symbol": 5, "S2": 3}}, {"type": "Feature", "id": 188, "geometry": {"type": "Point", "coordinates": [-62.8316618343949, 37.3084324455849]}, "properties": {"OBJECTID": 188, "id": 188, "name": "Fist of the First Men", "size": 0, "confirmed": 1, "type": "Other", "Symbol": 5, "S2": 3}}, {"type": "Feature", "id": 189, "geometry": {"type": "Point", "coordinates": [-74.9685144194378, 24.8271539827003]}, "properties": {"OBJECTID": 189, "id": 189, "name": "Fishing Village", "size": 0, "confirmed": 0, "type": "Village", "Symbol": 5, "S2": 3}}, {"type": "Feature", "id": 190, "geometry": {"type": "Point", "coordinates": [-63.5794979186849, 8.20541643679002]}, "properties": {"OBJECTID": 190, "id": 190, "name": "Pennytree", "size": 0, "confirmed": 0, "type": "Other", "Symbol": 5, "S2": 3}}, {"type": "Feature", "id": 191, "geometry": {"type": "Point", "coordinates": [-43.5826147975261, -12.2231851297948]}, "properties": {"OBJECTID": 191, "id": 191, "name": "Lys", "size": 0, "confirmed": 1, "type": "City", "Symbol": 2, "S2": 2}}, {"type": "Feature", "id": 192, "geometry": {"type": "Point", "coordinates": [-47.2682426303189, -6.02542682125829]}, "properties": {"OBJECTID": 192, "id": 192, "name": "Tyrosh", "size": 0, "confirmed": 1, "type": "City", "Symbol": 2, "S2": 2}}, {"type": "Feature", "id": 193, "geometry": {"type": "Point", "coordinates": [-41.5022965832607, -5.09570698872515]}, "properties": {"OBJECTID": 193, "id": 193, "name": "Myr", "size": 0, "confirmed": 1, "type": "City", "Symbol": 2, "S2": 2}}, {"type": "Feature", "id": 194, "geometry": {"type": "Point", "coordinates": [-44.3486869623582, 2.34668459743099]}, "properties": {"OBJECTID": 194, "id": 194, "name": "Pentos", "size": 0, "confirmed": 1, "type": "City", "Symbol": 2, "S2": 2}}, {"type": "Feature", "id": 195, "geometry": {"type": "Point", "coordinates": [-40.137804049046, 3.55893067753273]}, "properties": {"OBJECTID": 195, "id": 195, "name": "Ghoyan Drohe", "size": 0, "confirmed": 1, "type": "Ruin", "Symbol": 4, "S2": 3}}, {"type": "Feature", "id": 196, "geometry": {"type": "Point", "coordinates": [-36.0541979998216, 6.94988184286441]}, "properties": {"OBJECTID": 196, "id": 196, "name": "Norvos", "size": 0, "confirmed": 1, "type": "City", "Symbol": 2, "S2": 2}}, {"type": "Feature", "id": 197, "geometry": {"type": "Point", "coordinates": [-51.7335959404872, -1.92341167417137]}, "properties": {"OBJECTID": 197, "id": 197, "name": "Evenfall Hall", "size": 0, "confirmed": 1, "type": "House", "Symbol": 1, "S2": 1}}, {"type": "Feature", "id": 198, "geometry": {"type": "Point", "coordinates": [-52.5120068421407, -0.534048361428114]}, "properties": {"OBJECTID": 198, "id": 198, "name": "Parchments", "size": 0, "confirmed": 0, "type": "Other", "Symbol": 5, "S2": 3}}, {"type": "Feature", "id": 199, "geometry": {"type": "Point", "coordinates": [-44.3062668976745, 15.1629465534451]}, "properties": {"OBJECTID": 199, "id": 199, "name": "Braavos", "size": 0, "confirmed": 1, "type": "City", "Symbol": 1, "S2": 2}}, {"type": "Feature", "id": 200, "geometry": {"type": "Point", "coordinates": [-38.5892312764654, 13.5000002040725]}, "properties": {"OBJECTID": 200, "id": 200, "name": "Lorath", "size": 0, "confirmed": 1, "type": "City", "Symbol": 1, "S2": 2}}, {"type": "Feature", "id": 201, "geometry": {"type": "Point", "coordinates": [-29.2351308626058, 2.61680336671076]}, "properties": {"OBJECTID": 201, "id": 201, "name": "Qohor", "size": 0, "confirmed": 1, "type": "City", "Symbol": 2, "S2": 2}}, {"type": "Feature", "id": 202, "geometry": {"type": "Point", "coordinates": [-32.2596495439323, 0.282604550341859]}, "properties": {"OBJECTID": 202, "id": 202, "name": "Ar Noy", "size": 0, "confirmed": 1, "type": "Ruin", "Symbol": 4, "S2": 3}}, {"type": "Feature", "id": 203, "geometry": {"type": "Point", "coordinates": [-35.5512357215987, 1.22342514906096]}, "properties": {"OBJECTID": 203, "id": 203, "name": "Ny Sar", "size": 0, "confirmed": 1, "type": "Ruin", "Symbol": 4, "S2": 3}}, {"type": "Feature", "id": 204, "geometry": {"type": "Point", "coordinates": [-34.0386486238667, -4.64510005957154]}, "properties": {"OBJECTID": 204, "id": 204, "name": "The Sorrows (Chroyane)", "size": 0, "confirmed": 1, "type": "Ruin", "Symbol": 4, "S2": 3}}, {"type": "Feature", "id": 205, "geometry": {"type": "Point", "coordinates": [-33.4912900196744, -8.24767147806347]}, "properties": {"OBJECTID": 205, "id": 205, "name": "Selhorys", "size": 0, "confirmed": 1, "type": "Town", "Symbol": 3, "S2": 3}}, {"type": "Feature", "id": 206, "geometry": {"type": "Point", "coordinates": [-33.5439391960067, -9.98906778209753]}, "properties": {"OBJECTID": 206, "id": 206, "name": "Valysar", "size": 0, "confirmed": 1, "type": "Town", "Symbol": 3, "S2": 3}}, {"type": "Feature", "id": 207, "geometry": {"type": "Point", "coordinates": [-32.6879027784762, -11.480127714813]}, "properties": {"OBJECTID": 207, "id": 207, "name": "Volon Therys", "size": 0, "confirmed": 1, "type": "Town", "Symbol": 3, "S2": 3}}, {"type": "Feature", "id": 208, "geometry": {"type": "Point", "coordinates": [-32.4813565066944, -11.1362332373899]}, "properties": {"OBJECTID": 208, "id": 208, "name": "Sar Mell", "size": 0, "confirmed": 1, "type": "Ruin", "Symbol": 4, "S2": 3}}, {"type": "Feature", "id": 209, "geometry": {"type": "Point", "coordinates": [-30.8182284131262, -12.2938840213272]}, "properties": {"OBJECTID": 209, "id": 209, "name": "Volantis", "size": 0, "confirmed": 1, "type": "City", "Symbol": 2, "S2": 2}}, {"type": "Feature", "id": 210, "geometry": {"type": "Point", "coordinates": [-27.1915435215313, -11.6418847088037]}, "properties": {"OBJECTID": 210, "id": 210, "name": " ", "size": 0, "confirmed": 1, "type": "Other", "Symbol": 5, "S2": 3}}, {"type": "Feature", "id": 211, "geometry": {"type": "Point", "coordinates": [-24.1819052577148, -10.6927507782299]}, "properties": {"OBJECTID": 211, "id": 211, "name": " ", "size": 0, "confirmed": 1, "type": "Ruin", "Symbol": 4, "S2": 3}}, {"type": "Feature", "id": 212, "geometry": {"type": "Point", "coordinates": [-21.4669618857473, -11.1511363350413]}, "properties": {"OBJECTID": 212, "id": 212, "name": "Mantarys", "size": 0, "confirmed": 1, "type": "City", "Symbol": 2, "S2": 2}}, {"type": "Feature", "id": 213, "geometry": {"type": "Point", "coordinates": [-25.2006335674823, -16.0375585599311]}, "properties": {"OBJECTID": 213, "id": 213, "name": " ", "size": 0, "confirmed": 1, "type": "Ruin", "Symbol": 4, "S2": 3}}, {"type": "Feature", "id": 214, "geometry": {"type": "Point", "coordinates": [-22.1732304514741, -18.9145314541632]}, "properties": {"OBJECTID": 214, "id": 214, "name": "Oros", "size": 0, "confirmed": 1, "type": "Ruin", "Symbol": 4, "S2": 3}}, {"type": "Feature", "id": 215, "geometry": {"type": "Point", "coordinates": [-20.0332735023142, -13.1406551302648]}, "properties": {"OBJECTID": 215, "id": 215, "name": "Elyria", "size": 0, "confirmed": 1, "type": "City", "Symbol": 2, "S2": 2}}, {"type": "Feature", "id": 216, "geometry": {"type": "Point", "coordinates": [-18.1972600805537, -12.8600137154488]}, "properties": {"OBJECTID": 216, "id": 216, "name": "Tolos", "size": 0, "confirmed": 1, "type": "City", "Symbol": 2, "S2": 2}}, {"type": "Feature", "id": 217, "geometry": {"type": "Point", "coordinates": [-16.4016913802693, -15.3712415100848]}, "properties": {"OBJECTID": 217, "id": 217, "name": "Ghozai", "size": 0, "confirmed": 1, "type": "Ruin", "Symbol": 4, "S2": 3}}, {"type": "Feature", "id": 218, "geometry": {"type": "Point", "coordinates": [-15.953008355005, -17.5657157516625]}, "properties": {"OBJECTID": 218, "id": 218, "name": "Velos", "size": 0, "confirmed": 1, "type": "Ruin", "Symbol": 4, "S2": 3}}, {"type": "Feature", "id": 219, "geometry": {"type": "Point", "coordinates": [-16.4497134288962, -16.6052879188071]}, "properties": {"OBJECTID": 219, "id": 219, "name": " ", "size": 0, "confirmed": 1, "type": "Ruin", "Symbol": 4, "S2": 3}}, {"type": "Feature", "id": 220, "geometry": {"type": "Point", "coordinates": [-11.1595591710618, -15.3399154480637]}, "properties": {"OBJECTID": 220, "id": 220, "name": "Astapor", "size": 0, "confirmed": 1, "type": "City", "Symbol": 2, "S2": 2}}, {"type": "Feature", "id": 221, "geometry": {"type": "Point", "coordinates": [-10.0092264450721, -10.5494148270104]}, "properties": {"OBJECTID": 221, "id": 221, "name": "Yunkai", "size": 0, "confirmed": 1, "type": "City", "Symbol": 2, "S2": 2}}, {"type": "Feature", "id": 222, "geometry": {"type": "Point", "coordinates": [-7.97559622823613, -8.75242156688269]}, "properties": {"OBJECTID": 222, "id": 222, "name": "Meereen", "size": 0, "confirmed": 1, "type": "City", "Symbol": 2, "S2": 2}}, {"type": "Feature", "id": 223, "geometry": {"type": "Point", "coordinates": [-39.7271847049018, -12.1408211189833]}, "properties": {"OBJECTID": 223, "id": 223, "name": "Lhazarene Village", "size": 0, "confirmed": 0, "type": "Village", "Symbol": 5, "S2": 3}}, {"type": "Feature", "id": 224, "geometry": {"type": "Point", "coordinates": [6.16060609793445, 5.8012780169316]}, "properties": {"OBJECTID": 224, "id": 224, "name": "Vaes Dothrak", "size": 0, "confirmed": 0, "type": "City", "Symbol": 2, "S2": 2}}, {"type": "Feature", "id": 225, "geometry": {"type": "Point", "coordinates": [-10.2884518231124, -20.3914651879151]}, "properties": {"OBJECTID": 225, "id": 225, "name": "Old Ghis", "size": 0, "confirmed": 1, "type": "Ruin", "Symbol": 4, "S2": 3}}, {"type": "Feature", "id": 226, "geometry": {"type": "Point", "coordinates": [-9.11568107407581, -24.7772699640127]}, "properties": {"OBJECTID": 226, "id": 226, "name": "New Ghis", "size": 0, "confirmed": 1, "type": "City", "Symbol": 2, "S2": 2}}, {"type": "Feature", "id": 227, "geometry": {"type": "Point", "coordinates": [-12.1484604812953, -32.9159854801803]}, "properties": {"OBJECTID": 227, "id": 227, "name": "Zamettar", "size": 0, "confirmed": 1, "type": "Ruin", "Symbol": 4, "S2": 3}}, {"type": "Feature", "id": 229, "geometry": {"type": "Point", "coordinates": [-15.8878856846771, -35.2778412990193]}, "properties": {"OBJECTID": 229, "id": 229, "name": "Gogossos", "size": 0, "confirmed": 1, "type": "Ruin", "Symbol": 4, "S2": 3}}, {"type": "Feature", "id": 230, "geometry": {"type": "Point", "coordinates": [-71.4728706240251, 18.2517774806853]}, "properties": {"OBJECTID": 230, "id": 230, "name": "Flint's Finger", "size": 0, "confirmed": 1, "type": "House", "Symbol": 1, "S2": 1}}, {"type": "Feature", "id": 231, "geometry": {"type": "Point", "coordinates": [-67.6186053822197, 21.6640989455123]}, "properties": {"OBJECTID": 231, "id": 231, "name": "Barrowton", "size": 0, "confirmed": 1, "type": "Village", "Symbol": 3, "S2": 3}}, {"type": "Feature", "id": 232, "geometry": {"type": "Point", "coordinates": [-67.055930507823, 24.7869467966153]}, "properties": {"OBJECTID": 232, "id": 232, "name": "Torrhen's Square", "size": 0, "confirmed": 1, "type": "House", "Symbol": 1, "S2": 1}}, {"type": "Feature", "id": 233, "geometry": {"type": "Point", "coordinates": [-14.5220025440296, -9.27479505569628]}, "properties": {"OBJECTID": 233, "id": 233, "name": "Bhorash", "size": 0, "confirmed": 1, "type": "Ruin", "Symbol": 4, "S2": 3}}, {"type": "Feature", "id": 234, "geometry": {"type": "Point", "coordinates": [-71.8808356773718, 11.1401475334022]}, "properties": {"OBJECTID": 234, "id": 234, "name": "Pyke", "size": 0, "confirmed": 1, "type": "House", "Symbol": 1, "S2": 1}}, {"type": "Feature", "id": 235, "geometry": {"type": "Point", "coordinates": [-72.5055071136537, 11.9786514886382]}, "properties": {"OBJECTID": 235, "id": 235, "name": "Pebbleton", "size": 0, "confirmed": 0, "type": "Village", "Symbol": 5, "S2": 3}}, {"type": "Feature", "id": 236, "geometry": {"type": "Point", "coordinates": [-73.5874367869008, 11.9658270360723]}, "properties": {"OBJECTID": 236, "id": 236, "name": "Hammerhorn", "size": 0, "confirmed": 0, "type": "House", "Symbol": 5, "S2": 1}}, {"type": "Feature", "id": 237, "geometry": {"type": "Point", "coordinates": [-72.8691248513162, 12.3578841899117]}, "properties": {"OBJECTID": 237, "id": 237, "name": "Nagga's Ribs", "size": 0, "confirmed": 0, "type": "Hill", "Symbol": 5, "S2": 3}}, {"type": "Feature", "id": 238, "geometry": {"type": "Point", "coordinates": [-72.65989534951, 12.5508986236405]}, "properties": {"OBJECTID": 238, "id": 238, "name": "Castle Goodbrother", "size": 0, "confirmed": 0, "type": "House", "Symbol": 5, "S2": 1}}, {"type": "Feature", "id": 239, "geometry": {"type": "Point", "coordinates": [-69.9833994117653, 12.2145513520865]}, "properties": {"OBJECTID": 239, "id": 239, "name": "Ten Towers", "size": 0, "confirmed": 1, "type": "House", "Symbol": 1, "S2": 1}}, {"type": "Feature", "id": 240, "geometry": {"type": "Point", "coordinates": [-72.789803388048, 7.01418139992828]}, "properties": {"OBJECTID": 240, "id": 240, "name": "Faircastle", "size": 0, "confirmed": 1, "type": "House", "Symbol": 1, "S2": 1}}, {"type": "Feature", "id": 241, "geometry": {"type": "Point", "coordinates": [-22.6050409597458, -20.5291981889794]}, "properties": {"OBJECTID": 241, "id": 241, "name": "Tyria", "size": 0, "confirmed": 1, "type": "Ruin", "Symbol": 4, "S2": 3}}, {"type": "Feature", "id": 242, "geometry": {"type": "Point", "coordinates": [-23.7577558373076, -22.9104965487293]}, "properties": {"OBJECTID": 242, "id": 242, "name": "Valyria", "size": 0, "confirmed": 1, "type": "Ruin", "Symbol": 4, "S2": 3}}, {"type": "Feature", "id": 243, "geometry": {"type": "Point", "coordinates": [-19.883004667263, -22.8909935739462]}, "properties": {"OBJECTID": 243, "id": 243, "name": " ", "size": 0, "confirmed": 1, "type": "Ruin", "Symbol": 4, "S2": 3}}, {"type": "Feature", "id": 244, "geometry": {"type": "Point", "coordinates": [-26.2386719251549, -21.1521947043146]}, "properties": {"OBJECTID": 244, "id": 244, "name": " ", "size": 0, "confirmed": 1, "type": "Ruin", "Symbol": 4, "S2": 3}}, {"type": "Feature", "id": 245, "geometry": {"type": "Point", "coordinates": [-24.5493639705467, -25.5319470592826]}, "properties": {"OBJECTID": 245, "id": 245, "name": " ", "size": 0, "confirmed": 1, "type": "Ruin", "Symbol": 4, "S2": 3}}, {"type": "Feature", "id": 246, "geometry": {"type": "Point", "coordinates": [13.0888001689282, -20.3054665361918]}, "properties": {"OBJECTID": 246, "id": 246, "name": "Qarth", "size": 0, "confirmed": 0, "type": "City", "Symbol": 2, "S2": 2}}, {"type": "Feature", "id": 247, "geometry": {"type": "Point", "coordinates": [-72.5709600343244, -2.76913892640302]}, "properties": {"OBJECTID": 247, "id": 247, "name": "Lord Hewett's Town", "size": 0, "confirmed": 0, "type": "Town", "Symbol": 5, "S2": 3}}, {"type": "Feature", "id": 248, "geometry": {"type": "Point", "coordinates": [-68.6321815735583, 32.1385176667356]}, "properties": {"OBJECTID": 248, "id": 0, "name": "Mormont Keep", "size": 0, "confirmed": 0, "type": "House", "Symbol": 1, "S2": 1}}, {"type": "Feature", "id": 249, "geometry": {"type": "Point", "coordinates": [-72.1986226484396, 5.1030880238685]}, "properties": {"OBJECTID": 249, "id": 0, "name": "Casterly Rock", "size": 0, "confirmed": 0, "type": "Great House", "Symbol": 1, "S2": 1}}, {"type": "Feature", "id": 250, "geometry": {"type": "Point", "coordinates": [-74.3402921719082, -13.1584737370189]}, "properties": {"OBJECTID": 250, "id": null, "name": "Vinetown", "size": 0, "confirmed": 1, "type": "Town", "Symbol": 1, "S2": 3}}, {"type": "Feature", "id": 251, "geometry": {"type": "Point", "coordinates": [-59.8981244190429, 21.1622062537459]}, "properties": {"OBJECTID": 251, "id": null, "name": "New Castle", "size": 0, "confirmed": 1, "type": "House", "Symbol": 1, "S2": 1}}, {"type": "Feature", "id": 252, "geometry": {"type": "Point", "coordinates": [-62.3361530460693, -4.24345355749916]}, "properties": {"OBJECTID": 252, "id": null, "name": "Harvest Hall", "size": 0, "confirmed": 1, "type": "House", "Symbol": 1, "S2": 1}}, {"type": "Feature", "id": 254, "geometry": {"type": "Point", "coordinates": [-19.1764677972187, 13.9213215871585]}, "properties": {"OBJECTID": 254, "id": 0, "name": "Morosh", "size": 0, "confirmed": 0, "type": "City", "Symbol": 2, "S2": 2}}, {"type": "Feature", "id": 255, "geometry": {"type": "Point", "coordinates": [-21.6243379442898, 11.8449946509373]}, "properties": {"OBJECTID": 255, "id": 0, "name": "Saath", "size": 0, "confirmed": 0, "type": "City", "Symbol": 2, "S2": 2}}, {"type": "Feature", "id": 256, "geometry": {"type": "Point", "coordinates": [-17.7453079655963, 11.949187893068]}, "properties": {"OBJECTID": 256, "id": 0, "name": "Vaes Graddakh", "size": 0, "confirmed": 0, "type": "Ruin", "Symbol": 4, "S2": 3}}, {"type": "Feature", "id": 257, "geometry": {"type": "Point", "coordinates": [-23.1755730763358, 2.85183302410887]}, "properties": {"OBJECTID": 257, "id": 0, "name": "Vaes Khadokh", "size": 0, "confirmed": 0, "type": "Ruin", "Symbol": 4, "S2": 3}}, {"type": "Feature", "id": 258, "geometry": {"type": "Point", "coordinates": [-15.1146241786588, 1.35910929327169]}, "properties": {"OBJECTID": 258, "id": 0, "name": "Vaes Khewo", "size": 0, "confirmed": 0, "type": "Ruin", "Symbol": 4, "S2": 3}}, {"type": "Feature", "id": 259, "geometry": {"type": "Point", "coordinates": [2.06040238565177, -19.9544469251382]}, "properties": {"OBJECTID": 259, "id": 0, "name": "Port Yhos", "size": 0, "confirmed": 0, "type": "City", "Symbol": 2, "S2": 2}}, {"type": "Feature", "id": 260, "geometry": {"type": "Point", "coordinates": [7.71903107871493, -19.3580796009477]}, "properties": {"OBJECTID": 260, "id": 0, "name": "Qarkash", "size": 0, "confirmed": 0, "type": "City", "Symbol": 2, "S2": 2}}, {"type": "Feature", "id": 261, "geometry": {"type": "Point", "coordinates": [6.91600201917669, -15.4428140389351]}, "properties": {"OBJECTID": 261, "id": 0, "name": "Vaes Tolorro", "size": 0, "confirmed": 0, "type": "Ruin", "Symbol": 4, "S2": 3}}, {"type": "Feature", "id": 262, "geometry": {"type": "Point", "coordinates": [5.19139642826069, -17.6547169091321]}, "properties": {"OBJECTID": 262, "id": 0, "name": "Vaes Shirosi", "size": 0, "confirmed": 0, "type": "Ruin", "Symbol": 4, "S2": 3}}, {"type": "Feature", "id": 263, "geometry": {"type": "Point", "coordinates": [-2.97275922609588, -8.95404984703753]}, "properties": {"OBJECTID": 263, "id": 0, "name": "Hesh", "size": 0, "confirmed": 0, "type": "City", "Symbol": 2, "S2": 2}}, {"type": "Feature", "id": 264, "geometry": {"type": "Point", "coordinates": [-0.753073616332643, -11.8931497404859]}, "properties": {"OBJECTID": 264, "id": 0, "name": "Lhazosh", "size": 0, "confirmed": 0, "type": "City", "Symbol": 2, "S2": 2}}, {"type": "Feature", "id": 265, "geometry": {"type": "Point", "coordinates": [2.32505103783353, -8.94205305574546]}, "properties": {"OBJECTID": 265, "id": 0, "name": "Kosrak", "size": 0, "confirmed": 0, "type": "City", "Symbol": 2, "S2": 2}}, {"type": "Feature", "id": 266, "geometry": {"type": "Point", "coordinates": [0.141084791064733, -5.25520102622774]}, "properties": {"OBJECTID": 266, "id": 0, "name": "Khazaaj Has", "size": 0, "confirmed": 0, "type": "Ruin", "Symbol": 4, "S2": 3}}, {"type": "Feature", "id": 267, "geometry": {"type": "Point", "coordinates": [2.61069759777916, -4.74233855725055]}, "properties": {"OBJECTID": 267, "id": 0, "name": "Vaes Mejhah", "size": 0, "confirmed": 0, "type": "Ruin", "Symbol": 4, "S2": 3}}, {"type": "Feature", "id": 268, "geometry": {"type": "Point", "coordinates": [4.09477692946422, -2.73090837565124]}, "properties": {"OBJECTID": 268, "id": 0, "name": "Vaes Efe", "size": 0, "confirmed": 0, "type": "Ruin", "Symbol": 4, "S2": 3}}, {"type": "Feature", "id": 269, "geometry": {"type": "Point", "coordinates": [12.9715723069697, -4.24362895378868]}, "properties": {"OBJECTID": 269, "id": 0, "name": "Veas Jini", "size": 0, "confirmed": 0, "type": "Ruin", "Symbol": 4, "S2": 3}}, {"type": "Feature", "id": 270, "geometry": {"type": "Point", "coordinates": [11.4615946929672, -5.75788238788898]}, "properties": {"OBJECTID": 270, "id": 0, "name": "Adakhakileki", "size": 0, "confirmed": 0, "type": "Ruin", "Symbol": 4, "S2": 3}}, {"type": "Feature", "id": 272, "geometry": {"type": "Point", "coordinates": [-9.12042736240531, 5.94739933323883]}, "properties": {"OBJECTID": 272, "id": 0, "name": "Vaes Athjikhari", "size": 0, "confirmed": 0, "type": "Ruin", "Symbol": 4, "S2": 3}}, {"type": "Feature", "id": 273, "geometry": {"type": "Point", "coordinates": [-7.46520668732897, 4.04120391321825]}, "properties": {"OBJECTID": 273, "id": 0, "name": "Vaes Leqse", "size": 0, "confirmed": 0, "type": "Ruin", "Symbol": 4, "S2": 3}}, {"type": "Feature", "id": 274, "geometry": {"type": "Point", "coordinates": [-7.04033669140137, 1.38205063729518]}, "properties": {"OBJECTID": 274, "id": 0, "name": "Yalli Qamayi", "size": 0, "confirmed": 0, "type": "Ruin", "Symbol": 4, "S2": 3}}, {"type": "Feature", "id": 275, "geometry": {"type": "Point", "coordinates": [-10.6890021533578, 2.48979365468809]}, "properties": {"OBJECTID": 275, "id": 0, "name": "Vojjor Samui", "size": 0, "confirmed": 0, "type": "Ruin", "Symbol": 4, "S2": 3}}, {"type": "Feature", "id": 276, "geometry": {"type": "Point", "coordinates": [42.4324843065615, -36.4051968604456]}, "properties": {"OBJECTID": 276, "id": 0, "name": "Asshai", "size": 0, "confirmed": 0, "type": "City", "Symbol": 2, "S2": 2}}, {"type": "Feature", "id": 277, "geometry": {"type": "Point", "coordinates": [45.633051812405, -33.5914135641798]}, "properties": {"OBJECTID": 277, "id": 0, "name": "Stygai", "size": 0, "confirmed": 0, "type": "Ruin", "Symbol": 4, "S2": 3}}, {"type": "Feature", "id": 278, "geometry": {"type": "Point", "coordinates": [35.8083707569462, -30.639481849858]}, "properties": {"OBJECTID": 278, "id": 0, "name": "Turrani", "size": 0, "confirmed": 0, "type": "City", "Symbol": 2, "S2": 2}}, {"type": "Feature", "id": 279, "geometry": {"type": "Point", "coordinates": [35.6546866313893, -28.2228014017819]}, "properties": {"OBJECTID": 279, "id": 0, "name": "Leng Ma", "size": 0, "confirmed": 0, "type": "City", "Symbol": 2, "S2": 2}}, {"type": "Feature", "id": 280, "geometry": {"type": "Point", "coordinates": [36.3828695310985, -24.5303057693922]}, "properties": {"OBJECTID": 280, "id": 0, "name": "Leng Yi", "size": 0, "confirmed": 0, "type": "City", "Symbol": 2, "S2": 2}}, {"type": "Feature", "id": 281, "geometry": {"type": "Point", "coordinates": [38.4865153906981, -22.8137631301944]}, "properties": {"OBJECTID": 281, "id": 0, "name": "Jinqi", "size": 0, "confirmed": 0, "type": "City", "Symbol": 2, "S2": 2}}, {"type": "Feature", "id": 282, "geometry": {"type": "Point", "coordinates": [27.1028585452558, -25.9370515509905]}, "properties": {"OBJECTID": 282, "id": 0, "name": "Yin", "size": 0, "confirmed": 0, "type": "City", "Symbol": 2, "S2": 2}}, {"type": "Feature", "id": 283, "geometry": {"type": "Point", "coordinates": [20.2374145654655, -20.0169588649391]}, "properties": {"OBJECTID": 283, "id": 0, "name": "Asabhad", "size": 0, "confirmed": 0, "type": "City", "Symbol": 2, "S2": 2}}, {"type": "Feature", "id": 284, "geometry": {"type": "Point", "coordinates": [20.1256632943148, -12.7628867979256]}, "properties": {"OBJECTID": 284, "id": 0, "name": "Bayasabhad", "size": 0, "confirmed": 0, "type": "City", "Symbol": 2, "S2": 2}}, {"type": "Feature", "id": 285, "geometry": {"type": "Point", "coordinates": [27.1439318826149, -11.4319794151335]}, "properties": {"OBJECTID": 285, "id": 0, "name": "Tiqui", "size": 0, "confirmed": 0, "type": "City", "Symbol": 2, "S2": 2}}, {"type": "Feature", "id": 287, "geometry": {"type": "Point", "coordinates": [40.5862895913732, 3.31634017698535]}, "properties": {"OBJECTID": 287, "id": 0, "name": "Nefer", "size": 0, "confirmed": 0, "type": "City", "Symbol": 2, "S2": 2}}, {"type": "Feature", "id": 288, "geometry": {"type": "Point", "coordinates": [28.4970854770716, -6.46403622191709]}, "properties": {"OBJECTID": 288, "id": 0, "name": "Trader Town", "size": 0, "confirmed": 0, "type": "City", "Symbol": 2, "S2": 2}}, {"type": "Feature", "id": 289, "geometry": {"type": "Point", "coordinates": [19.3962466753438, 2.92734027912885]}, "properties": {"OBJECTID": 289, "id": 0, "name": "Kayakayanaya", "size": 0, "confirmed": 0, "type": "City", "Symbol": 2, "S2": 2}}, {"type": "Feature", "id": 290, "geometry": {"type": "Point", "coordinates": [17.597540157077, -5.83946801394326]}, "properties": {"OBJECTID": 290, "id": 0, "name": "Samyriana", "size": 0, "confirmed": 0, "type": "City", "Symbol": 2, "S2": 2}}, {"type": "Feature", "id": 291, "geometry": {"type": "Point", "coordinates": [-1.32345965517928, 13.8121006617932]}, "properties": {"OBJECTID": 291, "id": 0, "name": "Vaes Leisi", "size": 0, "confirmed": 0, "type": "Ruin", "Symbol": 4, "S2": 3}}, {"type": "Feature", "id": 292, "geometry": {"type": "Point", "coordinates": [7.05726532974287, 17.2455546014835]}, "properties": {"OBJECTID": 292, "id": 0, "name": "New Ibbish", "size": 0, "confirmed": 0, "type": "City", "Symbol": 2, "S2": 2}}, {"type": "Feature", "id": 293, "geometry": {"type": "Point", "coordinates": [10.6368317718854, 15.2431895308811]}, "properties": {"OBJECTID": 293, "id": 0, "name": "Vaes Aresak", "size": 0, "confirmed": 0, "type": "Ruin", "Symbol": 4, "S2": 3}}, {"type": "Feature", "id": 294, "geometry": {"type": "Point", "coordinates": [9.09329376451987, 27.8569015389604]}, "properties": {"OBJECTID": 294, "id": null, "name": "Ib Nor", "size": null, "confirmed": null, "type": "City", "Symbol": 2, "S2": 2}}, {"type": "Feature", "id": 295, "geometry": {"type": "Point", "coordinates": [7.70093670920566, 23.5588230379837]}, "properties": {"OBJECTID": 295, "id": null, "name": "Port Of Ibben", "size": null, "confirmed": null, "type": "City", "Symbol": 2, "S2": 2}}, {"type": "Feature", "id": 296, "geometry": {"type": "Point", "coordinates": [14.7194922733064, 18.8355574197046]}, "properties": {"OBJECTID": 296, "id": null, "name": "Ib Sar", "size": null, "confirmed": null, "type": "City", "Symbol": 2, "S2": 2}}, {"type": "Feature", "id": 297, "geometry": {"type": "Point", "coordinates": [-47.7461336745637, -27.5605802272127]}, "properties": {"OBJECTID": 297, "id": null, "name": "Lotus Port", "size": null, "confirmed": null, "type": "City", "Symbol": 2, "S2": 2}}, {"type": "Feature", "id": 298, "geometry": {"type": "Point", "coordinates": [-44.8006261532536, -38.6997005150201]}, "properties": {"OBJECTID": 298, "id": null, "name": "Ebonhead", "size": null, "confirmed": null, "type": "Village", "Symbol": 3, "S2": 3}}, {"type": "Feature", "id": 299, "geometry": {"type": "Point", "coordinates": [-49.8147588242029, -25.9447556921363]}, "properties": {"OBJECTID": 299, "id": null, "name": "Last Lament", "size": null, "confirmed": null, "type": "Village", "Symbol": 3, "S2": 3}}, {"type": "Feature", "id": 300, "geometry": {"type": "Point", "coordinates": [44.0262324654483, -8.36555836241164]}, "properties": {"OBJECTID": 300, "id": null, "name": "Five Forts", "size": null, "confirmed": 1, "type": "House", "Symbol": 1, "S2": 1}}, {"type": "Feature", "id": 301, "geometry": {"type": "Point", "coordinates": [44.482984285257, -9.10160876631885]}, "properties": {"OBJECTID": 301, "id": null, "name": "Five Forts", "size": null, "confirmed": 1, "type": "House", "Symbol": 1, "S2": 1}}, {"type": "Feature", "id": 302, "geometry": {"type": "Point", "coordinates": [45.1832183713503, -9.62736000621968]}, "properties": {"OBJECTID": 302, "id": null, "name": "Five Forts", "size": null, "confirmed": 1, "type": "House", "Symbol": 1, "S2": 1}}, {"type": "Feature", "id": 303, "geometry": {"type": "Point", "coordinates": [45.8834524574436, -10.0780371365471]}, "properties": {"OBJECTID": 303, "id": null, "name": "Five Forts", "size": null, "confirmed": 1, "type": "House", "Symbol": 1, "S2": 1}}, {"type": "Feature", "id": 304, "geometry": {"type": "Point", "coordinates": [46.8204548741516, -10.2613609698065]}, "properties": {"OBJECTID": 304, "id": null, "name": "Five Forts", "size": null, "confirmed": 1, "type": "House", "Symbol": 1, "S2": 1}}, {"type": "Feature", "id": 305, "geometry": {"type": "Point", "coordinates": [57.3075427514035, -20.177700235131]}, "properties": {"OBJECTID": 305, "id": null, "name": "Carcosa", "size": null, "confirmed": null, "type": "City", "Symbol": 2, "S2": 2}}, {"type": "Feature", "id": 306, "geometry": {"type": "Point", "coordinates": [53.2534124748099, -16.7977680212636]}, "properties": {"OBJECTID": 306, "id": null, "name": "City of the Winged Men", "size": null, "confirmed": null, "type": "City", "Symbol": 2, "S2": 2}}, {"type": "Feature", "id": 307, "geometry": {"type": "Point", "coordinates": [51.4771616260956, -7.22613151855547]}, "properties": {"OBJECTID": 307, "id": null, "name": "Bonetown", "size": null, "confirmed": null, "type": "City", "Symbol": 2, "S2": 2}}, {"type": "Feature", "id": 308, "geometry": {"type": "Point", "coordinates": [48.2732533108632, -4.48887104146716]}, "properties": {"OBJECTID": 308, "id": null, "name": "K'Dath", "size": null, "confirmed": null, "type": "City", "Symbol": 2, "S2": 2}}, {"type": "Feature", "id": 309, "geometry": {"type": "Point", "coordinates": [19.4901300180139, -35.1872379651318]}, "properties": {"OBJECTID": 309, "id": null, "name": "Zabhad", "size": null, "confirmed": null, "type": "City", "Symbol": 2, "S2": 2}}, {"type": "Feature", "id": 310, "geometry": {"type": "Point", "coordinates": [17.4460250568928, -32.976683467669]}, "properties": {"OBJECTID": 310, "id": null, "name": "Port Moroq", "size": null, "confirmed": null, "type": "City", "Symbol": 2, "S2": 2}}, {"type": "Feature", "id": 311, "geometry": {"type": "Point", "coordinates": [3.14729655429909, -31.3751177390531]}, "properties": {"OBJECTID": 311, "id": null, "name": "Gorosh", "size": null, "confirmed": null, "type": "Ruin", "Symbol": 4, "S2": 3}}, {"type": "Feature", "id": 312, "geometry": {"type": "Point", "coordinates": [56.0788257376507, -32.6001880467076]}, "properties": {"OBJECTID": 312, "id": null, "name": null, "size": null, "confirmed": null, "type": "Ruin", "Symbol": 4, "S2": 3}}, {"type": "Feature", "id": 313, "geometry": {"type": "Point", "coordinates": [-10.7464540528808, -36.399244712466]}, "properties": {"OBJECTID": 313, "id": null, "name": "Yeen", "size": null, "confirmed": null, "type": "Ruin", "Symbol": 4, "S2": 3}}, {"type": "Feature", "id": 314, "geometry": {"type": "Point", "coordinates": [10.7263424274678, -28.0422070863664]}, "properties": {"OBJECTID": 314, "id": null, "name": "Vahar", "size": null, "confirmed": null, "type": "City", "Symbol": 2, "S2": 2}}, {"type": "Feature", "id": 315, "geometry": {"type": "Point", "coordinates": [11.3548495424521, -25.7504592272873]}, "properties": {"OBJECTID": 315, "id": null, "name": "Faros", "size": null, "confirmed": null, "type": "City", "Symbol": 1, "S2": 2}}, {"type": "Feature", "id": 316, "geometry": {"type": "Point", "coordinates": [10.703648373785, -18.1056915995683]}, "properties": {"OBJECTID": 316, "id": null, "name": "Vaes Qosar", "size": null, "confirmed": null, "type": "Ruin", "Symbol": 4, "S2": 3}}, {"type": "Feature", "id": 317, "geometry": {"type": "Point", "coordinates": [2.62154844421578, -18.5490916888377]}, "properties": {"OBJECTID": 317, "id": null, "name": "Vaes Orvik", "size": null, "confirmed": null, "type": "Ruin", "Symbol": 4, "S2": 3}}, {"type": "Feature", "id": 318, "geometry": {"type": "Point", "coordinates": [16.0663371145071, -21.1097616757654]}, "properties": {"OBJECTID": 318, "id": null, "name": null, "size": null, "confirmed": null, "type": "Village", "Symbol": 3, "S2": 3}}, {"type": "Feature", "id": 319, "geometry": {"type": "Point", "coordinates": [14.4759580583473, -20.4494267463167]}, "properties": {"OBJECTID": 319, "id": null, "name": null, "size": null, "confirmed": null, "type": "Village", "Symbol": 3, "S2": 3}}, {"type": "Feature", "id": 320, "geometry": {"type": "Point", "coordinates": [-74.8985165597236, -12.5550617590585]}, "properties": {"OBJECTID": 320, "id": null, "name": "Ryamsport", "size": null, "confirmed": null, "type": "Village", "Symbol": 2, "S2": 3}}, {"type": "Feature", "id": 321, "geometry": {"type": "Point", "coordinates": [-75.4188090214234, -12.2387940309907]}, "properties": {"OBJECTID": 321, "id": null, "name": "Starfish Harbor", "size": null, "confirmed": null, "type": "Village", "Symbol": 2, "S2": 3}}, {"type": "Feature", "id": 322, "geometry": {"type": "Point", "coordinates": [-67.1145604660944, -9.43984447109485]}, "properties": {"OBJECTID": 322, "id": null, "name": "High Hermitage", "size": null, "confirmed": 1, "type": "House", "Symbol": 1, "S2": 1}}, {"type": "Feature", "id": 323, "geometry": {"type": "Point", "coordinates": [-55.8143298071521, 37.6041791996463]}, "properties": {"OBJECTID": 323, "id": null, "name": "Hardhome", "size": null, "confirmed": null, "type": "Village", "Symbol": 5, "S2": 3}}, {"type": "Feature", "id": 324, "geometry": {"type": "Point", "coordinates": [-8.56772786781047, -2.88027848896402]}, "properties": {"OBJECTID": 324, "id": null, "name": "Vaes Diaf", "size": null, "confirmed": null, "type": "Ruin", "Symbol": 1, "S2": 3}}, {"type": "Feature", "id": 325, "geometry": {"type": "Point", "coordinates": [6.94129762985485, 6.37607153766676]}, "properties": {"OBJECTID": 325, "id": null, "name": null, "size": null, "confirmed": null, "type": "Mountain", "Symbol": null, "S2": 0}}]}