{"type": "FeatureCollection", "features": [{"type": "Feature", "id": 2, "geometry": {"type": "LineString", "coordinates": [[-56.6640008371395, 35.0404202237305], [-57.2164747647666, 35.0019728615452], [-57.5564806849364, 34.9903674622774], [-57.6093219731787, 34.9885636863067], [-57.9016750918292, 34.9785832814137], [-58.1274707725396, 34.974768873723], [-58.6881876376204, 34.9677000466838], [-59.0531058420653, 34.9710599933712], [-59.3650995024073, 34.9739325341772], [-59.8219368957299, 34.9843882482732], [-60.0458142421174, 34.9895116792508], [-60.099550318858, 34.9923672183629], [-60.7493462358582, 35.0268895317767], [-61.3120726924167, 35.0671093170011], [-61.4675888637236, 35.0847861278273], [-61.6506277624357, 35.0984826582501], [-61.7875312857217, 35.0891479856154], [-61.9060580684619, 35.052965111695], [-62.0334949314848, 35.0105177952269], [-62.0935126215801, 34.9779372380486], [-62.1640159740844, 34.9396479837492], [-62.2506610928436, 34.8661380074898], [-62.3294410651334, 34.7992437583382], [-62.486785044837, 34.6651002775759], [-62.6490797757171, 34.5581563400588], [-62.7791311090176, 34.4693804996011], [-62.9455069185728, 34.3850794821689], [-63.045104265102, 34.3574717616643]]}, "properties": {"OBJECTID": 2, "id": 1, "name": "The Lands of Always Winter", "Shape__Length": 745326.7934750622}}]}