{"type": "FeatureCollection", "features": [{"type": "Feature", "properties": {"OBJECTID": 1, "id": 1, "name": "God's Eye", "continent": "Westeros", "Symbol": 1, "Visible": null, "type": "Lake", "Shape__Area": 25450309035.52295, "Shape__Length": 831619.0559873205}, "geometry": {"type": "Polygon", "coordinates": [[[1860.4, 4274.6], [1862.7, 4291.2], [1859.6, 4303.1], [1856.4, 4311.8], [1848.6, 4322.1], [1843.6, 4326.5], [1843.5, 4326.6], [1842.8, 4351.2], [1842.3, 4368.7], [1839.9, 4378.4], [1827.4, 4386.4], [1811.0, 4385.6], [1794.5, 4377.7], [1783.7, 4376.2], [1780.3, 4371.9], [1774.1, 4364.2], [1766.3, 4346.8], [1764.8, 4329.3], [1764.0, 4297.6], [1760.1, 4280.2], [1763.2, 4266.7], [1765.3, 4265.1], [1766.3, 4262.0], [1775.0, 4251.7], [1787.5, 4246.9], [1801.6, 4246.9], [1809.4, 4252.5], [1827.3, 4254.8], [1829.8, 4255.6], [1838.4, 4259.6], [1851.0, 4265.9], [1860.4, 4274.6]], [[1803.9, 4331.0], [1809.0, 4333.8], [1816.7, 4329.6], [1824.6, 4324.8], [1825.3, 4319.1], [1826.3, 4311.2], [1829.6, 4304.7], [1828.9, 4298.2], [1820.3, 4291.2], [1809.2, 4289.8], [1805.6, 4298.0], [1801.1, 4304.7], [1802.3, 4317.2], [1803.9, 4331.0]]]}}, {"type": "Feature", "properties": {"OBJECTID": 2, "id": 2, "name": "Red Lake", "continent": "Westeros", "Symbol": 1, "Visible": null, "type": "Lake", "Shape__Area": 1044804503.4802246, "Shape__Length": 139217.5254124164}, "geometry": {"type": "Polygon", "coordinates": [[[1345.9, 4844.6], [1342.6, 4850.3], [1335.6, 4848.4], [1330.1, 4850.3], [1325.8, 4854.6], [1319.1, 4855.6], [1316.2, 4851.9], [1320.8, 4846.2], [1321.5, 4839.3], [1326.6, 4836.1], [1332.3, 4835.7], [1338.3, 4833.1], [1343.1, 4834.9], [1347.4, 4839.5], [1345.9, 4844.6]]]}}, {"type": "Feature", "properties": {"OBJECTID": 3, "id": 3, "name": " ", "continent": "Westeros", "Symbol": 1, "Visible": null, "type": "Lake", "Shape__Area": 8481090704.837891, "Shape__Length": 358147.9507759424}, "geometry": {"type": "Polygon", "coordinates": [[[1381.8, 3097.1], [1377.6, 3098.8], [1367.1, 3099.8], [1351.1, 3097.8], [1334.6, 3099.4], [1329.7, 3101.6], [1328.6, 3099.9], [1327.5, 3096.9], [1326.1, 3092.9], [1326.6, 3072.0], [1329.1, 3066.5], [1333.0, 3063.1], [1339.5, 3058.2], [1345.1, 3053.9], [1351.4, 3048.0], [1353.9, 3045.7], [1358.7, 3044.8], [1365.2, 3043.5], [1371.0, 3047.2], [1371.3, 3047.3], [1378.7, 3049.8], [1385.8, 3058.9], [1385.8, 3067.1], [1389.7, 3071.7], [1395.9, 3074.4], [1398.2, 3077.1], [1398.9, 3083.6], [1398.2, 3085.5], [1392.4, 3092.7], [1381.8, 3097.1]]]}}, {"type": "Feature", "properties": {"OBJECTID": 4, "id": 4, "name": " ", "continent": "Westeros", "Symbol": 1, "Visible": null, "type": "Lake", "Shape__Area": 2784088625.0390625, "Shape__Length": 258173.56332439088}, "geometry": {"type": "Polygon", "coordinates": [[[1199.2, 3095.4], [1194.3, 3102.0], [1189.9, 3100.5], [1188.2, 3097.8], [1185.9, 3094.1], [1185.5, 3087.2], [1185.8, 3077.8], [1184.4, 3069.3], [1184.4, 3056.6], [1186.0, 3045.4], [1188.2, 3034.7], [1193.7, 3034.7], [1198.2, 3041.8], [1198.6, 3042.7], [1202.7, 3052.1], [1202.4, 3055.9], [1202.9, 3059.5], [1202.5, 3072.9], [1199.7, 3092.5], [1199.2, 3095.4]]]}}, {"type": "Feature", "properties": {"OBJECTID": 5, "id": 5, "name": " ", "continent": "Westeros", "Symbol": 1, "Visible": null, "type": "Lake", "Shape__Area": 2910759576.0566406, "Shape__Length": 233272.22274669347}, "geometry": {"type": "Polygon", "coordinates": [[[1200.7, 3018.0], [1198.7, 3020.4], [1192.0, 3019.0], [1187.8, 3007.0], [1185.2, 2998.0], [1184.9, 2986.6], [1185.1, 2985.8], [1180.0, 2975.4], [1182.2, 2968.8], [1187.7, 2964.8], [1190.8, 2965.2], [1192.1, 2965.3], [1203.3, 2971.8], [1205.3, 2976.4], [1206.4, 3001.2], [1203.7, 3014.4], [1200.7, 3018.0]]]}}, {"type": "Feature", "properties": {"OBJECTID": 6, "id": 6, "name": "Long Lake", "continent": "Westeros", "Symbol": 1, "Visible": null, "type": "Lake", "Shape__Area": 6593979159.488281, "Shape__Length": 576357.3005325103}, "geometry": {"type": "Polygon", "coordinates": [[[1820.3, 2765.3], [1815.4, 2769.7], [1813.4, 2766.0], [1812.7, 2757.1], [1811.2, 2747.9], [1812.0, 2737.4], [1812.0, 2728.8], [1812.3, 2724.3], [1812.4, 2723.9], [1813.8, 2716.3], [1813.8, 2712.7], [1814.2, 2707.2], [1815.0, 2693.1], [1815.4, 2682.9], [1815.3, 2680.4], [1815.7, 2672.9], [1817.2, 2666.2], [1817.9, 2663.2], [1818.3, 2661.5], [1822.1, 2652.9], [1823.1, 2648.8], [1825.3, 2639.4], [1827.6, 2632.6], [1830.9, 2626.8], [1833.8, 2621.9], [1836.4, 2619.0], [1839.4, 2617.7], [1840.9, 2624.8], [1841.8, 2640.5], [1840.5, 2649.1], [1838.6, 2655.9], [1837.1, 2666.0], [1837.0, 2669.0], [1836.4, 2669.9], [1834.9, 2682.3], [1834.9, 2696.4], [1832.3, 2706.5], [1827.9, 2713.7], [1825.3, 2722.6], [1823.4, 2732.8], [1823.1, 2745.6], [1823.1, 2750.4], [1822.0, 2755.5], [1820.3, 2765.3]]]}}, {"type": "Feature", "properties": {"OBJECTID": 7, "id": 12, "name": " ", "continent": "Essos", "Symbol": 1, "Visible": null, "type": "Lake", "Shape__Area": 2589028922.640869, "Shape__Length": 304610.0996146762}, "geometry": {"type": "Polygon", "coordinates": [[[3189.5, 4887.5], [3185.1, 4887.8], [3184.6, 4883.0], [3182.5, 4877.5], [3184.6, 4869.2], [3188.0, 4860.4], [3188.8, 4857.8], [3190.5, 4852.7], [3192.4, 4846.5], [3196.8, 4839.4], [3200.8, 4833.5], [3202.8, 4829.1], [3204.6, 4824.3], [3204.9, 4818.1], [3206.9, 4813.4], [3209.5, 4808.1], [3212.7, 4802.2], [3215.9, 4805.1], [3216.2, 4815.5], [3216.2, 4823.1], [3216.8, 4832.0], [3214.2, 4837.2], [3210.7, 4842.3], [3203.7, 4852.1], [3200.5, 4860.4], [3198.7, 4866.8], [3198.5, 4867.7], [3197.7, 4869.5], [3195.6, 4874.5], [3193.8, 4879.5], [3192.1, 4884.6], [3189.5, 4887.5]]]}}, {"type": "Feature", "properties": {"OBJECTID": 8, "id": 13, "name": " ", "continent": "Essos", "Symbol": 1, "Visible": null, "type": "Lake", "Shape__Area": 8855160129.081543, "Shape__Length": 441424.3014917237}, "geometry": {"type": "Polygon", "coordinates": [[[3268.7, 5338.6], [3261.6, 5345.0], [3251.8, 5344.1], [3245.8, 5339.8], [3243.5, 5334.4], [3247.5, 5330.4], [3249.8, 5326.5], [3250.7, 5323.1], [3250.1, 5320.1], [3246.4, 5319.8], [3247.0, 5312.8], [3252.4, 5307.0], [3254.7, 5300.0], [3253.0, 5290.8], [3250.1, 5282.5], [3249.0, 5277.3], [3250.4, 5274.6], [3254.2, 5271.8], [3253.6, 5266.9], [3250.7, 5263.9], [3249.3, 5260.8], [3252.4, 5255.0], [3259.6, 5254.4], [3265.6, 5249.4], [3269.9, 5247.9], [3273.6, 5244.2], [3279.9, 5246.7], [3288.8, 5249.4], [3296.0, 5255.6], [3295.7, 5260.2], [3292.5, 5264.8], [3289.7, 5266.6], [3293.1, 5270.6], [3297.1, 5277.6], [3295.7, 5291.4], [3292.2, 5299.9], [3286.8, 5304.8], [3282.2, 5308.8], [3281.1, 5314.3], [3278.8, 5321.0], [3276.2, 5324.9], [3272.5, 5326.1], [3271.9, 5332.5], [3268.7, 5338.6]]]}}, {"type": "Feature", "properties": {"OBJECTID": 9, "id": 14, "name": " ", "continent": "Essos", "Symbol": 1, "Visible": null, "type": "Lake", "Shape__Area": 2022108916.9658203, "Shape__Length": 201875.1127743444}, "geometry": {"type": "Polygon", "coordinates": [[[3188.8, 5425.6], [3184.0, 5425.8], [3181.4, 5420.9], [3181.5, 5418.1], [3181.6, 5417.6], [3181.7, 5417.3], [3185.5, 5408.9], [3188.6, 5403.4], [3191.0, 5396.3], [3193.7, 5386.8], [3195.9, 5378.4], [3200.3, 5374.3], [3203.9, 5375.1], [3206.7, 5379.6], [3210.2, 5386.1], [3210.5, 5396.7], [3205.7, 5403.6], [3203.0, 5410.1], [3199.1, 5414.6], [3194.0, 5421.4], [3188.8, 5425.6]]]}}, {"type": "Feature", "properties": {"OBJECTID": 10, "id": 15, "name": "The Sea of Sighs", "continent": "Essos", "Symbol": 2, "Visible": null, "type": "Red Sea", "Shape__Area": 44983913890.53711, "Shape__Length": 1681456.0510286426}, "geometry": {"type": "Polygon", "coordinates": [[[4493.9, 5610.5], [4492.0, 5611.8], [4485.9, 5613.7], [4481.6, 5615.7], [4480.7, 5617.7], [4481.1, 5622.6], [4479.6, 5624.5], [4473.4, 5626.9], [4467.1, 5626.9], [4458.5, 5624.6], [4458.3, 5624.6], [4451.4, 5624.6], [4448.2, 5625.0], [4446.7, 5625.4], [4435.7, 5630.1], [4426.3, 5636.3], [4423.2, 5642.6], [4422.4, 5651.9], [4419.5, 5662.5], [4417.9, 5664.2], [4398.1, 5673.0], [4389.4, 5679.2], [4369.8, 5699.5], [4353.8, 5712.6], [4340.8, 5724.3], [4332.5, 5730.2], [4328.3, 5735.3], [4325.1, 5742.2], [4321.1, 5752.0], [4320.4, 5757.7], [4320.4, 5765.4], [4322.0, 5778.6], [4323.5, 5788.6], [4328.6, 5796.5], [4329.0, 5797.1], [4330.4, 5801.4], [4330.1, 5805.5], [4326.4, 5809.4], [4324.2, 5811.8], [4323.8, 5813.2], [4325.3, 5816.2], [4324.2, 5822.7], [4315.6, 5845.1], [4308.8, 5853.2], [4299.3, 5857.0], [4295.3, 5862.7], [4281.9, 5870.4], [4266.2, 5885.8], [4252.1, 5894.2], [4242.7, 5898.1], [4256.0, 5880.4], [4256.8, 5879.6], [4270.9, 5865.8], [4278.2, 5851.0], [4281.3, 5844.8], [4281.1, 5842.7], [4280.4, 5830.4], [4283.5, 5821.9], [4287.4, 5808.8], [4292.7, 5799.9], [4292.9, 5799.0], [4289.8, 5772.4], [4289.5, 5756.8], [4291.4, 5732.9], [4292.7, 5724.3], [4294.9, 5709.9], [4297.0, 5705.7], [4303.1, 5699.5], [4307.8, 5697.0], [4316.5, 5694.1], [4323.8, 5689.2], [4324.3, 5685.5], [4324.3, 5685.5], [4323.4, 5677.3], [4324.1, 5668.9], [4326.6, 5662.1], [4329.0, 5659.0], [4345.5, 5649.7], [4355.8, 5644.3], [4360.4, 5641.9], [4365.9, 5634.1], [4369.1, 5623.9], [4368.9, 5623.6], [4366.7, 5617.7], [4366.7, 5610.6], [4373.9, 5611.0], [4380.8, 5611.4], [4387.1, 5610.8], [4389.7, 5609.8], [4404.4, 5598.1], [4420.1, 5577.7], [4440.4, 5553.5], [4451.8, 5546.7], [4456.2, 5545.4], [4478.9, 5547.9], [4485.9, 5550.3], [4486.8, 5552.2], [4486.9, 5552.4], [4486.6, 5553.9], [4483.6, 5556.6], [4468.7, 5559.7], [4460.0, 5563.6], [4457.0, 5569.2], [4455.3, 5572.2], [4455.3, 5584.8], [4456.0, 5590.1], [4457.2, 5592.5], [4462.9, 5594.7], [4470.1, 5596.9], [4479.6, 5600.4], [4486.7, 5602.7], [4492.5, 5605.0], [4494.4, 5606.8], [4493.9, 5610.5]]]}}, {"type": "Feature", "properties": {"OBJECTID": 11, "id": 17, "name": "Dagger Lake", "continent": "Essos", "Symbol": 1, "Visible": null, "type": "Lake", "Shape__Area": 3543198203.7705383, "Shape__Length": 296577.84117401665}, "geometry": {"type": "Polygon", "coordinates": [[[3662.4, 4932.9], [3660.5, 4940.7], [3655.8, 4938.8], [3648.5, 4921.8], [3645.6, 4910.6], [3645.6, 4901.4], [3643.3, 4893.4], [3639.9, 4888.3], [3636.7, 4881.9], [3639.3, 4877.4], [3642.9, 4872.6], [3648.1, 4866.4], [3651.3, 4863.1], [3655.6, 4860.5], [3660.8, 4863.8], [3663.7, 4867.8], [3662.4, 4873.9], [3662.2, 4881.2], [3666.2, 4884.1], [3666.2, 4891.1], [3662.8, 4894.7], [3663.6, 4907.1], [3666.5, 4910.0], [3665.6, 4919.9], [3661.1, 4926.5], [3662.4, 4932.9]]]}}, {"type": "Feature", "properties": {"OBJECTID": 12, "id": 18, "name": " ", "continent": "Essos", "Symbol": 1, "Visible": null, "type": "Lake", "Shape__Area": 4318328814.702515, "Shape__Length": 334115.5134844776}, "geometry": {"type": "Polygon", "coordinates": [[[3887.2, 4403.6], [3882.9, 4406.5], [3880.9, 4400.8], [3880.5, 4396.3], [3881.5, 4390.4], [3882.2, 4381.7], [3880.9, 4373.0], [3878.9, 4368.9], [3879.3, 4364.3], [3882.6, 4360.3], [3884.6, 4356.5], [3883.9, 4350.9], [3882.8, 4344.3], [3883.9, 4337.0], [3886.5, 4330.7], [3890.9, 4325.1], [3897.8, 4319.2], [3902.7, 4317.3], [3908.1, 4318.0], [3911.5, 4319.5], [3912.3, 4326.0], [3912.0, 4331.9], [3913.1, 4336.7], [3911.0, 4342.1], [3907.8, 4346.3], [3904.0, 4347.4], [3903.1, 4352.4], [3903.4, 4370.9], [3900.5, 4374.8], [3897.4, 4380.9], [3895.2, 4385.3], [3894.5, 4390.2], [3892.2, 4396.4], [3890.3, 4399.3], [3887.2, 4403.6]]]}}, {"type": "Feature", "properties": {"OBJECTID": 13, "id": 0, "name": "Poison Sea", "continent": "Essos", "Symbol": 3, "Visible": null, "type": "Gray Sea", "Shape__Area": 41913928541.670715, "Shape__Length": 1109473.2788838735}, "geometry": {"type": "Polygon", "coordinates": [[[6809.1, 5223.5], [6827.1, 5241.1], [6836.5, 5256.2], [6836.9, 5257.0], [6837.3, 5257.7], [6837.7, 5259.9], [6838.3, 5262.9], [6838.8, 5264.0], [6840.2, 5266.8], [6841.8, 5270.4], [6842.1, 5271.0], [6847.6, 5275.9], [6849.5, 5276.3], [6857.6, 5277.9], [6857.6, 5277.9], [6860.1, 5278.4], [6866.3, 5281.4], [6872.8, 5288.3], [6882.6, 5295.3], [6894.1, 5309.3], [6902.3, 5319.5], [6904.9, 5321.1], [6912.7, 5322.8], [6914.0, 5323.0], [6916.6, 5326.3], [6916.9, 5326.6], [6920.1, 5332.5], [6924.6, 5341.9], [6925.6, 5344.4], [6925.9, 5345.1], [6927.2, 5346.7], [6928.5, 5348.4], [6931.9, 5351.6], [6932.0, 5351.6], [6935.2, 5352.9], [6940.4, 5355.2], [6946.2, 5357.8], [6950.7, 5362.6], [6954.9, 5369.1], [6958.1, 5376.3], [6958.4, 5380.8], [6957.3, 5383.4], [6950.7, 5383.4], [6945.8, 5383.4], [6943.1, 5383.4], [6941.5, 5383.9], [6937.9, 5387.5], [6937.5, 5388.0], [6937.4, 5388.0], [6935.5, 5391.2], [6933.0, 5393.2], [6929.7, 5394.1], [6924.2, 5395.1], [6922.0, 5395.1], [6919.4, 5395.1], [6916.6, 5394.5], [6916.2, 5394.5], [6911.4, 5391.2], [6906.2, 5387.3], [6900.7, 5385.1], [6896.9, 5383.8], [6892.0, 5382.5], [6892.0, 5382.4], [6890.3, 5381.5], [6889.1, 5380.9], [6887.0, 5377.3], [6885.6, 5375.0], [6883.0, 5371.1], [6880.4, 5367.6], [6877.9, 5363.4], [6875.6, 5360.4], [6870.8, 5357.2], [6867.5, 5355.6], [6859.2, 5352.0], [6844.3, 5348.1], [6836.3, 5347.0], [6831.9, 5346.1], [6830.2, 5345.9], [6820.8, 5341.6], [6817.3, 5338.9], [6812.4, 5335.2], [6805.5, 5327.2], [6800.2, 5321.2], [6794.4, 5314.4], [6790.8, 5308.3], [6789.6, 5306.2], [6787.8, 5301.9], [6787.0, 5299.7], [6787.3, 5294.9], [6786.7, 5288.0], [6785.4, 5283.5], [6785.2, 5283.1], [6782.5, 5278.9], [6777.7, 5276.0], [6766.1, 5271.4], [6764.0, 5269.7], [6758.6, 5265.3], [6756.8, 5260.7], [6755.7, 5258.1], [6752.8, 5251.3], [6752.9, 5246.4], [6753.4, 5242.6], [6758.5, 5239.4], [6758.5, 5231.3], [6757.7, 5230.4], [6755.3, 5228.8], [6755.1, 5228.8], [6754.8, 5228.9], [6750.3, 5230.1], [6743.5, 5230.1], [6739.3, 5229.4], [6738.9, 5228.9], [6738.6, 5228.9], [6736.7, 5227.1], [6734.8, 5223.6], [6734.2, 5220.6], [6734.5, 5216.7], [6736.1, 5213.4], [6738.0, 5211.2], [6740.9, 5209.2], [6744.2, 5207.6], [6744.8, 5207.0], [6746.7, 5205.3], [6747.6, 5204.1], [6747.7, 5204.0], [6749.6, 5198.4], [6749.9, 5196.6], [6750.3, 5194.2], [6751.9, 5188.6], [6756.4, 5182.1], [6760.6, 5179.2], [6760.6, 5179.2], [6765.8, 5178.1], [6768.3, 5177.5], [6777.0, 5178.5], [6778.0, 5179.2], [6783.8, 5183.0], [6791.2, 5193.6], [6797.7, 5211.2], [6809.1, 5223.5]]]}}, {"type": "Feature", "properties": {"OBJECTID": 14, "id": 0, "name": "", "continent": "Essos", "Symbol": 1, "Visible": null, "type": "Lake", "Shape__Area": 12808184970.704865, "Shape__Length": 562007.2499159806}, "geometry": {"type": "Polygon", "coordinates": [[[5372.2, 4377.0], [5374.0, 4382.5], [5372.7, 4387.9], [5373.2, 4398.3], [5367.5, 4405.1], [5365.0, 4408.0], [5345.9, 4422.6], [5337.0, 4430.9], [5337.0, 4439.8], [5337.0, 4448.3], [5336.8, 4448.6], [5332.9, 4458.7], [5321.2, 4463.5], [5309.6, 4465.6], [5302.1, 4469.8], [5297.3, 4476.1], [5296.2, 4477.6], [5291.8, 4471.9], [5277.5, 4465.0], [5274.5, 4460.2], [5272.7, 4457.3], [5272.7, 4446.9], [5276.1, 4435.1], [5277.5, 4429.6], [5277.5, 4420.6], [5274.8, 4415.0], [5270.7, 4410.2], [5270.7, 4403.9], [5272.7, 4400.5], [5276.7, 4398.4], [5278.5, 4395.3], [5287.5, 4398.0], [5291.4, 4398.0], [5293.2, 4401.1], [5298.2, 4402.4], [5306.9, 4404.6], [5326.7, 4406.0], [5339.7, 4401.6], [5343.1, 4400.4], [5353.6, 4390.4], [5354.8, 4389.3], [5356.2, 4387.8], [5360.2, 4383.7], [5363.7, 4380.3], [5364.6, 4378.9], [5365.6, 4378.1], [5368.3, 4378.5], [5372.2, 4377.0]]]}}, {"type": "Feature", "properties": {"OBJECTID": 15, "id": 0, "name": "Bleeding Sea", "continent": "Essos", "Symbol": 2, "Visible": null, "type": "Red Sea", "Shape__Area": 177645674065.26102, "Shape__Length": 2880389.9366200636}, "geometry": {"type": "Polygon", "coordinates": [[[8964.2, 4830.8], [8974.7, 4838.2], [8987.3, 4846.7], [9000.1, 4846.7], [9005.0, 4839.3], [9013.0, 4846.7], [9013.4, 4847.0], [9014.8, 4848.3], [9019.7, 4854.3], [9017.7, 4860.3], [9005.0, 4869.3], [9001.0, 4880.3], [9003.0, 4887.3], [9006.9, 4893.3], [9017.7, 4903.3], [9018.7, 4913.3], [9016.7, 4943.3], [9006.7, 4954.1], [9013.8, 4961.2], [9013.8, 4974.2], [9004.9, 4999.2], [8992.1, 5009.2], [8983.3, 5020.2], [8978.4, 5028.2], [8976.5, 5045.6], [8982.0, 5059.2], [8997.6, 5067.7], [9000.5, 5069.7], [9012.7, 5071.0], [9013.7, 5081.0], [9017.6, 5096.0], [9018.6, 5106.9], [9014.7, 5116.9], [9008.8, 5124.9], [9001.9, 5136.8], [8999.0, 5150.8], [8998.9, 5165.7], [8993.0, 5176.7], [8986.2, 5182.6], [8981.3, 5199.6], [8965.2, 5206.5], [8965.2, 5215.8], [8969.7, 5221.9], [8990.1, 5231.4], [8992.0, 5238.3], [8992.0, 5253.2], [8994.0, 5270.1], [8996.9, 5284.0], [8996.9, 5297.8], [8995.9, 5315.7], [8986.1, 5328.6], [8976.3, 5335.5], [8959.6, 5346.4], [8953.7, 5355.3], [8949.8, 5374.1], [8946.0, 5387.7], [8945.7, 5390.7], [8945.2, 5390.6], [8944.7, 5390.5], [8943.6, 5390.1], [8941.3, 5389.8], [8939.9, 5389.2], [8937.7, 5388.1], [8936.0, 5387.0], [8934.9, 5386.2], [8933.4, 5385.5], [8930.1, 5383.9], [8929.5, 5383.3], [8927.4, 5381.5], [8926.6, 5380.2], [8926.9, 5373.6], [8927.5, 5362.6], [8930.7, 5316.3], [8929.7, 5300.2], [8920.3, 5292.0], [8909.5, 5290.0], [8902.6, 5289.0], [8898.7, 5282.1], [8897.7, 5269.2], [8893.8, 5252.3], [8894.2, 5251.0], [8896.8, 5242.4], [8896.8, 5235.4], [8889.9, 5229.4], [8887.8, 5227.7], [8886.8, 5219.2], [8887.9, 5207.6], [8900.4, 5206.5], [8907.7, 5205.4], [8907.7, 5199.1], [8902.6, 5191.0], [8888.9, 5183.7], [8882.1, 5165.8], [8880.1, 5155.9], [8877.6, 5148.6], [8874.7, 5143.3], [8859.5, 5133.3], [8859.5, 5124.0], [8868.3, 5113.0], [8874.2, 5107.1], [8875.2, 5101.1], [8864.1, 5092.9], [8865.8, 5089.4], [8869.1, 5082.7], [8870.2, 5080.5], [8880.3, 5052.7], [8880.3, 5042.1], [8878.7, 5022.3], [8863.5, 4996.3], [8861.7, 4986.6], [8860.8, 4965.9], [8861.9, 4955.2], [8884.4, 4917.9], [8885.2, 4911.6], [8882.5, 4907.5], [8882.1, 4902.5], [8880.7, 4894.6], [8868.2, 4886.1], [8868.2, 4886.1], [8855.6, 4873.4], [8848.3, 4857.4], [8847.3, 4845.7], [8853.6, 4837.2], [8858.7, 4827.2], [8854.4, 4823.3], [8850.6, 4819.9], [8847.1, 4815.7], [8846.3, 4809.5], [8850.4, 4800.0], [8864.0, 4777.6], [8861.9, 4762.8], [8864.4, 4759.6], [8874.5, 4755.3], [8884.9, 4752.1], [8900.6, 4746.8], [8909.1, 4744.4], [8916.3, 4742.5], [8938.2, 4740.7], [8942.4, 4742.5], [8954.9, 4759.5], [8962.2, 4768.0], [8962.2, 4783.9], [8951.8, 4797.8], [8949.3, 4807.9], [8951.0, 4809.4], [8960.8, 4818.3], [8962.7, 4824.3], [8964.2, 4830.8]], [[8887.2, 4881.0], [8891.0, 4882.2], [8896.1, 4882.2], [8898.9, 4879.3], [8900.2, 4875.8], [8902.4, 4871.3], [8903.6, 4867.5], [8903.0, 4863.6], [8901.8, 4860.1], [8891.7, 4851.7], [8886.0, 4845.3], [8884.1, 4841.1], [8882.2, 4838.9], [8879.0, 4837.9], [8875.9, 4841.8], [8875.6, 4844.7], [8872.4, 4847.6], [8867.7, 4847.9], [8867.4, 4852.4], [8870.5, 4854.6], [8875.3, 4855.9], [8880.0, 4858.2], [8884.1, 4861.7], [8887.9, 4864.6], [8888.8, 4869.4], [8888.8, 4872.6], [8887.2, 4875.8], [8887.2, 4881.0]]]}}, {"type": "Feature", "properties": {"OBJECTID": 16, "id": 0, "name": "Womb of the World", "continent": "", "Symbol": 1, "Visible": null, "type": "Lake", "Shape__Area": 6147793327.926392, "Shape__Length": 406324.4495910249}, "geometry": {"type": "Polygon", "coordinates": [[[6374.7, 4371.4], [6373.7, 4371.8], [6371.9, 4371.7], [6367.0, 4370.5], [6365.8, 4369.8], [6364.8, 4368.9], [6364.2, 4367.5], [6364.0, 4365.4], [6365.6, 4353.5], [6368.1, 4339.7], [6367.7, 4334.6], [6366.5, 4330.9], [6359.0, 4321.0], [6358.1, 4318.0], [6355.6, 4301.4], [6355.2, 4297.7], [6355.2, 4295.4], [6355.7, 4292.8], [6361.0, 4285.6], [6362.3, 4279.8], [6361.9, 4275.4], [6361.7, 4273.0], [6362.0, 4269.7], [6364.2, 4266.1], [6366.5, 4263.5], [6370.2, 4260.5], [6372.3, 4259.5], [6374.7, 4260.8], [6376.5, 4262.0], [6377.3, 4263.9], [6377.8, 4275.2], [6378.9, 4277.2], [6381.4, 4279.7], [6382.4, 4280.9], [6384.7, 4283.3], [6386.3, 4285.6], [6389.5, 4290.7], [6390.7, 4293.7], [6391.4, 4295.7], [6391.6, 4297.0], [6391.7, 4298.8], [6391.2, 4305.1], [6391.2, 4315.7], [6389.9, 4323.2], [6388.2, 4329.5], [6386.5, 4331.7], [6382.0, 4337.0], [6379.2, 4341.6], [6378.3, 4344.1], [6377.3, 4350.0], [6377.1, 4353.7], [6377.2, 4361.4], [6376.8, 4366.3], [6376.5, 4368.3], [6375.7, 4370.3], [6374.7, 4371.4]]]}}, {"type": "Feature", "properties": {"OBJECTID": 17, "id": null, "name": "Great Sand Sea", "continent": "", "Symbol": 2, "Visible": null, "type": "Sand Sea", "Shape__Area": 713563924594.9652, "Shape__Length": 5339866.819906218}, "geometry": {"type": "Polygon", "coordinates": [[[7618.4, 5723.8], [7615.7, 5724.1], [7614.0, 5724.0], [7612.3, 5723.1], [7610.7, 5720.5], [7610.2, 5717.4], [7610.4, 5714.2], [7612.5, 5708.2], [7613.3, 5705.7], [7614.1, 5689.2], [7613.7, 5675.2], [7612.8, 5672.1], [7611.1, 5668.9], [7608.8, 5666.1], [7605.2, 5663.4], [7600.4, 5661.1], [7581.2, 5653.5], [7567.8, 5647.6], [7561.0, 5644.4], [7553.5, 5640.9], [7550.1, 5637.8], [7548.4, 5635.8], [7547.3, 5632.4], [7547.2, 5629.7], [7547.6, 5626.8], [7548.4, 5625.5], [7553.6, 5617.6], [7554.2, 5614.8], [7554.3, 5612.4], [7554.0, 5609.6], [7552.8, 5606.1], [7551.0, 5603.1], [7545.4, 5598.7], [7535.4, 5593.2], [7519.4, 5584.6], [7503.0, 5576.1], [7497.8, 5572.8], [7493.0, 5569.1], [7487.8, 5561.7], [7483.7, 5557.2], [7477.0, 5552.8], [7473.3, 5547.2], [7472.0, 5544.2], [7471.1, 5539.8], [7471.1, 5534.2], [7472.6, 5524.2], [7474.1, 5518.2], [7476.6, 5507.9], [7477.0, 5504.8], [7476.7, 5500.4], [7474.8, 5494.2], [7469.5, 5478.5], [7467.8, 5471.9], [7467.5, 5467.5], [7468.0, 5463.1], [7474.5, 5442.4], [7483.0, 5428.8], [7484.9, 5422.5], [7485.5, 5417.2], [7484.8, 5411.5], [7483.0, 5404.4], [7472.7, 5387.7], [7466.5, 5376.0], [7465.1, 5372.3], [7464.4, 5364.4], [7463.5, 5359.8], [7461.8, 5355.4], [7458.0, 5348.0], [7453.3, 5341.3], [7446.7, 5335.0], [7440.0, 5329.7], [7435.7, 5327.0], [7429.8, 5323.7], [7421.4, 5319.2], [7406.5, 5314.7], [7387.2, 5310.6], [7380.9, 5307.6], [7374.9, 5303.5], [7371.2, 5297.9], [7370.3, 5293.1], [7369.7, 5286.8], [7369.0, 5278.4], [7369.4, 5266.7], [7370.8, 5261.6], [7374.0, 5249.6], [7375.2, 5245.7], [7375.7, 5243.5], [7376.0, 5240.5], [7376.1, 5235.2], [7376.8, 5221.6], [7375.8, 5211.5], [7375.3, 5201.7], [7376.0, 5195.9], [7378.7, 5186.3], [7381.8, 5177.3], [7384.4, 5171.8], [7392.3, 5158.0], [7399.0, 5147.0], [7402.6, 5141.2], [7412.9, 5127.1], [7413.8, 5122.2], [7413.7, 5118.5], [7412.8, 5115.2], [7409.9, 5110.0], [7404.6, 5105.0], [7384.9, 5091.5], [7371.7, 5079.8], [7359.4, 5064.2], [7350.9, 5052.8], [7347.4, 5046.6], [7345.4, 5038.7], [7344.6, 5029.8], [7345.6, 5021.1], [7348.1, 5016.5], [7361.7, 4995.9], [7369.4, 4986.5], [7378.1, 4978.3], [7398.8, 4966.7], [7402.3, 4963.3], [7405.5, 4957.8], [7406.9, 4955.5], [7407.6, 4953.4], [7407.8, 4950.7], [7407.1, 4947.5], [7404.2, 4941.6], [7402.0, 4938.0], [7398.9, 4932.6], [7397.5, 4927.8], [7397.5, 4921.1], [7398.2, 4915.5], [7400.3, 4911.9], [7402.7, 4908.8], [7415.4, 4899.8], [7420.7, 4896.3], [7429.6, 4891.3], [7434.3, 4886.7], [7435.3, 4884.0], [7433.6, 4878.7], [7430.8, 4873.6], [7412.9, 4859.3], [7411.8, 4858.4], [7405.5, 4852.7], [7403.5, 4849.6], [7402.3, 4846.0], [7401.3, 4839.4], [7401.4, 4834.6], [7403.6, 4828.3], [7406.5, 4822.9], [7414.1, 4815.9], [7418.3, 4811.3], [7420.8, 4806.3], [7421.6, 4801.1], [7420.9, 4796.7], [7419.0, 4791.9], [7416.0, 4786.3], [7406.7, 4773.0], [7405.8, 4771.8], [7400.8, 4765.5], [7399.3, 4763.5], [7395.2, 4757.9], [7393.7, 4755.2], [7392.3, 4752.2], [7392.1, 4747.2], [7393.0, 4743.0], [7394.7, 4737.8], [7396.3, 4733.4], [7397.7, 4730.3], [7399.5, 4724.6], [7400.4, 4720.3], [7400.8, 4714.3], [7400.4, 4711.7], [7398.2, 4707.5], [7393.3, 4698.3], [7392.5, 4696.7], [7387.7, 4684.5], [7386.0, 4676.9], [7385.8, 4672.0], [7386.0, 4669.9], [7387.5, 4664.4], [7389.5, 4661.2], [7391.7, 4659.6], [7396.0, 4654.9], [7399.4, 4648.5], [7402.0, 4642.1], [7402.6, 4636.5], [7402.1, 4631.2], [7401.4, 4627.6], [7400.1, 4623.6], [7396.8, 4617.9], [7394.4, 4613.6], [7392.9, 4610.9], [7390.5, 4606.2], [7389.3, 4601.7], [7389.3, 4596.7], [7391.9, 4589.6], [7392.9, 4587.2], [7394.9, 4582.0], [7396.4, 4575.9], [7395.9, 4572.0], [7394.2, 4567.3], [7388.6, 4560.8], [7384.2, 4553.7], [7383.7, 4551.0], [7383.9, 4548.6], [7387.3, 4541.7], [7391.3, 4536.8], [7395.2, 4534.3], [7409.5, 4527.6], [7415.2, 4526.4], [7422.0, 4526.0], [7427.1, 4526.4], [7433.1, 4527.9], [7438.1, 4530.4], [7443.9, 4535.8], [7447.4, 4541.1], [7448.0, 4544.9], [7447.6, 4548.3], [7445.6, 4556.4], [7445.7, 4562.6], [7448.0, 4576.4], [7450.1, 4584.8], [7452.8, 4591.2], [7456.7, 4598.4], [7469.5, 4615.3], [7483.1, 4626.6], [7488.4, 4628.7], [7525.4, 4638.1], [7562.5, 4641.9], [7563.4, 4642.3], [7564.4, 4642.4], [7573.6, 4645.0], [7580.7, 4650.7], [7585.2, 4659.0], [7585.2, 4659.6], [7585.2, 4661.8], [7585.2, 4664.3], [7584.1, 4667.3], [7582.2, 4672.6], [7577.0, 4677.5], [7575.5, 4679.7], [7574.7, 4680.9], [7574.7, 4684.3], [7575.0, 4686.9], [7580.4, 4697.9], [7580.3, 4698.1], [7580.7, 4698.7], [7581.1, 4702.9], [7579.9, 4708.2], [7578.1, 4710.7], [7575.5, 4714.2], [7573.4, 4717.4], [7568.8, 4724.4], [7563.3, 4730.9], [7562.1, 4732.4], [7560.2, 4742.6], [7561.3, 4749.8], [7562.2, 4750.8], [7567.1, 4756.9], [7571.7, 4760.1], [7573.9, 4761.6], [7588.0, 4766.8], [7609.7, 4786.3], [7616.1, 4799.3], [7618.6, 4807.1], [7627.6, 4817.5], [7628.6, 4822.9], [7626.5, 4827.8], [7622.5, 4834.4], [7605.8, 4844.9], [7595.4, 4846.3], [7584.1, 4854.0], [7580.3, 4859.8], [7579.6, 4864.4], [7581.3, 4872.4], [7587.8, 4878.3], [7590.6, 4880.4], [7591.8, 4881.3], [7602.0, 4889.1], [7613.5, 4898.2], [7619.9, 4906.0], [7631.4, 4920.3], [7645.4, 4929.4], [7669.7, 4935.8], [7695.2, 4950.1], [7726.9, 4964.3], [7744.5, 4970.1], [7751.2, 4972.5], [7756.7, 4974.7], [7760.1, 4977.3], [7761.1, 4979.6], [7761.1, 4981.8], [7760.3, 4983.8], [7758.7, 4986.8], [7755.3, 4990.6], [7749.0, 4996.0], [7744.6, 4998.6], [7733.1, 5002.2], [7727.7, 5003.8], [7721.6, 5005.1], [7708.7, 5008.0], [7699.9, 5009.0], [7686.1, 5010.1], [7677.8, 5012.5], [7674.2, 5014.4], [7669.2, 5018.5], [7665.5, 5022.4], [7662.3, 5027.9], [7660.7, 5033.9], [7659.3, 5039.8], [7659.7, 5046.9], [7660.8, 5050.8], [7662.3, 5054.1], [7664.4, 5057.6], [7666.8, 5060.8], [7670.2, 5064.5], [7677.2, 5070.1], [7691.0, 5078.7], [7699.5, 5083.3], [7704.6, 5086.1], [7729.5, 5098.2], [7736.2, 5102.1], [7739.6, 5105.0], [7741.1, 5107.2], [7741.7, 5109.6], [7741.4, 5112.5], [7740.3, 5116.0], [7738.1, 5119.7], [7735.6, 5121.8], [7729.5, 5126.5], [7728.3, 5128.0], [7724.3, 5132.9], [7724.2, 5133.4], [7722.8, 5141.2], [7725.8, 5147.2], [7733.6, 5152.5], [7737.4, 5154.6], [7742.5, 5157.6], [7759.9, 5165.4], [7764.0, 5169.4], [7766.3, 5171.6], [7768.4, 5180.2], [7767.8, 5189.3], [7765.1, 5193.9], [7759.1, 5198.9], [7745.0, 5204.3], [7740.2, 5206.0], [7726.9, 5210.7], [7716.5, 5217.6], [7702.8, 5232.8], [7690.0, 5254.8], [7687.7, 5269.7], [7688.4, 5272.9], [7692.6, 5279.0], [7696.2, 5281.6], [7701.4, 5283.5], [7705.6, 5287.5], [7707.9, 5292.2], [7706.6, 5301.2], [7697.3, 5313.7], [7696.6, 5314.6], [7695.1, 5319.8], [7695.1, 5323.7], [7696.5, 5327.1], [7704.0, 5334.7], [7707.5, 5338.9], [7709.7, 5345.6], [7709.0, 5351.6], [7703.0, 5362.1], [7694.6, 5371.5], [7693.1, 5373.7], [7688.0, 5382.5], [7687.0, 5386.2], [7685.9, 5392.8], [7685.9, 5397.9], [7687.8, 5402.5], [7688.7, 5403.4], [7692.6, 5407.3], [7695.8, 5409.4], [7702.9, 5413.8], [7705.6, 5415.5], [7722.3, 5424.5], [7729.0, 5431.9], [7732.0, 5435.7], [7733.4, 5439.0], [7733.4, 5440.1], [7733.4, 5455.5], [7739.8, 5465.8], [7747.4, 5473.5], [7751.2, 5477.3], [7757.1, 5485.0], [7759.8, 5494.4], [7759.6, 5503.8], [7758.8, 5507.3], [7755.1, 5517.0], [7744.8, 5528.5], [7738.3, 5534.3], [7733.3, 5538.7], [7718.0, 5552.8], [7716.6, 5558.1], [7717.4, 5564.6], [7720.6, 5569.4], [7730.3, 5578.0], [7733.6, 5584.7], [7735.0, 5589.5], [7735.1, 5596.3], [7733.3, 5606.3], [7724.1, 5639.4], [7717.2, 5649.0], [7712.3, 5653.9], [7706.0, 5656.7], [7693.9, 5659.2], [7689.8, 5661.0], [7684.7, 5666.1], [7674.5, 5682.6], [7668.6, 5694.2], [7666.9, 5695.8], [7661.7, 5698.7], [7654.6, 5701.7], [7649.5, 5705.3], [7642.0, 5710.9], [7624.5, 5721.8], [7621.3, 5723.2], [7618.4, 5723.8]]]}}, {"type": "Feature", "properties": {"OBJECTID": 18, "id": null, "name": "Hidden Sea", "continent": null, "Symbol": 3, "Visible": null, "type": "Blue Sea", "Shape__Area": 69191312590.78711, "Shape__Length": 1535828.4978669307}, "geometry": {"type": "Polygon", "coordinates": [[[9720.2, 6008.6], [9724.8, 6016.7], [9735.0, 6025.9], [9738.7, 6027.4], [9745.9, 6030.4], [9752.9, 6032.1], [9763.2, 6032.4], [9772.3, 6031.0], [9782.9, 6032.4], [9786.0, 6035.1], [9788.5, 6041.6], [9788.2, 6045.9], [9788.1, 6046.3], [9788.1, 6051.1], [9790.2, 6055.2], [9792.2, 6055.9], [9793.8, 6056.5], [9800.8, 6056.5], [9801.9, 6056.5], [9806.4, 6055.2], [9815.2, 6049.7], [9819.1, 6046.0], [9826.1, 6042.9], [9837.1, 6036.0], [9841.4, 6035.5], [9847.3, 6036.4], [9851.9, 6040.4], [9857.3, 6045.0], [9862.4, 6049.3], [9870.1, 6057.5], [9872.8, 6062.9], [9876.1, 6069.7], [9883.3, 6079.7], [9886.3, 6084.0], [9894.4, 6094.1], [9896.5, 6104.3], [9893.7, 6109.7], [9892.3, 6112.4], [9888.1, 6116.1], [9884.9, 6121.6], [9884.1, 6125.5], [9884.5, 6130.0], [9887.0, 6136.1], [9891.6, 6140.5], [9900.4, 6146.9], [9907.8, 6152.6], [9909.9, 6158.3], [9908.1, 6162.4], [9905.6, 6164.7], [9899.8, 6167.7], [9893.5, 6168.2], [9886.4, 6167.1], [9884.2, 6164.1], [9878.5, 6161.1], [9870.8, 6159.7], [9862.0, 6159.7], [9853.2, 6160.4], [9844.0, 6161.4], [9833.8, 6163.1], [9826.6, 6163.3], [9820.5, 6160.4], [9814.5, 6153.4], [9799.0, 6143.3], [9785.3, 6139.2], [9777.2, 6138.6], [9776.2, 6138.5], [9771.1, 6136.8], [9768.7, 6132.5], [9762.4, 6113.2], [9757.7, 6106.6], [9754.8, 6103.3], [9749.9, 6099.7], [9739.9, 6091.9], [9734.6, 6086.8], [9731.1, 6082.1], [9727.2, 6073.9], [9726.6, 6067.6], [9726.5, 6067.1], [9724.4, 6061.0], [9718.1, 6057.6], [9710.0, 6053.9], [9695.2, 6049.5], [9681.9, 6049.5], [9667.8, 6050.2], [9662.6, 6048.9], [9651.2, 6046.1], [9643.9, 6041.6], [9642.2, 6040.6], [9640.7, 6039.7], [9635.4, 6033.9], [9635.4, 6028.1], [9634.7, 6020.3], [9634.4, 6016.5], [9628.7, 6013.1], [9614.8, 6013.5], [9601.6, 6011.7], [9588.6, 6004.9], [9576.6, 5993.3], [9570.3, 5983.1], [9572.4, 5976.2], [9579.4, 5971.4], [9587.6, 5966.3], [9602.0, 5960.4], [9613.6, 5957.0], [9629.1, 5954.2], [9636.2, 5955.3], [9645.3, 5957.7], [9655.8, 5968.6], [9671.0, 5979.5], [9680.1, 5980.6], [9692.1, 5981.2], [9703.3, 5984.0], [9714.3, 5991.5], [9716.7, 5999.7], [9717.5, 6001.8], [9720.2, 6008.6]]]}}, {"type": "Feature", "properties": {"OBJECTID": 19, "id": null, "name": "The Dry Deep ", "continent": null, "Symbol": 2, "Visible": null, "type": "Sand Sea", "Shape__Area": 149942715145.50195, "Shape__Length": 2420121.283433039}, "geometry": {"type": "Polygon", "coordinates": [[[9721.7, 5386.3], [9697.2, 5395.2], [9672.6, 5405.1], [9650.0, 5402.2], [9639.9, 5396.5], [9626.9, 5393.3], [9619.6, 5393.3], [9593.0, 5399.3], [9567.5, 5403.2], [9546.9, 5409.2], [9533.1, 5413.1], [9524.1, 5416.7], [9522.2, 5421.9], [9527.5, 5433.0], [9529.2, 5433.9], [9531.2, 5439.8], [9530.2, 5444.7], [9523.3, 5453.6], [9521.1, 5458.8], [9520.3, 5460.5], [9520.3, 5463.5], [9524.3, 5466.4], [9529.7, 5469.1], [9530.2, 5469.4], [9535.1, 5475.3], [9536.0, 5483.1], [9533.1, 5496.9], [9530.6, 5515.0], [9536.9, 5526.2], [9546.7, 5538.1], [9559.8, 5553.3], [9559.6, 5553.9], [9563.5, 5557.8], [9569.4, 5563.7], [9570.4, 5573.5], [9562.5, 5583.3], [9556.6, 5598.0], [9556.6, 5606.8], [9559.6, 5617.5], [9567.4, 5629.3], [9567.4, 5643.9], [9559.6, 5641.0], [9544.8, 5634.2], [9537.6, 5631.6], [9525.2, 5630.3], [9519.3, 5626.4], [9518.4, 5617.7], [9518.4, 5617.4], [9518.3, 5616.6], [9522.2, 5607.8], [9525.2, 5599.0], [9529.9, 5590.5], [9530.1, 5590.2], [9530.1, 5582.3], [9523.2, 5576.4], [9520.9, 5575.5], [9516.4, 5573.5], [9504.6, 5569.6], [9500.7, 5567.6], [9494.8, 5559.8], [9494.8, 5552.0], [9495.0, 5549.0], [9495.8, 5541.2], [9490.9, 5533.0], [9485.9, 5531.4], [9481.0, 5520.6], [9475.1, 5509.7], [9473.2, 5496.0], [9469.3, 5485.2], [9466.3, 5477.3], [9460.4, 5473.4], [9452.6, 5469.4], [9442.8, 5458.6], [9440.8, 5450.7], [9441.8, 5440.9], [9441.8, 5429.0], [9431.0, 5427.1], [9423.1, 5424.1], [9416.3, 5421.1], [9408.4, 5411.3], [9403.5, 5404.4], [9395.6, 5395.5], [9392.7, 5390.5], [9394.7, 5378.7], [9395.7, 5365.8], [9400.6, 5356.9], [9419.3, 5339.0], [9438.9, 5328.5], [9465.1, 5316.3], [9494.5, 5316.3], [9530.5, 5311.0], [9561.5, 5300.6], [9605.6, 5295.3], [9641.6, 5284.8], [9647.6, 5281.5], [9666.8, 5280.4], [9684.4, 5273.5], [9709.0, 5267.5], [9727.7, 5262.5], [9745.3, 5262.5], [9757.8, 5261.9], [9768.9, 5261.5], [9780.7, 5258.5], [9795.4, 5261.4], [9805.2, 5273.3], [9823.9, 5275.3], [9832.7, 5281.3], [9834.7, 5294.2], [9835.7, 5303.1], [9821.9, 5316.0], [9814.1, 5328.9], [9811.1, 5341.7], [9797.3, 5358.6], [9781.6, 5366.5], [9763.0, 5375.4], [9743.3, 5378.4], [9721.7, 5386.3]]]}}, {"type": "Feature", "properties": {"OBJECTID": 20, "id": null, "name": null, "continent": null, "Symbol": 1, "Visible": null, "type": "Lake", "Shape__Area": 2040815870.8154297, "Shape__Length": 197273.25892959264}, "geometry": {"type": "Polygon", "coordinates": [[[8224.4, 5225.1], [8217.9, 5226.8], [8213.1, 5224.2], [8211.4, 5220.5], [8211.4, 5207.4], [8211.4, 5204.4], [8207.8, 5198.5], [8206.1, 5193.4], [8206.6, 5187.7], [8210.0, 5184.9], [8214.5, 5182.8], [8217.5, 5180.3], [8218.4, 5179.8], [8222.0, 5179.0], [8223.5, 5178.6], [8229.1, 5181.5], [8228.5, 5189.4], [8227.7, 5191.1], [8225.1, 5196.2], [8225.7, 5203.6], [8228.6, 5208.6], [8229.3, 5216.2], [8224.4, 5225.1]]]}}, {"type": "Feature", "properties": {"OBJECTID": 21, "id": null, "name": null, "continent": null, "Symbol": 1, "Visible": null, "type": "Lake", "Shape__Area": 9013407605.446777, "Shape__Length": 411842.38412113354}, "geometry": {"type": "Polygon", "coordinates": [[[8161.8, 5204.2], [8156.7, 5206.5], [8151.3, 5209.3], [8148.9, 5210.5], [8145.5, 5217.3], [8144.9, 5218.4], [8140.4, 5218.4], [8137.1, 5215.6], [8132.0, 5205.4], [8125.3, 5205.4], [8119.7, 5203.7], [8119.3, 5196.9], [8119.2, 5195.1], [8119.1, 5194.0], [8121.9, 5185.0], [8123.1, 5179.8], [8122.5, 5174.2], [8119.1, 5166.8], [8119.1, 5164.1], [8119.1, 5159.4], [8119.4, 5154.6], [8119.7, 5148.6], [8121.2, 5141.3], [8120.0, 5136.2], [8121.0, 5135.6], [8120.3, 5130.9], [8124.8, 5127.0], [8135.4, 5121.8], [8151.1, 5121.8], [8157.3, 5127.5], [8157.9, 5133.8], [8157.9, 5143.4], [8158.4, 5149.7], [8161.5, 5154.7], [8162.5, 5156.4], [8162.9, 5157.1], [8163.5, 5163.9], [8162.5, 5170.7], [8162.3, 5171.9], [8159.0, 5178.7], [8159.0, 5184.9], [8163.3, 5187.4], [8163.6, 5189.7], [8165.1, 5190.6], [8165.7, 5194.6], [8164.0, 5201.4], [8161.8, 5204.2]]]}}, {"type": "Feature", "properties": {"OBJECTID": 22, "id": null, "name": null, "continent": "Westeros", "Symbol": 1, "Visible": null, "type": "Lake", "Shape__Area": 13440887094.265625, "Shape__Length": 533471.4176067177}, "geometry": {"type": "Polygon", "coordinates": [[[1809.1, 1703.5], [1808.1, 1711.1], [1802.8, 1719.6], [1798.7, 1721.9], [1794.5, 1724.2], [1785.1, 1731.9], [1780.9, 1735.8], [1779.9, 1738.1], [1779.9, 1741.2], [1778.8, 1745.8], [1767.3, 1749.0], [1759.0, 1751.3], [1748.5, 1751.3], [1728.7, 1751.3], [1715.1, 1760.6], [1699.4, 1761.4], [1689.0, 1759.1], [1685.8, 1750.6], [1686.9, 1745.2], [1695.2, 1740.5], [1699.4, 1739.0], [1702.6, 1736.6], [1713.0, 1725.1], [1723.5, 1720.4], [1730.8, 1720.4], [1737.0, 1718.1], [1747.5, 1708.1], [1759.0, 1706.6], [1770.5, 1707.3], [1780.9, 1707.3], [1791.4, 1703.5], [1809.1, 1703.5]]]}}, {"type": "Feature", "properties": {"OBJECTID": 23, "id": null, "name": null, "continent": "Westeros", "Symbol": 1, "Visible": null, "type": "Lake", "Shape__Area": 9359158505.867188, "Shape__Length": 681476.9241758104}, "geometry": {"type": "Polygon", "coordinates": [[[1934.0, 1701.1], [1930.8, 1705.7], [1927.7, 1714.9], [1927.7, 1724.1], [1920.4, 1736.5], [1915.1, 1732.6], [1917.2, 1727.2], [1916.2, 1720.3], [1914.1, 1714.1], [1908.9, 1704.2], [1908.9, 1711.1], [1901.6, 1724.1], [1896.3, 1732.6], [1889.0, 1743.4], [1879.6, 1741.1], [1879.6, 1730.3], [1883.8, 1719.5], [1891.1, 1711.1], [1894.3, 1703.4], [1891.1, 1697.3], [1891.1, 1688.9], [1899.5, 1686.6], [1903.7, 1680.5], [1908.9, 1673.6], [1909.9, 1669.1], [1905.8, 1662.2], [1904.7, 1656.9], [1911.0, 1650.9], [1922.5, 1635.8], [1927.7, 1642.5], [1924.6, 1654.6], [1925.6, 1668.3], [1928.7, 1677.4], [1928.7, 1683.5], [1931.9, 1692.7], [1934.0, 1701.1]]]}}, {"type": "Feature", "properties": {"OBJECTID": 24, "id": null, "name": null, "continent": "Westeros", "Symbol": 1, "Visible": null, "type": "Lake", "Shape__Area": 2572048153.6015625, "Shape__Length": 255380.56515585375}, "geometry": {"type": "Polygon", "coordinates": [[[1683.2, 1816.1], [1680.1, 1824.8], [1672.8, 1820.9], [1669.6, 1813.8], [1666.5, 1809.1], [1662.3, 1802.0], [1664.4, 1795.8], [1666.5, 1790.3], [1666.5, 1784.0], [1663.4, 1773.1], [1668.6, 1771.6], [1673.8, 1777.8], [1679.0, 1785.6], [1685.3, 1792.6], [1684.3, 1798.1], [1683.2, 1809.1], [1683.2, 1816.1]]]}}, {"type": "Feature", "properties": {"OBJECTID": 25, "id": null, "name": null, "continent": "Westeros", "Symbol": 1, "Visible": null, "type": "Lake", "Shape__Area": 1439429399.125, "Shape__Length": 199616.25327315356}, "geometry": {"type": "Polygon", "coordinates": [[[1820.1, 1784.7], [1813.8, 1788.6], [1806.5, 1783.9], [1807.5, 1779.2], [1811.7, 1774.6], [1818.0, 1764.4], [1820.1, 1749.7], [1825.3, 1748.9], [1830.5, 1755.9], [1828.4, 1761.3], [1825.3, 1765.2], [1824.2, 1773.8], [1823.2, 1777.7], [1820.1, 1784.7]]]}}, {"type": "Feature", "properties": {"OBJECTID": 26, "id": null, "name": null, "continent": null, "Symbol": 1, "Visible": null, "type": "Lake", "Shape__Area": 2762860110.2766113, "Shape__Length": 321300.4626068034}, "geometry": {"type": "Polygon", "coordinates": [[[5432.0, 4564.9], [5428.5, 4569.7], [5425.8, 4558.6], [5425.8, 4549.6], [5427.2, 4540.6], [5427.9, 4534.3], [5432.0, 4521.1], [5432.0, 4511.4], [5430.6, 4501.6], [5427.4, 4493.2], [5429.5, 4488.0], [5432.7, 4484.3], [5438.7, 4480.1], [5447.7, 4478.0], [5448.9, 4490.8], [5443.6, 4503.0], [5443.6, 4512.0], [5440.9, 4524.6], [5439.5, 4536.4], [5437.4, 4551.7], [5432.0, 4564.9]]]}}, {"type": "Feature", "properties": {"OBJECTID": 27, "id": null, "name": null, "continent": null, "Symbol": 1, "Visible": null, "type": "Lake", "Shape__Area": 28671831534.164062, "Shape__Length": 837883.588018869}, "geometry": {"type": "Polygon", "coordinates": [[[6455.3, 8184.1], [6465.5, 8186.2], [6484.3, 8186.2], [6497.6, 8184.6], [6509.4, 8185.6], [6517.2, 8187.2], [6532.9, 8190.3], [6542.3, 8194.0], [6551.7, 8198.2], [6562.7, 8202.9], [6571.3, 8206.0], [6578.3, 8213.3], [6590.9, 8219.0], [6601.0, 8222.1], [6615.1, 8224.2], [6623.8, 8233.0], [6629.2, 8237.1], [6641.8, 8242.8], [6659.8, 8246.9], [6653.5, 8251.6], [6641.8, 8253.6], [6622.2, 8255.2], [6601.0, 8254.7], [6587.7, 8250.1], [6572.0, 8243.9], [6562.6, 8243.9], [6543.1, 8243.9], [6529.7, 8242.4], [6518.8, 8239.3], [6502.3, 8233.1], [6490.6, 8227.4], [6467.9, 8217.0], [6463.9, 8213.4], [6455.3, 8206.1], [6449.1, 8200.4], [6445.1, 8194.6], [6442.0, 8185.2], [6455.3, 8184.1]]]}}, {"type": "Feature", "properties": {"OBJECTID": 28, "id": null, "name": null, "continent": null, "Symbol": 1, "Visible": null, "type": "Lake", "Shape__Area": 3309024270.7210083, "Shape__Length": 247282.1680952515}, "geometry": {"type": "Polygon", "coordinates": [[[6108.5, 7864.6], [6109.9, 7875.9], [6101.5, 7873.9], [6090.2, 7868.8], [6081.8, 7865.7], [6070.5, 7854.4], [6062.1, 7845.1], [6066.3, 7838.9], [6074.7, 7836.8], [6091.6, 7844.0], [6104.3, 7857.4], [6108.5, 7864.6]]]}}, {"type": "Feature", "properties": {"OBJECTID": 29, "id": null, "name": "The Shrinking Sea", "continent": null, "Symbol": 2, "Visible": null, "type": "Sand Sea", "Shape__Area": 178165337404.9807, "Shape__Length": 1964240.0477120383}, "geometry": {"type": "Polygon", "coordinates": [[[8233.6, 5320.6], [8217.2, 5324.9], [8193.2, 5323.2], [8165.4, 5323.2], [8152.3, 5327.9], [8135.0, 5341.9], [8112.7, 5345.4], [8097.1, 5342.8], [8095.0, 5332.2], [8100.9, 5323.7], [8112.7, 5303.3], [8113.1, 5293.9], [8108.5, 5289.2], [8103.4, 5281.2], [8103.4, 5274.3], [8100.9, 5262.4], [8086.6, 5248.8], [8076.9, 5240.3], [8075.2, 5233.9], [8081.1, 5228.8], [8087.4, 5216.0], [8086.6, 5202.8], [8090.0, 5195.1], [8092.5, 5181.4], [8083.2, 5170.8], [8071.5, 5162.6], [8065.1, 5158.4], [8065.6, 5151.5], [8083.3, 5142.1], [8093.4, 5131.0], [8096.3, 5119.5], [8094.2, 5104.5], [8087.9, 5098.5], [8077.8, 5095.1], [8077.0, 5087.8], [8084.1, 5084.4], [8098.0, 5081.8], [8123.3, 5077.1], [8138.5, 5073.7], [8142.7, 5068.1], [8143.6, 5058.7], [8142.7, 5045.8], [8141.0, 5039.8], [8145.3, 5031.7], [8154.1, 5027.0], [8174.3, 5021.8], [8178.6, 5019.3], [8178.6, 5012.4], [8173.1, 5003.0], [8176.5, 4996.6], [8193.7, 4986.7], [8228.3, 4984.9], [8251.0, 4987.1], [8267.9, 4993.1], [8277.2, 4996.0], [8292.8, 5006.7], [8301.6, 5019.2], [8297.0, 5023.4], [8289.0, 5028.2], [8277.6, 5035.0], [8268.3, 5043.6], [8263.2, 5051.7], [8266.2, 5060.7], [8278.4, 5067.6], [8292.3, 5068.8], [8311.3, 5071.4], [8320.1, 5082.1], [8334.4, 5095.7], [8352.1, 5112.4], [8352.1, 5135.5], [8332.7, 5167.1], [8327.7, 5174.0], [8327.2, 5181.2], [8333.6, 5192.3], [8344.1, 5203.0], [8350.0, 5216.2], [8348.7, 5229.4], [8336.5, 5246.0], [8323.0, 5259.7], [8296.0, 5271.6], [8269.9, 5279.3], [8256.4, 5288.3], [8245.4, 5305.7], [8233.6, 5320.6]]]}}]}